<?xml version="1.0" encoding="UTF-8"?>
<gpx version="1.1" creator="drive-debrief" xmlns="http://www.topografix.com/GPX/1/1">
<trk><name>drive</name><trkseg>
<trkpt lat="55.9533000" lon="-3.1883000"><time>2026-03-02T12:30:00Z</time><speed>0.000</speed><course>90.00</course></trkpt>
<trkpt lat="55.9533000" lon="-3.1882615"><time>2026-03-02T12:30:01Z</time><speed>2.400</speed><course>90.00</course></trkpt>
<trkpt lat="55.9533000" lon="-3.1881845"><time>2026-03-02T12:30:02Z</time><speed>4.800</speed><course>90.00</course></trkpt>
<trkpt lat="55.9533000" lon="-3.1880690"><time>2026-03-02T12:30:03Z</time><speed>7.200</speed><course>90.00</course></trkpt>
<trkpt lat="55.9533000" lon="-3.1879149"><time>2026-03-02T12:30:04Z</time><speed>9.600</speed><course>90.00</course></trkpt>
<trkpt lat="55.9533000" lon="-3.1877224"><time>2026-03-02T12:30:05Z</time><speed>12.000</speed><course>90.00</course></trkpt>
<trkpt lat="55.9533000" lon="-3.1875298"><time>2026-03-02T12:30:06Z</time><speed>12.000</speed><course>90.00</course></trkpt>
<trkpt lat="55.9533000" lon="-3.1873373"><time>2026-03-02T12:30:07Z</time><speed>12.000</speed><course>90.00</course></trkpt>
<trkpt lat="55.9533000" lon="-3.1871448"><time>2026-03-02T12:30:08Z</time><speed>12.000</speed><course>90.00</course></trkpt>
<trkpt lat="55.9533000" lon="-3.1869522"><time>2026-03-02T12:30:09Z</time><speed>12.000</speed><course>90.00</course></trkpt>
<trkpt lat="55.9533000" lon="-3.1867597"><time>2026-03-02T12:30:10Z</time><speed>12.000</speed><course>90.00</course></trkpt>
<trkpt lat="55.9532667" lon="-3.1865766"><time>2026-03-02T12:30:11Z</time><speed>12.000</speed><course>108.00</course></trkpt>
<trkpt lat="55.9532054" lon="-3.1864260"><time>2026-03-02T12:30:12Z</time><speed>11.600</speed><course>126.00</course></trkpt>
<trkpt lat="55.9531240" lon="-3.1863204"><time>2026-03-02T12:30:13Z</time><speed>11.200</speed><course>144.00</course></trkpt>
<trkpt lat="55.9530318" lon="-3.1862668"><time>2026-03-02T12:30:14Z</time><speed>10.800</speed><course>162.00</course></trkpt>
<trkpt lat="55.9529383" lon="-3.1862668"><time>2026-03-02T12:30:15Z</time><speed>10.400</speed><course>180.00</course></trkpt>
<trkpt lat="55.9528485" lon="-3.1862668"><time>2026-03-02T12:30:16Z</time><speed>10.000</speed><course>180.00</course></trkpt>
<trkpt lat="55.9527587" lon="-3.1862668"><time>2026-03-02T12:30:17Z</time><speed>10.000</speed><course>180.00</course></trkpt>
<trkpt lat="55.9526689" lon="-3.1862668"><time>2026-03-02T12:30:18Z</time><speed>10.000</speed><course>180.00</course></trkpt>
<trkpt lat="55.9525790" lon="-3.1862668"><time>2026-03-02T12:30:19Z</time><speed>10.000</speed><course>180.00</course></trkpt>
<trkpt lat="55.9524946" lon="-3.1862119"><time>2026-03-02T12:30:20Z</time><speed>10.000</speed><course>160.00</course></trkpt>
<trkpt lat="55.9524230" lon="-3.1861047"><time>2026-03-02T12:30:21Z</time><speed>10.400</speed><course>140.00</course></trkpt>
<trkpt lat="55.9523745" lon="-3.1859546"><time>2026-03-02T12:30:22Z</time><speed>10.800</speed><course>120.00</course></trkpt>
<trkpt lat="55.9523571" lon="-3.1857776"><time>2026-03-02T12:30:23Z</time><speed>11.200</speed><course>100.00</course></trkpt>
<trkpt lat="55.9523752" lon="-3.1855943"><time>2026-03-02T12:30:24Z</time><speed>11.600</speed><course>80.00</course></trkpt>
<trkpt lat="55.9523939" lon="-3.1854047"><time>2026-03-02T12:30:25Z</time><speed>12.000</speed><course>80.00</course></trkpt>
<trkpt lat="55.9524126" lon="-3.1852151"><time>2026-03-02T12:30:26Z</time><speed>12.000</speed><course>80.00</course></trkpt>
<trkpt lat="55.9524313" lon="-3.1850255"><time>2026-03-02T12:30:27Z</time><speed>12.000</speed><course>80.00</course></trkpt>
<trkpt lat="55.9524500" lon="-3.1848359"><time>2026-03-02T12:30:28Z</time><speed>12.000</speed><course>80.00</course></trkpt>
<trkpt lat="55.9524688" lon="-3.1846463"><time>2026-03-02T12:30:29Z</time><speed>12.000</speed><course>80.00</course></trkpt>
<trkpt lat="55.9524875" lon="-3.1844566"><time>2026-03-02T12:30:30Z</time><speed>12.000</speed><course>80.00</course></trkpt>
<trkpt lat="55.9524762" lon="-3.1842652"><time>2026-03-02T12:30:31Z</time><speed>12.000</speed><course>96.00</course></trkpt>
<trkpt lat="55.9524372" lon="-3.1840926"><time>2026-03-02T12:30:32Z</time><speed>11.600</speed><course>112.00</course></trkpt>
<trkpt lat="55.9523752" lon="-3.1839510"><time>2026-03-02T12:30:33Z</time><speed>11.200</speed><course>128.00</course></trkpt>
<trkpt lat="55.9522967" lon="-3.1838491"><time>2026-03-02T12:30:34Z</time><speed>10.800</speed><course>144.00</course></trkpt>
<trkpt lat="55.9522089" lon="-3.1837920"><time>2026-03-02T12:30:35Z</time><speed>10.400</speed><course>160.00</course></trkpt>
<trkpt lat="55.9521245" lon="-3.1837372"><time>2026-03-02T12:30:36Z</time><speed>10.000</speed><course>160.00</course></trkpt>
<trkpt lat="55.9520401" lon="-3.1836823"><time>2026-03-02T12:30:37Z</time><speed>10.000</speed><course>160.00</course></trkpt>
<trkpt lat="55.9519557" lon="-3.1836274"><time>2026-03-02T12:30:38Z</time><speed>10.000</speed><course>160.00</course></trkpt>
<trkpt lat="55.9518713" lon="-3.1835725"><time>2026-03-02T12:30:39Z</time><speed>10.000</speed><course>160.00</course></trkpt>
<trkpt lat="55.9517986" lon="-3.1834782"><time>2026-03-02T12:30:40Z</time><speed>10.000</speed><course>144.00</course></trkpt>
<trkpt lat="55.9517415" lon="-3.1833476"><time>2026-03-02T12:30:41Z</time><speed>10.333</speed><course>128.00</course></trkpt>
<trkpt lat="55.9517056" lon="-3.1831889"><time>2026-03-02T12:30:42Z</time><speed>10.667</speed><course>112.00</course></trkpt>
<trkpt lat="55.9516952" lon="-3.1830134"><time>2026-03-02T12:30:43Z</time><speed>11.000</speed><course>96.00</course></trkpt>
<trkpt lat="55.9517129" lon="-3.1828343"><time>2026-03-02T12:30:44Z</time><speed>11.333</speed><course>80.00</course></trkpt>
<trkpt lat="55.9517589" lon="-3.1826660"><time>2026-03-02T12:30:45Z</time><speed>11.667</speed><course>64.00</course></trkpt>
<trkpt lat="55.9518061" lon="-3.1824930"><time>2026-03-02T12:30:46Z</time><speed>12.000</speed><course>64.00</course></trkpt>
<trkpt lat="55.9518455" lon="-3.1823488"><time>2026-03-02T12:30:47Z</time><speed>10.000</speed><course>64.00</course></trkpt>
<trkpt lat="55.9518770" lon="-3.1822334"><time>2026-03-02T12:30:48Z</time><speed>8.000</speed><course>64.00</course></trkpt>
<trkpt lat="55.9519006" lon="-3.1821469"><time>2026-03-02T12:30:49Z</time><speed>6.000</speed><course>64.00</course></trkpt>
<trkpt lat="55.9519164" lon="-3.1820892"><time>2026-03-02T12:30:50Z</time><speed>4.000</speed><course>64.00</course></trkpt>
<trkpt lat="55.9519243" lon="-3.1820603"><time>2026-03-02T12:30:51Z</time><speed>2.000</speed><course>64.00</course></trkpt>
</trkseg></trk></gpx>