<?xml version="1.0" encoding="UTF-8"?>
<kml xmlns="http://www.opengis.net/kml/2.2" xmlns:gx="http://www.google.com/kml/ext/2.2">
<Document><Placemark><gx:Track>
<when>2026-03-02T12:30:00Z</when>
<gx:coord>-3.1883000 55.9533000 0</gx:coord>
<when>2026-03-02T12:30:01Z</when>
<gx:coord>-3.1882615 55.9533000 0</gx:coord>
<when>2026-03-02T12:30:02Z</when>
<gx:coord>-3.1881845 55.9533000 0</gx:coord>
<when>2026-03-02T12:30:03Z</when>
<gx:coord>-3.1880690 55.9533000 0</gx:coord>
<when>2026-03-02T12:30:04Z</when>
<gx:coord>-3.1879149 55.9533000 0</gx:coord>
<when>2026-03-02T12:30:05Z</when>
<gx:coord>-3.1877224 55.9533000 0</gx:coord>
<when>2026-03-02T12:30:06Z</when>
<gx:coord>-3.1875298 55.9533000 0</gx:coord>
<when>2026-03-02T12:30:07Z</when>
<gx:coord>-3.1873373 55.9533000 0</gx:coord>
<when>2026-03-02T12:30:08Z</when>
<gx:coord>-3.1871448 55.9533000 0</gx:coord>
<when>2026-03-02T12:30:09Z</when>
<gx:coord>-3.1869522 55.9533000 0</gx:coord>
<when>2026-03-02T12:30:10Z</when>
<gx:coord>-3.1867597 55.9533000 0</gx:coord>
<when>2026-03-02T12:30:11Z</when>
<gx:coord>-3.1865766 55.9532667 0</gx:coord>
<when>2026-03-02T12:30:12Z</when>
<gx:coord>-3.1864260 55.9532054 0</gx:coord>
<when>2026-03-02T12:30:13Z</when>
<gx:coord>-3.1863204 55.9531240 0</gx:coord>
<when>2026-03-02T12:30:14Z</when>
<gx:coord>-3.1862668 55.9530318 0</gx:coord>
<when>2026-03-02T12:30:15Z</when>
<gx:coord>-3.1862668 55.9529383 0</gx:coord>
<when>2026-03-02T12:30:16Z</when>
<gx:coord>-3.1862668 55.9528485 0</gx:coord>
<when>2026-03-02T12:30:17Z</when>
<gx:coord>-3.1862668 55.9527587 0</gx:coord>
<when>2026-03-02T12:30:18Z</when>
<gx:coord>-3.1862668 55.9526689 0</gx:coord>
<when>2026-03-02T12:30:19Z</when>
<gx:coord>-3.1862668 55.9525790 0</gx:coord>
<when>2026-03-02T12:30:20Z</when>
<gx:coord>-3.1862119 55.9524946 0</gx:coord>
<when>2026-03-02T12:30:21Z</when>
<gx:coord>-3.1861047 55.9524230 0</gx:coord>
<when>2026-03-02T12:30:22Z</when>
<gx:coord>-3.1859546 55.9523745 0</gx:coord>
<when>2026-03-02T12:30:23Z</when>
<gx:coord>-3.1857776 55.9523571 0</gx:coord>
<when>2026-03-02T12:30:24Z</when>
<gx:coord>-3.1855943 55.9523752 0</gx:coord>
<when>2026-03-02T12:30:25Z</when>
<gx:coord>-3.1854047 55.9523939 0</gx:coord>
<when>2026-03-02T12:30:26Z</when>
<gx:coord>-3.1852151 55.9524126 0</gx:coord>
<when>2026-03-02T12:30:27Z</when>
<gx:coord>-3.1850255 55.9524313 0</gx:coord>
<when>2026-03-02T12:30:28Z</when>
<gx:coord>-3.1848359 55.9524500 0</gx:coord>
<when>2026-03-02T12:30:29Z</when>
<gx:coord>-3.1846463 55.9524688 0</gx:coord>
<when>2026-03-02T12:30:30Z</when>
<gx:coord>-3.1844566 55.9524875 0</gx:coord>
<when>2026-03-02T12:30:31Z</when>
<gx:coord>-3.1842652 55.9524762 0</gx:coord>
<when>2026-03-02T12:30:32Z</when>
<gx:coord>-3.1840926 55.9524372 0</gx:coord>
<when>2026-03-02T12:30:33Z</when>
<gx:coord>-3.1839510 55.9523752 0</gx:coord>
<when>2026-03-02T12:30:34Z</when>
<gx:coord>-3.1838491 55.9522967 0</gx:coord>
<when>2026-03-02T12:30:35Z</when>
<gx:coord>-3.1837920 55.9522089 0</gx:coord>
<when>2026-03-02T12:30:36Z</when>
<gx:coord>-3.1837372 55.9521245 0</gx:coord>
<when>2026-03-02T12:30:37Z</when>
<gx:coord>-3.1836823 55.9520401 0</gx:coord>
<when>2026-03-02T12:30:38Z</when>
<gx:coord>-3.1836274 55.9519557 0</gx:coord>
<when>2026-03-02T12:30:39Z</when>
<gx:coord>-3.1835725 55.9518713 0</gx:coord>
<when>2026-03-02T12:30:40Z</when>
<gx:coord>-3.1834782 55.9517986 0</gx:coord>
<when>2026-03-02T12:30:41Z</when>
<gx:coord>-3.1833476 55.9517415 0</gx:coord>
<when>2026-03-02T12:30:42Z</when>
<gx:coord>-3.1831889 55.9517056 0</gx:coord>
<when>2026-03-02T12:30:43Z</when>
<gx:coord>-3.1830134 55.9516952 0</gx:coord>
<when>2026-03-02T12:30:44Z</when>
<gx:coord>-3.1828343 55.9517129 0</gx:coord>
<when>2026-03-02T12:30:45Z</when>
<gx:coord>-3.1826660 55.9517589 0</gx:coord>
<when>2026-03-02T12:30:46Z</when>
<gx:coord>-3.1824930 55.9518061 0</gx:coord>
<when>2026-03-02T12:30:47Z</when>
<gx:coord>-3.1823488 55.9518455 0</gx:coord>
<when>2026-03-02T12:30:48Z</when>
<gx:coord>-3.1822334 55.9518770 0</gx:coord>
<when>2026-03-02T12:30:49Z</when>
<gx:coord>-3.1821469 55.9519006 0</gx:coord>
<when>2026-03-02T12:30:50Z</when>
<gx:coord>-3.1820892 55.9519164 0</gx:coord>
<when>2026-03-02T12:30:51Z</when>
<gx:coord>-3.1820603 55.9519243 0</gx:coord>
</gx:Track></Placemark></Document></kml>