<?xml version="1.0" encoding="UTF-8"?>
<kml xmlns="http://www.opengis.net/kml/2.2" xmlns:gx="http://www.google.com/kml/ext/2.2">
<Document><Placemark><gx:Track>
<when>2026-03-02T08:15:00Z</when>
<gx:coord>-1.5491000 53.8008000 0</gx:coord>
<when>2026-03-02T08:15:01Z</when>
<gx:coord>-1.5490049 53.8008000 0</gx:coord>
<when>2026-03-02T08:15:02Z</when>
<gx:coord>-1.5488148 53.8008000 0</gx:coord>
<when>2026-03-02T08:15:03Z</when>
<gx:coord>-1.5485296 53.8008000 0</gx:coord>
<when>2026-03-02T08:15:04Z</when>
<gx:coord>-1.5481494 53.8008000 0</gx:coord>
<when>2026-03-02T08:15:05Z</when>
<gx:coord>-1.5477691 53.8008000 0</gx:coord>
<when>2026-03-02T08:15:06Z</when>
<gx:coord>-1.5473888 53.8008000 0</gx:coord>
<when>2026-03-02T08:15:07Z</when>
<gx:coord>-1.5470086 53.8008000 0</gx:coord>
<when>2026-03-02T08:15:08Z</when>
<gx:coord>-1.5466283 53.8008000 0</gx:coord>
<when>2026-03-02T08:15:09Z</when>
<gx:coord>-1.5462481 53.8008000 0</gx:coord>
<when>2026-03-02T08:15:10Z</when>
<gx:coord>-1.5458678 53.8008000 0</gx:coord>
<when>2026-03-02T08:15:11Z</when>
<gx:coord>-1.5454876 53.8008000 0</gx:coord>
<when>2026-03-02T08:15:12Z</when>
<gx:coord>-1.5451073 53.8008000 0</gx:coord>
<when>2026-03-02T08:15:13Z</when>
<gx:coord>-1.5447270 53.8008000 0</gx:coord>
<when>2026-03-02T08:15:14Z</when>
<gx:coord>-1.5443468 53.8008000 0</gx:coord>
<when>2026-03-02T08:15:15Z</when>
<gx:coord>-1.5439665 53.8008000 0</gx:coord>
<when>2026-03-02T08:15:16Z</when>
<gx:coord>-1.5435863 53.8008000 0</gx:coord>
<when>2026-03-02T08:15:17Z</when>
<gx:coord>-1.5432060 53.8008000 0</gx:coord>
<when>2026-03-02T08:15:18Z</when>
<gx:coord>-1.5428258 53.8008000 0</gx:coord>
<when>2026-03-02T08:15:19Z</when>
<gx:coord>-1.5424455 53.8008000 0</gx:coord>
<when>2026-03-02T08:15:20Z</when>
<gx:coord>-1.5420652 53.8008000 0</gx:coord>
<when>2026-03-02T08:15:21Z</when>
<gx:coord>-1.5416850 53.8008000 0</gx:coord>
<when>2026-03-02T08:15:22Z</when>
<gx:coord>-1.5413047 53.8008000 0</gx:coord>
<when>2026-03-02T08:15:23Z</when>
<gx:coord>-1.5409245 53.8008000 0</gx:coord>
<when>2026-03-02T08:15:24Z</when>
<gx:coord>-1.5405442 53.8008000 0</gx:coord>
<when>2026-03-02T08:15:25Z</when>
<gx:coord>-1.5401640 53.8008000 0</gx:coord>
<when>2026-03-02T08:15:26Z</when>
<gx:coord>-1.5397837 53.8008000 0</gx:coord>
<when>2026-03-02T08:15:27Z</when>
<gx:coord>-1.5394034 53.8008000 0</gx:coord>
<when>2026-03-02T08:15:28Z</when>
<gx:coord>-1.5390232 53.8008000 0</gx:coord>
<when>2026-03-02T08:15:29Z</when>
<gx:coord>-1.5386429 53.8008000 0</gx:coord>
<when>2026-03-02T08:15:30Z</when>
<gx:coord>-1.5382627 53.8008000 0</gx:coord>
<when>2026-03-02T08:15:31Z</when>
<gx:coord>-1.5378824 53.8008000 0</gx:coord>
<when>2026-03-02T08:15:32Z</when>
<gx:coord>-1.5375022 53.8008000 0</gx:coord>
<when>2026-03-02T08:15:33Z</when>
<gx:coord>-1.5371219 53.8008000 0</gx:coord>
<when>2026-03-02T08:15:34Z</when>
<gx:coord>-1.5367416 53.8008000 0</gx:coord>
<when>2026-03-02T08:15:35Z</when>
<gx:coord>-1.5363614 53.8008000 0</gx:coord>
<when>2026-03-02T08:15:36Z</when>
<gx:coord>-1.5359811 53.8008000 0</gx:coord>
<when>2026-03-02T08:15:37Z</when>
<gx:coord>-1.5356009 53.8008000 0</gx:coord>
<when>2026-03-02T08:15:38Z</when>
<gx:coord>-1.5352206 53.8008000 0</gx:coord>
<when>2026-03-02T08:15:39Z</when>
<gx:coord>-1.5348404 53.8008000 0</gx:coord>
<when>2026-03-02T08:15:40Z</when>
<gx:coord>-1.5344601 53.8008000 0</gx:coord>
<when>2026-03-02T08:15:41Z</when>
<gx:coord>-1.5340798 53.8008000 0</gx:coord>
<when>2026-03-02T08:15:42Z</when>
<gx:coord>-1.5336996 53.8008000 0</gx:coord>
<when>2026-03-02T08:15:43Z</when>
<gx:coord>-1.5333193 53.8008000 0</gx:coord>
<when>2026-03-02T08:15:44Z</when>
<gx:coord>-1.5329412 53.8007765 0</gx:coord>
<when>2026-03-02T08:15:45Z</when>
<gx:coord>-1.5325692 53.8007298 0</gx:coord>
<when>2026-03-02T08:15:46Z</when>
<gx:coord>-1.5322076 53.8006604 0</gx:coord>
<when>2026-03-02T08:15:47Z</when>
<gx:coord>-1.5318459 53.8005910 0</gx:coord>
<when>2026-03-02T08:15:48Z</when>
<gx:coord>-1.5314843 53.8005216 0</gx:coord>
<when>2026-03-02T08:15:49Z</when>
<gx:coord>-1.5311226 53.8004522 0</gx:coord>
<when>2026-03-02T08:15:50Z</when>
<gx:coord>-1.5307610 53.8003828 0</gx:coord>
<when>2026-03-02T08:15:51Z</when>
<gx:coord>-1.5303993 53.8003134 0</gx:coord>
<when>2026-03-02T08:15:52Z</when>
<gx:coord>-1.5300377 53.8002440 0</gx:coord>
<when>2026-03-02T08:15:53Z</when>
<gx:coord>-1.5296760 53.8001746 0</gx:coord>
<when>2026-03-02T08:15:54Z</when>
<gx:coord>-1.5293144 53.8001052 0</gx:coord>
<when>2026-03-02T08:15:55Z</when>
<gx:coord>-1.5289527 53.8000358 0</gx:coord>
<when>2026-03-02T08:15:56Z</when>
<gx:coord>-1.5285911 53.7999665 0</gx:coord>
<when>2026-03-02T08:15:57Z</when>
<gx:coord>-1.5282294 53.7998971 0</gx:coord>
<when>2026-03-02T08:15:58Z</when>
<gx:coord>-1.5278678 53.7998277 0</gx:coord>
<when>2026-03-02T08:15:59Z</when>
<gx:coord>-1.5275062 53.7997583 0</gx:coord>
<when>2026-03-02T08:16:00Z</when>
<gx:coord>-1.5271445 53.7996889 0</gx:coord>
<when>2026-03-02T08:16:01Z</when>
<gx:coord>-1.5267829 53.7996195 0</gx:coord>
<when>2026-03-02T08:16:02Z</when>
<gx:coord>-1.5264212 53.7995501 0</gx:coord>
<when>2026-03-02T08:16:03Z</when>
<gx:coord>-1.5260596 53.7994807 0</gx:coord>
<when>2026-03-02T08:16:04Z</when>
<gx:coord>-1.5256979 53.7994113 0</gx:coord>
<when>2026-03-02T08:16:05Z</when>
<gx:coord>-1.5253363 53.7993419 0</gx:coord>
<when>2026-03-02T08:16:06Z</when>
<gx:coord>-1.5249746 53.7992725 0</gx:coord>
<when>2026-03-02T08:16:07Z</when>
<gx:coord>-1.5246130 53.7992031 0</gx:coord>
<when>2026-03-02T08:16:08Z</when>
<gx:coord>-1.5242513 53.7991337 0</gx:coord>
<when>2026-03-02T08:16:09Z</when>
<gx:coord>-1.5238897 53.7990643 0</gx:coord>
<when>2026-03-02T08:16:10Z</when>
<gx:coord>-1.5235280 53.7989949 0</gx:coord>
<when>2026-03-02T08:16:11Z</when>
<gx:coord>-1.5231664 53.7989255 0</gx:coord>
<when>2026-03-02T08:16:12Z</when>
<gx:coord>-1.5228048 53.7988561 0</gx:coord>
<when>2026-03-02T08:16:13Z</when>
<gx:coord>-1.5224431 53.7987867 0</gx:coord>
<when>2026-03-02T08:16:14Z</when>
<gx:coord>-1.5220815 53.7987173 0</gx:coord>
<when>2026-03-02T08:16:15Z</when>
<gx:coord>-1.5217198 53.7986479 0</gx:coord>
<when>2026-03-02T08:16:16Z</when>
<gx:coord>-1.5213582 53.7985785 0</gx:coord>
<when>2026-03-02T08:16:17Z</when>
<gx:coord>-1.5209965 53.7985091 0</gx:coord>
<when>2026-03-02T08:16:18Z</when>
<gx:coord>-1.5206349 53.7984397 0</gx:coord>
<when>2026-03-02T08:16:19Z</when>
<gx:coord>-1.5202732 53.7983703 0</gx:coord>
<when>2026-03-02T08:16:20Z</when>
<gx:coord>-1.5199116 53.7983009 0</gx:coord>
<when>2026-03-02T08:16:21Z</when>
<gx:coord>-1.5195499 53.7982315 0</gx:coord>
<when>2026-03-02T08:16:22Z</when>
<gx:coord>-1.5191883 53.7981621 0</gx:coord>
<when>2026-03-02T08:16:23Z</when>
<gx:coord>-1.5188580 53.7980987 0</gx:coord>
<when>2026-03-02T08:16:24Z</when>
<gx:coord>-1.5185590 53.7980413 0</gx:coord>
<when>2026-03-02T08:16:25Z</when>
<gx:coord>-1.5182914 53.7979900 0</gx:coord>
<when>2026-03-02T08:16:26Z</when>
<gx:coord>-1.5180551 53.7979446 0</gx:coord>
<when>2026-03-02T08:16:27Z</when>
<gx:coord>-1.5178502 53.7979053 0</gx:coord>
<when>2026-03-02T08:16:28Z</when>
<gx:coord>-1.5176766 53.7978720 0</gx:coord>
<when>2026-03-02T08:16:29Z</when>
<gx:coord>-1.5175030 53.7978387 0</gx:coord>
<when>2026-03-02T08:16:30Z</when>
<gx:coord>-1.5173294 53.7978054 0</gx:coord>
<when>2026-03-02T08:16:31Z</when>
<gx:coord>-1.5171558 53.7977721 0</gx:coord>
<when>2026-03-02T08:16:32Z</when>
<gx:coord>-1.5169823 53.7977388 0</gx:coord>
<when>2026-03-02T08:16:33Z</when>
<gx:coord>-1.5168087 53.7977055 0</gx:coord>
<when>2026-03-02T08:16:34Z</when>
<gx:coord>-1.5166351 53.7976721 0</gx:coord>
<when>2026-03-02T08:16:35Z</when>
<gx:coord>-1.5164615 53.7976388 0</gx:coord>
<when>2026-03-02T08:16:36Z</when>
<gx:coord>-1.5162879 53.7976055 0</gx:coord>
<when>2026-03-02T08:16:37Z</when>
<gx:coord>-1.5161143 53.7975722 0</gx:coord>
<when>2026-03-02T08:16:38Z</when>
<gx:coord>-1.5159407 53.7975389 0</gx:coord>
<when>2026-03-02T08:16:39Z</when>
<gx:coord>-1.5158018 53.7975122 0</gx:coord>
<when>2026-03-02T08:16:40Z</when>
<gx:coord>-1.5156977 53.7974923 0</gx:coord>
<when>2026-03-02T08:16:41Z</when>
<gx:coord>-1.5156283 53.7974789 0</gx:coord>
<when>2026-03-02T08:16:42Z</when>
<gx:coord>-1.5155935 53.7974723 0</gx:coord>
</gx:Track></Placemark></Document></kml>