<?xml version="1.0" encoding="UTF-8"?>
<gpx version="1.1" creator="drive-debrief" xmlns="http://www.topografix.com/GPX/1/1">
<trk><name>drive</name><trkseg>
<trkpt lat="53.8008000" lon="-1.5491000"><time>2026-03-02T08:15:00Z</time><speed>0.000</speed><course>90.00</course></trkpt>
<trkpt lat="53.8008000" lon="-1.5490049"><time>2026-03-02T08:15:01Z</time><speed>6.250</speed><course>90.00</course></trkpt>
<trkpt lat="53.8008000" lon="-1.5488148"><time>2026-03-02T08:15:02Z</time><speed>12.500</speed><course>90.00</course></trkpt>
<trkpt lat="53.8008000" lon="-1.5485296"><time>2026-03-02T08:15:03Z</time><speed>18.750</speed><course>90.00</course></trkpt>
<trkpt lat="53.8008000" lon="-1.5481494"><time>2026-03-02T08:15:04Z</time><speed>25.000</speed><course>90.00</course></trkpt>
<trkpt lat="53.8008000" lon="-1.5477691"><time>2026-03-02T08:15:05Z</time><speed>25.000</speed><course>90.00</course></trkpt>
<trkpt lat="53.8008000" lon="-1.5473888"><time>2026-03-02T08:15:06Z</time><speed>25.000</speed><course>90.00</course></trkpt>
<trkpt lat="53.8008000" lon="-1.5470086"><time>2026-03-02T08:15:07Z</time><speed>25.000</speed><course>90.00</course></trkpt>
<trkpt lat="53.8008000" lon="-1.5466283"><time>2026-03-02T08:15:08Z</time><speed>25.000</speed><course>90.00</course></trkpt>
<trkpt lat="53.8008000" lon="-1.5462481"><time>2026-03-02T08:15:09Z</time><speed>25.000</speed><course>90.00</course></trkpt>
<trkpt lat="53.8008000" lon="-1.5458678"><time>2026-03-02T08:15:10Z</time><speed>25.000</speed><course>90.00</course></trkpt>
<trkpt lat="53.8008000" lon="-1.5454876"><time>2026-03-02T08:15:11Z</time><speed>25.000</speed><course>90.00</course></trkpt>
<trkpt lat="53.8008000" lon="-1.5451073"><time>2026-03-02T08:15:12Z</time><speed>25.000</speed><course>90.00</course></trkpt>
<trkpt lat="53.8008000" lon="-1.5447270"><time>2026-03-02T08:15:13Z</time><speed>25.000</speed><course>90.00</course></trkpt>
<trkpt lat="53.8008000" lon="-1.5443468"><time>2026-03-02T08:15:14Z</time><speed>25.000</speed><course>90.00</course></trkpt>
<trkpt lat="53.8008000" lon="-1.5439665"><time>2026-03-02T08:15:15Z</time><speed>25.000</speed><course>90.00</course></trkpt>
<trkpt lat="53.8008000" lon="-1.5435863"><time>2026-03-02T08:15:16Z</time><speed>25.000</speed><course>90.00</course></trkpt>
<trkpt lat="53.8008000" lon="-1.5432060"><time>2026-03-02T08:15:17Z</time><speed>25.000</speed><course>90.00</course></trkpt>
<trkpt lat="53.8008000" lon="-1.5428258"><time>2026-03-02T08:15:18Z</time><speed>25.000</speed><course>90.00</course></trkpt>
<trkpt lat="53.8008000" lon="-1.5424455"><time>2026-03-02T08:15:19Z</time><speed>25.000</speed><course>90.00</course></trkpt>
<trkpt lat="53.8008000" lon="-1.5420652"><time>2026-03-02T08:15:20Z</time><speed>25.000</speed><course>90.00</course></trkpt>
<trkpt lat="53.8008000" lon="-1.5416850"><time>2026-03-02T08:15:21Z</time><speed>25.000</speed><course>90.00</course></trkpt>
<trkpt lat="53.8008000" lon="-1.5413047"><time>2026-03-02T08:15:22Z</time><speed>25.000</speed><course>90.00</course></trkpt>
<trkpt lat="53.8008000" lon="-1.5409245"><time>2026-03-02T08:15:23Z</time><speed>25.000</speed><course>90.00</course></trkpt>
<trkpt lat="53.8008000" lon="-1.5405442"><time>2026-03-02T08:15:24Z</time><speed>25.000</speed><course>90.00</course></trkpt>
<trkpt lat="53.8008000" lon="-1.5401640"><time>2026-03-02T08:15:25Z</time><speed>25.000</speed><course>90.00</course></trkpt>
<trkpt lat="53.8008000" lon="-1.5397837"><time>2026-03-02T08:15:26Z</time><speed>25.000</speed><course>90.00</course></trkpt>
<trkpt lat="53.8008000" lon="-1.5394034"><time>2026-03-02T08:15:27Z</time><speed>25.000</speed><course>90.00</course></trkpt>
<trkpt lat="53.8008000" lon="-1.5390232"><time>2026-03-02T08:15:28Z</time><speed>25.000</speed><course>90.00</course></trkpt>
<trkpt lat="53.8008000" lon="-1.5386429"><time>2026-03-02T08:15:29Z</time><speed>25.000</speed><course>90.00</course></trkpt>
<trkpt lat="53.8008000" lon="-1.5382627"><time>2026-03-02T08:15:30Z</time><speed>25.000</speed><course>90.00</course></trkpt>
<trkpt lat="53.8008000" lon="-1.5378824"><time>2026-03-02T08:15:31Z</time><speed>25.000</speed><course>90.00</course></trkpt>
<trkpt lat="53.8008000" lon="-1.5375022"><time>2026-03-02T08:15:32Z</time><speed>25.000</speed><course>90.00</course></trkpt>
<trkpt lat="53.8008000" lon="-1.5371219"><time>2026-03-02T08:15:33Z</time><speed>25.000</speed><course>90.00</course></trkpt>
<trkpt lat="53.8008000" lon="-1.5367416"><time>2026-03-02T08:15:34Z</time><speed>25.000</speed><course>90.00</course></trkpt>
<trkpt lat="53.8008000" lon="-1.5363614"><time>2026-03-02T08:15:35Z</time><speed>25.000</speed><course>90.00</course></trkpt>
<trkpt lat="53.8008000" lon="-1.5359811"><time>2026-03-02T08:15:36Z</time><speed>25.000</speed><course>90.00</course></trkpt>
<trkpt lat="53.8008000" lon="-1.5356009"><time>2026-03-02T08:15:37Z</time><speed>25.000</speed><course>90.00</course></trkpt>
<trkpt lat="53.8008000" lon="-1.5352206"><time>2026-03-02T08:15:38Z</time><speed>25.000</speed><course>90.00</course></trkpt>
<trkpt lat="53.8008000" lon="-1.5348404"><time>2026-03-02T08:15:39Z</time><speed>25.000</speed><course>90.00</course></trkpt>
<trkpt lat="53.8008000" lon="-1.5344601"><time>2026-03-02T08:15:40Z</time><speed>25.000</speed><course>90.00</course></trkpt>
<trkpt lat="53.8008000" lon="-1.5340798"><time>2026-03-02T08:15:41Z</time><speed>25.000</speed><course>90.00</course></trkpt>
<trkpt lat="53.8008000" lon="-1.5336996"><time>2026-03-02T08:15:42Z</time><speed>25.000</speed><course>90.00</course></trkpt>
<trkpt lat="53.8008000" lon="-1.5333193"><time>2026-03-02T08:15:43Z</time><speed>25.000</speed><course>90.00</course></trkpt>
<trkpt lat="53.8007765" lon="-1.5329412"><time>2026-03-02T08:15:44Z</time><speed>25.000</speed><course>96.00</course></trkpt>
<trkpt lat="53.8007298" lon="-1.5325692"><time>2026-03-02T08:15:45Z</time><speed>25.000</speed><course>102.00</course></trkpt>
<trkpt lat="53.8006604" lon="-1.5322076"><time>2026-03-02T08:15:46Z</time><speed>25.000</speed><course>108.00</course></trkpt>
<trkpt lat="53.8005910" lon="-1.5318459"><time>2026-03-02T08:15:47Z</time><speed>25.000</speed><course>108.00</course></trkpt>
<trkpt lat="53.8005216" lon="-1.5314843"><time>2026-03-02T08:15:48Z</time><speed>25.000</speed><course>108.00</course></trkpt>
<trkpt lat="53.8004522" lon="-1.5311226"><time>2026-03-02T08:15:49Z</time><speed>25.000</speed><course>108.00</course></trkpt>
<trkpt lat="53.8003828" lon="-1.5307610"><time>2026-03-02T08:15:50Z</time><speed>25.000</speed><course>108.00</course></trkpt>
<trkpt lat="53.8003134" lon="-1.5303993"><time>2026-03-02T08:15:51Z</time><speed>25.000</speed><course>108.00</course></trkpt>
<trkpt lat="53.8002440" lon="-1.5300377"><time>2026-03-02T08:15:52Z</time><speed>25.000</speed><course>108.00</course></trkpt>
<trkpt lat="53.8001746" lon="-1.5296760"><time>2026-03-02T08:15:53Z</time><speed>25.000</speed><course>108.00</course></trkpt>
<trkpt lat="53.8001052" lon="-1.5293144"><time>2026-03-02T08:15:54Z</time><speed>25.000</speed><course>108.00</course></trkpt>
<trkpt lat="53.8000358" lon="-1.5289527"><time>2026-03-02T08:15:55Z</time><speed>25.000</speed><course>108.00</course></trkpt>
<trkpt lat="53.7999665" lon="-1.5285911"><time>2026-03-02T08:15:56Z</time><speed>25.000</speed><course>108.00</course></trkpt>
<trkpt lat="53.7998971" lon="-1.5282294"><time>2026-03-02T08:15:57Z</time><speed>25.000</speed><course>108.00</course></trkpt>
<trkpt lat="53.7998277" lon="-1.5278678"><time>2026-03-02T08:15:58Z</time><speed>25.000</speed><course>108.00</course></trkpt>
<trkpt lat="53.7997583" lon="-1.5275062"><time>2026-03-02T08:15:59Z</time><speed>25.000</speed><course>108.00</course></trkpt>
<trkpt lat="53.7996889" lon="-1.5271445"><time>2026-03-02T08:16:00Z</time><speed>25.000</speed><course>108.00</course></trkpt>
<trkpt lat="53.7996195" lon="-1.5267829"><time>2026-03-02T08:16:01Z</time><speed>25.000</speed><course>108.00</course></trkpt>
<trkpt lat="53.7995501" lon="-1.5264212"><time>2026-03-02T08:16:02Z</time><speed>25.000</speed><course>108.00</course></trkpt>
<trkpt lat="53.7994807" lon="-1.5260596"><time>2026-03-02T08:16:03Z</time><speed>25.000</speed><course>108.00</course></trkpt>
<trkpt lat="53.7994113" lon="-1.5256979"><time>2026-03-02T08:16:04Z</time><speed>25.000</speed><course>108.00</course></trkpt>
<trkpt lat="53.7993419" lon="-1.5253363"><time>2026-03-02T08:16:05Z</time><speed>25.000</speed><course>108.00</course></trkpt>
<trkpt lat="53.7992725" lon="-1.5249746"><time>2026-03-02T08:16:06Z</time><speed>25.000</speed><course>108.00</course></trkpt>
<trkpt lat="53.7992031" lon="-1.5246130"><time>2026-03-02T08:16:07Z</time><speed>25.000</speed><course>108.00</course></trkpt>
<trkpt lat="53.7991337" lon="-1.5242513"><time>2026-03-02T08:16:08Z</time><speed>25.000</speed><course>108.00</course></trkpt>
<trkpt lat="53.7990643" lon="-1.5238897"><time>2026-03-02T08:16:09Z</time><speed>25.000</speed><course>108.00</course></trkpt>
<trkpt lat="53.7989949" lon="-1.5235280"><time>2026-03-02T08:16:10Z</time><speed>25.000</speed><course>108.00</course></trkpt>
<trkpt lat="53.7989255" lon="-1.5231664"><time>2026-03-02T08:16:11Z</time><speed>25.000</speed><course>108.00</course></trkpt>
<trkpt lat="53.7988561" lon="-1.5228048"><time>2026-03-02T08:16:12Z</time><speed>25.000</speed><course>108.00</course></trkpt>
<trkpt lat="53.7987867" lon="-1.5224431"><time>2026-03-02T08:16:13Z</time><speed>25.000</speed><course>108.00</course></trkpt>
<trkpt lat="53.7987173" lon="-1.5220815"><time>2026-03-02T08:16:14Z</time><speed>25.000</speed><course>108.00</course></trkpt>
<trkpt lat="53.7986479" lon="-1.5217198"><time>2026-03-02T08:16:15Z</time><speed>25.000</speed><course>108.00</course></trkpt>
<trkpt lat="53.7985785" lon="-1.5213582"><time>2026-03-02T08:16:16Z</time><speed>25.000</speed><course>108.00</course></trkpt>
<trkpt lat="53.7985091" lon="-1.5209965"><time>2026-03-02T08:16:17Z</time><speed>25.000</speed><course>108.00</course></trkpt>
<trkpt lat="53.7984397" lon="-1.5206349"><time>2026-03-02T08:16:18Z</time><speed>25.000</speed><course>108.00</course></trkpt>
<trkpt lat="53.7983703" lon="-1.5202732"><time>2026-03-02T08:16:19Z</time><speed>25.000</speed><course>108.00</course></trkpt>
<trkpt lat="53.7983009" lon="-1.5199116"><time>2026-03-02T08:16:20Z</time><speed>25.000</speed><course>108.00</course></trkpt>
<trkpt lat="53.7982315" lon="-1.5195499"><time>2026-03-02T08:16:21Z</time><speed>25.000</speed><course>108.00</course></trkpt>
<trkpt lat="53.7981621" lon="-1.5191883"><time>2026-03-02T08:16:22Z</time><speed>25.000</speed><course>108.00</course></trkpt>
<trkpt lat="53.7980987" lon="-1.5188580"><time>2026-03-02T08:16:23Z</time><speed>22.833</speed><course>108.00</course></trkpt>
<trkpt lat="53.7980413" lon="-1.5185590"><time>2026-03-02T08:16:24Z</time><speed>20.667</speed><course>108.00</course></trkpt>
<trkpt lat="53.7979900" lon="-1.5182914"><time>2026-03-02T08:16:25Z</time><speed>18.500</speed><course>108.00</course></trkpt>
<trkpt lat="53.7979446" lon="-1.5180551"><time>2026-03-02T08:16:26Z</time><speed>16.333</speed><course>108.00</course></trkpt>
<trkpt lat="53.7979053" lon="-1.5178502"><time>2026-03-02T08:16:27Z</time><speed>14.167</speed><course>108.00</course></trkpt>
<trkpt lat="53.7978720" lon="-1.5176766"><time>2026-03-02T08:16:28Z</time><speed>12.000</speed><course>108.00</course></trkpt>
<trkpt lat="53.7978387" lon="-1.5175030"><time>2026-03-02T08:16:29Z</time><speed>12.000</speed><course>108.00</course></trkpt>
<trkpt lat="53.7978054" lon="-1.5173294"><time>2026-03-02T08:16:30Z</time><speed>12.000</speed><course>108.00</course></trkpt>
<trkpt lat="53.7977721" lon="-1.5171558"><time>2026-03-02T08:16:31Z</time><speed>12.000</speed><course>108.00</course></trkpt>
<trkpt lat="53.7977388" lon="-1.5169823"><time>2026-03-02T08:16:32Z</time><speed>12.000</speed><course>108.00</course></trkpt>
<trkpt lat="53.7977055" lon="-1.5168087"><time>2026-03-02T08:16:33Z</time><speed>12.000</speed><course>108.00</course></trkpt>
<trkpt lat="53.7976721" lon="-1.5166351"><time>2026-03-02T08:16:34Z</time><speed>12.000</speed><course>108.00</course></trkpt>
<trkpt lat="53.7976388" lon="-1.5164615"><time>2026-03-02T08:16:35Z</time><speed>12.000</speed><course>108.00</course></trkpt>
<trkpt lat="53.7976055" lon="-1.5162879"><time>2026-03-02T08:16:36Z</time><speed>12.000</speed><course>108.00</course></trkpt>
<trkpt lat="53.7975722" lon="-1.5161143"><time>2026-03-02T08:16:37Z</time><speed>12.000</speed><course>108.00</course></trkpt>
<trkpt lat="53.7975389" lon="-1.5159407"><time>2026-03-02T08:16:38Z</time><speed>12.000</speed><course>108.00</course></trkpt>
<trkpt lat="53.7975122" lon="-1.5158018"><time>2026-03-02T08:16:39Z</time><speed>9.600</speed><course>108.00</course></trkpt>
<trkpt lat="53.7974923" lon="-1.5156977"><time>2026-03-02T08:16:40Z</time><speed>7.200</speed><course>108.00</course></trkpt>
<trkpt lat="53.7974789" lon="-1.5156283"><time>2026-03-02T08:16:41Z</time><speed>4.800</speed><course>108.00</course></trkpt>
<trkpt lat="53.7974723" lon="-1.5155935"><time>2026-03-02T08:16:42Z</time><speed>2.400</speed><course>108.00</course></trkpt>
</trkseg></trk></gpx>