<?xml version="1.0" encoding="UTF-8"?>
<gpx version="1.1" creator="drive-debrief" xmlns="http://www.topografix.com/GPX/1/1">
<trk><name>drive</name><trkseg>
<trkpt lat="51.5326000" lon="-0.1050000"><time>2026-03-02T08:15:00Z</time><speed>0.000</speed><course>90.00</course></trkpt>
<trkpt lat="51.5326000" lon="-0.1049613"><time>2026-03-02T08:15:01Z</time><speed>2.680</speed><course>90.00</course></trkpt>
<trkpt lat="51.5326000" lon="-0.1048839"><time>2026-03-02T08:15:02Z</time><speed>5.360</speed><course>90.00</course></trkpt>
<trkpt lat="51.5326000" lon="-0.1047678"><time>2026-03-02T08:15:03Z</time><speed>8.040</speed><course>90.00</course></trkpt>
<trkpt lat="51.5326000" lon="-0.1046130"><time>2026-03-02T08:15:04Z</time><speed>10.720</speed><course>90.00</course></trkpt>
<trkpt lat="51.5326000" lon="-0.1044195"><time>2026-03-02T08:15:05Z</time><speed>13.400</speed><course>90.00</course></trkpt>
<trkpt lat="51.5326000" lon="-0.1042260"><time>2026-03-02T08:15:06Z</time><speed>13.400</speed><course>90.00</course></trkpt>
<trkpt lat="51.5326000" lon="-0.1040325"><time>2026-03-02T08:15:07Z</time><speed>13.400</speed><course>90.00</course></trkpt>
<trkpt lat="51.5326000" lon="-0.1038390"><time>2026-03-02T08:15:08Z</time><speed>13.400</speed><course>90.00</course></trkpt>
<trkpt lat="51.5326000" lon="-0.1036455"><time>2026-03-02T08:15:09Z</time><speed>13.400</speed><course>90.00</course></trkpt>
<trkpt lat="51.5326000" lon="-0.1034520"><time>2026-03-02T08:15:10Z</time><speed>13.400</speed><course>90.00</course></trkpt>
<trkpt lat="51.5326000" lon="-0.1032585"><time>2026-03-02T08:15:11Z</time><speed>13.400</speed><course>90.00</course></trkpt>
<trkpt lat="51.5326000" lon="-0.1030649"><time>2026-03-02T08:15:12Z</time><speed>13.400</speed><course>90.00</course></trkpt>
<trkpt lat="51.5326000" lon="-0.1028714"><time>2026-03-02T08:15:13Z</time><speed>13.400</speed><course>90.00</course></trkpt>
<trkpt lat="51.5326000" lon="-0.1026779"><time>2026-03-02T08:15:14Z</time><speed>13.400</speed><course>90.00</course></trkpt>
<trkpt lat="51.5326000" lon="-0.1024844"><time>2026-03-02T08:15:15Z</time><speed>13.400</speed><course>90.00</course></trkpt>
<trkpt lat="51.5326000" lon="-0.1022909"><time>2026-03-02T08:15:16Z</time><speed>13.400</speed><course>90.00</course></trkpt>
<trkpt lat="51.5326000" lon="-0.1020974"><time>2026-03-02T08:15:17Z</time><speed>13.400</speed><course>90.00</course></trkpt>
<trkpt lat="51.5326000" lon="-0.1019039"><time>2026-03-02T08:15:18Z</time><speed>13.400</speed><course>90.00</course></trkpt>
<trkpt lat="51.5326000" lon="-0.1017104"><time>2026-03-02T08:15:19Z</time><speed>13.400</speed><course>90.00</course></trkpt>
<trkpt lat="51.5326000" lon="-0.1015169"><time>2026-03-02T08:15:20Z</time><speed>13.400</speed><course>90.00</course></trkpt>
<trkpt lat="51.5326000" lon="-0.1014202"><time>2026-03-02T08:15:21Z</time><speed>6.700</speed><course>90.00</course></trkpt>
<trkpt lat="51.5326000" lon="-0.1014202"><time>2026-03-02T08:15:22Z</time><speed>0.000</speed><course>90.00</course></trkpt>
<trkpt lat="51.5326000" lon="-0.1014202"><time>2026-03-02T08:15:23Z</time><speed>0.000</speed><course>90.00</course></trkpt>
<trkpt lat="51.5326000" lon="-0.1014202"><time>2026-03-02T08:15:24Z</time><speed>0.000</speed><course>90.00</course></trkpt>
<trkpt lat="51.5326000" lon="-0.1014202"><time>2026-03-02T08:15:25Z</time><speed>0.000</speed><course>90.00</course></trkpt>
<trkpt lat="51.5326000" lon="-0.1014202"><time>2026-03-02T08:15:26Z</time><speed>0.000</speed><course>90.00</course></trkpt>
<trkpt lat="51.5326000" lon="-0.1014202"><time>2026-03-02T08:15:27Z</time><speed>0.000</speed><course>90.00</course></trkpt>
<trkpt lat="51.5326000" lon="-0.1014202"><time>2026-03-02T08:15:28Z</time><speed>0.000</speed><course>90.00</course></trkpt>
<trkpt lat="51.5326000" lon="-0.1014202"><time>2026-03-02T08:15:29Z</time><speed>0.000</speed><course>90.00</course></trkpt>
<trkpt lat="51.5326000" lon="-0.1014202"><time>2026-03-02T08:15:30Z</time><speed>0.000</speed><course>90.00</course></trkpt>
<trkpt lat="51.5326000" lon="-0.1013672"><time>2026-03-02T08:15:31Z</time><speed>3.667</speed><course>90.00</course></trkpt>
<trkpt lat="51.5326000" lon="-0.1012613"><time>2026-03-02T08:15:32Z</time><speed>7.333</speed><course>90.00</course></trkpt>
<trkpt lat="51.5326000" lon="-0.1011025"><time>2026-03-02T08:15:33Z</time><speed>11.000</speed><course>90.00</course></trkpt>
<trkpt lat="51.5326000" lon="-0.1009436"><time>2026-03-02T08:15:34Z</time><speed>11.000</speed><course>90.00</course></trkpt>
<trkpt lat="51.5326000" lon="-0.1007848"><time>2026-03-02T08:15:35Z</time><speed>11.000</speed><course>90.00</course></trkpt>
<trkpt lat="51.5326000" lon="-0.1006259"><time>2026-03-02T08:15:36Z</time><speed>11.000</speed><course>90.00</course></trkpt>
<trkpt lat="51.5325582" lon="-0.1004819"><time>2026-03-02T08:15:37Z</time><speed>11.000</speed><course>115.00</course></trkpt>
<trkpt lat="51.5324825" lon="-0.1003798"><time>2026-03-02T08:15:38Z</time><speed>11.000</speed><course>140.00</course></trkpt>
<trkpt lat="51.5323871" lon="-0.1003387"><time>2026-03-02T08:15:39Z</time><speed>11.000</speed><course>165.00</course></trkpt>
<trkpt lat="51.5322898" lon="-0.1003663"><time>2026-03-02T08:15:40Z</time><speed>11.000</speed><course>190.00</course></trkpt>
<trkpt lat="51.5321925" lon="-0.1003939"><time>2026-03-02T08:15:41Z</time><speed>11.000</speed><course>190.00</course></trkpt>
<trkpt lat="51.5320952" lon="-0.1004215"><time>2026-03-02T08:15:42Z</time><speed>11.000</speed><course>190.00</course></trkpt>
<trkpt lat="51.5319978" lon="-0.1004491"><time>2026-03-02T08:15:43Z</time><speed>11.000</speed><course>190.00</course></trkpt>
<trkpt lat="51.5319005" lon="-0.1004766"><time>2026-03-02T08:15:44Z</time><speed>11.000</speed><course>190.00</course></trkpt>
<trkpt lat="51.5318032" lon="-0.1005042"><time>2026-03-02T08:15:45Z</time><speed>11.000</speed><course>190.00</course></trkpt>
<trkpt lat="51.5317059" lon="-0.1005318"><time>2026-03-02T08:15:46Z</time><speed>11.000</speed><course>190.00</course></trkpt>
<trkpt lat="51.5316329" lon="-0.1005525"><time>2026-03-02T08:15:47Z</time><speed>8.250</speed><course>190.00</course></trkpt>
<trkpt lat="51.5315843" lon="-0.1005663"><time>2026-03-02T08:15:48Z</time><speed>5.500</speed><course>190.00</course></trkpt>
<trkpt lat="51.5315599" lon="-0.1005732"><time>2026-03-02T08:15:49Z</time><speed>2.750</speed><course>190.00</course></trkpt>
</trkseg></trk></gpx>