<?xml version="1.0" encoding="UTF-8"?>
<kml xmlns="http://www.opengis.net/kml/2.2" xmlns:gx="http://www.google.com/kml/ext/2.2">
<Document><Placemark><gx:Track>
<when>2026-03-02T08:15:00Z</when>
<gx:coord>-0.1050000 51.5326000 0</gx:coord>
<when>2026-03-02T08:15:01Z</when>
<gx:coord>-0.1049613 51.5326000 0</gx:coord>
<when>2026-03-02T08:15:02Z</when>
<gx:coord>-0.1048839 51.5326000 0</gx:coord>
<when>2026-03-02T08:15:03Z</when>
<gx:coord>-0.1047678 51.5326000 0</gx:coord>
<when>2026-03-02T08:15:04Z</when>
<gx:coord>-0.1046130 51.5326000 0</gx:coord>
<when>2026-03-02T08:15:05Z</when>
<gx:coord>-0.1044195 51.5326000 0</gx:coord>
<when>2026-03-02T08:15:06Z</when>
<gx:coord>-0.1042260 51.5326000 0</gx:coord>
<when>2026-03-02T08:15:07Z</when>
<gx:coord>-0.1040325 51.5326000 0</gx:coord>
<when>2026-03-02T08:15:08Z</when>
<gx:coord>-0.1038390 51.5326000 0</gx:coord>
<when>2026-03-02T08:15:09Z</when>
<gx:coord>-0.1036455 51.5326000 0</gx:coord>
<when>2026-03-02T08:15:10Z</when>
<gx:coord>-0.1034520 51.5326000 0</gx:coord>
<when>2026-03-02T08:15:11Z</when>
<gx:coord>-0.1032585 51.5326000 0</gx:coord>
<when>2026-03-02T08:15:12Z</when>
<gx:coord>-0.1030649 51.5326000 0</gx:coord>
<when>2026-03-02T08:15:13Z</when>
<gx:coord>-0.1028714 51.5326000 0</gx:coord>
<when>2026-03-02T08:15:14Z</when>
<gx:coord>-0.1026779 51.5326000 0</gx:coord>
<when>2026-03-02T08:15:15Z</when>
<gx:coord>-0.1024844 51.5326000 0</gx:coord>
<when>2026-03-02T08:15:16Z</when>
<gx:coord>-0.1022909 51.5326000 0</gx:coord>
<when>2026-03-02T08:15:17Z</when>
<gx:coord>-0.1020974 51.5326000 0</gx:coord>
<when>2026-03-02T08:15:18Z</when>
<gx:coord>-0.1019039 51.5326000 0</gx:coord>
<when>2026-03-02T08:15:19Z</when>
<gx:coord>-0.1017104 51.5326000 0</gx:coord>
<when>2026-03-02T08:15:20Z</when>
<gx:coord>-0.1015169 51.5326000 0</gx:coord>
<when>2026-03-02T08:15:21Z</when>
<gx:coord>-0.1014202 51.5326000 0</gx:coord>
<when>2026-03-02T08:15:22Z</when>
<gx:coord>-0.1014202 51.5326000 0</gx:coord>
<when>2026-03-02T08:15:23Z</when>
<gx:coord>-0.1014202 51.5326000 0</gx:coord>
<when>2026-03-02T08:15:24Z</when>
<gx:coord>-0.1014202 51.5326000 0</gx:coord>
<when>2026-03-02T08:15:25Z</when>
<gx:coord>-0.1014202 51.5326000 0</gx:coord>
<when>2026-03-02T08:15:26Z</when>
<gx:coord>-0.1014202 51.5326000 0</gx:coord>
<when>2026-03-02T08:15:27Z</when>
<gx:coord>-0.1014202 51.5326000 0</gx:coord>
<when>2026-03-02T08:15:28Z</when>
<gx:coord>-0.1014202 51.5326000 0</gx:coord>
<when>2026-03-02T08:15:29Z</when>
<gx:coord>-0.1014202 51.5326000 0</gx:coord>
<when>2026-03-02T08:15:30Z</when>
<gx:coord>-0.1014202 51.5326000 0</gx:coord>
<when>2026-03-02T08:15:31Z</when>
<gx:coord>-0.1013672 51.5326000 0</gx:coord>
<when>2026-03-02T08:15:32Z</when>
<gx:coord>-0.1012613 51.5326000 0</gx:coord>
<when>2026-03-02T08:15:33Z</when>
<gx:coord>-0.1011025 51.5326000 0</gx:coord>
<when>2026-03-02T08:15:34Z</when>
<gx:coord>-0.1009436 51.5326000 0</gx:coord>
<when>2026-03-02T08:15:35Z</when>
<gx:coord>-0.1007848 51.5326000 0</gx:coord>
<when>2026-03-02T08:15:36Z</when>
<gx:coord>-0.1006259 51.5326000 0</gx:coord>
<when>2026-03-02T08:15:37Z</when>
<gx:coord>-0.1004819 51.5325582 0</gx:coord>
<when>2026-03-02T08:15:38Z</when>
<gx:coord>-0.1003798 51.5324825 0</gx:coord>
<when>2026-03-02T08:15:39Z</when>
<gx:coord>-0.1003387 51.5323871 0</gx:coord>
<when>2026-03-02T08:15:40Z</when>
<gx:coord>-0.1003663 51.5322898 0</gx:coord>
<when>2026-03-02T08:15:41Z</when>
<gx:coord>-0.1003939 51.5321925 0</gx:coord>
<when>2026-03-02T08:15:42Z</when>
<gx:coord>-0.1004215 51.5320952 0</gx:coord>
<when>2026-03-02T08:15:43Z</when>
<gx:coord>-0.1004491 51.5319978 0</gx:coord>
<when>2026-03-02T08:15:44Z</when>
<gx:coord>-0.1004766 51.5319005 0</gx:coord>
<when>2026-03-02T08:15:45Z</when>
<gx:coord>-0.1005042 51.5318032 0</gx:coord>
<when>2026-03-02T08:15:46Z</when>
<gx:coord>-0.1005318 51.5317059 0</gx:coord>
<when>2026-03-02T08:15:47Z</when>
<gx:coord>-0.1005525 51.5316329 0</gx:coord>
<when>2026-03-02T08:15:48Z</when>
<gx:coord>-0.1005663 51.5315843 0</gx:coord>
<when>2026-03-02T08:15:49Z</when>
<gx:coord>-0.1005732 51.5315599 0</gx:coord>
</gx:Track></Placemark></Document></kml>