<?xml version="1.0" encoding="UTF-8"?>
<kml xmlns="http://www.opengis.net/kml/2.2" xmlns:gx="http://www.google.com/kml/ext/2.2">
<Document><Placemark><gx:Track>
<when>2026-03-02T17:35:00Z</when>
<gx:coord>-2.5878569 51.4545009 0</gx:coord>
<when>2026-03-02T17:35:01Z</when>
<gx:coord>-2.5878519 51.4545366 0</gx:coord>
<when>2026-03-02T17:35:02Z</when>
<gx:coord>-2.5878051 51.4545330 0</gx:coord>
<when>2026-03-02T17:35:03Z</when>
<gx:coord>-2.5876917 51.4544862 0</gx:coord>
<when>2026-03-02T17:35:04Z</when>
<gx:coord>-2.5876143 51.4544920 0</gx:coord>
<when>2026-03-02T17:35:05Z</when>
<gx:coord>-2.5874674 51.4544858 0</gx:coord>
<when>2026-03-02T17:35:06Z</when>
<gx:coord>-2.5873202 51.4545154 0</gx:coord>
<when>2026-03-02T17:35:07Z</when>
<gx:coord>-2.5870923 51.4544985 0</gx:coord>
<when>2026-03-02T17:35:08Z</when>
<gx:coord>-2.5869374 51.4545201 0</gx:coord>
<when>2026-03-02T17:35:09Z</when>
<gx:coord>-2.5866116 51.4544502 0</gx:coord>
<when>2026-03-02T17:35:10Z</when>
<gx:coord>-2.5863890 51.4545422 0</gx:coord>
<when>2026-03-02T17:35:11Z</when>
<gx:coord>-2.5861077 51.4544974 0</gx:coord>
<when>2026-03-02T17:35:12Z</when>
<gx:coord>-2.5857103 51.4545183 0</gx:coord>
<when>2026-03-02T17:35:13Z</when>
<gx:coord>-2.5852905 51.4544963 0</gx:coord>
<when>2026-03-02T17:35:14Z</when>
<gx:coord>-2.5849320 51.4544898 0</gx:coord>
<when>2026-03-02T17:35:15Z</when>
<gx:coord>-2.5845778 51.4545125 0</gx:coord>
<when>2026-03-02T17:35:16Z</when>
<gx:coord>-2.5841072 51.4545222 0</gx:coord>
<when>2026-03-02T17:35:17Z</when>
<gx:coord>-2.5837390 51.4544945 0</gx:coord>
<when>2026-03-02T17:35:18Z</when>
<gx:coord>-2.5833067 51.4544959 0</gx:coord>
<when>2026-03-02T17:35:19Z</when>
<gx:coord>-2.5828794 51.4545185 0</gx:coord>
<when>2026-03-02T17:35:20Z</when>
<gx:coord>-2.5825654 51.4544765 0</gx:coord>
<when>2026-03-02T17:35:21Z</when>
<gx:coord>-2.5820388 51.4544592 0</gx:coord>
<when>2026-03-02T17:35:22Z</when>
<gx:coord>-2.5816736 51.4545106 0</gx:coord>
<when>2026-03-02T17:35:23Z</when>
<gx:coord>-2.5812411 51.4544819 0</gx:coord>
<when>2026-03-02T17:35:24Z</when>
<gx:coord>-2.5808567 51.4544482 0</gx:coord>
<when>2026-03-02T17:35:25Z</when>
<gx:coord>-2.5804404 51.4544781 0</gx:coord>
<when>2026-03-02T17:35:26Z</when>
<gx:coord>-2.5799976 51.4544874 0</gx:coord>
<when>2026-03-02T17:35:27Z</when>
<gx:coord>-2.5795030 51.4544678 0</gx:coord>
<when>2026-03-02T17:35:28Z</when>
<gx:coord>-2.5790486 51.4544598 0</gx:coord>
<when>2026-03-02T17:35:29Z</when>
<gx:coord>-2.5787037 51.4545010 0</gx:coord>
<when>2026-03-02T17:35:30Z</when>
<gx:coord>-2.5782373 51.4545242 0</gx:coord>
<when>2026-03-02T17:35:31Z</when>
<gx:coord>-2.5778779 51.4544937 0</gx:coord>
<when>2026-03-02T17:35:32Z</when>
<gx:coord>-2.5775311 51.4544800 0</gx:coord>
<when>2026-03-02T17:35:33Z</when>
<gx:coord>-2.5770239 51.4545104 0</gx:coord>
<when>2026-03-02T17:35:34Z</when>
<gx:coord>-2.5765930 51.4545193 0</gx:coord>
<when>2026-03-02T17:35:35Z</when>
<gx:coord>-2.5762128 51.4544919 0</gx:coord>
<when>2026-03-02T17:35:36Z</when>
<gx:coord>-2.5757631 51.4545147 0</gx:coord>
<when>2026-03-02T17:35:37Z</when>
<gx:coord>-2.5753333 51.4545281 0</gx:coord>
<when>2026-03-02T17:35:38Z</when>
<gx:coord>-2.5749774 51.4544944 0</gx:coord>
<when>2026-03-02T17:35:39Z</when>
<gx:coord>-2.5745858 51.4544781 0</gx:coord>
<when>2026-03-02T17:35:40Z</when>
<gx:coord>-2.5741135 51.4545094 0</gx:coord>
<when>2026-03-02T17:35:41Z</when>
<gx:coord>-2.5736950 51.4545067 0</gx:coord>
<when>2026-03-02T17:35:42Z</when>
<gx:coord>-2.5732830 51.4545296 0</gx:coord>
<when>2026-03-02T17:35:43Z</when>
<gx:coord>-2.5728070 51.4544654 0</gx:coord>
<when>2026-03-02T17:35:44Z</when>
<gx:coord>-2.5723570 51.4544822 0</gx:coord>
<when>2026-03-02T17:35:45Z</when>
<gx:coord>-2.5720316 51.4544774 0</gx:coord>
<when>2026-03-02T17:35:46Z</when>
<gx:coord>-2.5715653 51.4544533 0</gx:coord>
<when>2026-03-02T17:35:47Z</when>
<gx:coord>-2.5711368 51.4545034 0</gx:coord>
<when>2026-03-02T17:35:48Z</when>
<gx:coord>-2.5707286 51.4545142 0</gx:coord>
<when>2026-03-02T17:35:49Z</when>
<gx:coord>-2.5702960 51.4544801 0</gx:coord>
<when>2026-03-02T17:35:50Z</when>
<gx:coord>-2.5699401 51.4545373 0</gx:coord>
<when>2026-03-02T17:35:51Z</when>
<gx:coord>-2.5694732 51.4545222 0</gx:coord>
<when>2026-03-02T17:35:52Z</when>
<gx:coord>-2.5689996 51.4545169 0</gx:coord>
<when>2026-03-02T17:35:53Z</when>
<gx:coord>-2.5686343 51.4545108 0</gx:coord>
<when>2026-03-02T17:35:54Z</when>
<gx:coord>-2.5682778 51.4545258 0</gx:coord>
<when>2026-03-02T17:35:55Z</when>
<gx:coord>-2.5678067 51.4544641 0</gx:coord>
<when>2026-03-02T17:35:56Z</when>
<gx:coord>-2.5673603 51.4545165 0</gx:coord>
<when>2026-03-02T17:35:57Z</when>
<gx:coord>-2.5669809 51.4545162 0</gx:coord>
<when>2026-03-02T17:35:58Z</when>
<gx:coord>-2.5666031 51.4544524 0</gx:coord>
<when>2026-03-02T17:35:59Z</when>
<gx:coord>-2.5660940 51.4545094 0</gx:coord>
<when>2026-03-02T17:36:00Z</when>
<gx:coord>-2.5657967 51.4544933 0</gx:coord>
<when>2026-03-02T17:36:01Z</when>
<gx:coord>-2.5653028 51.4545211 0</gx:coord>
<when>2026-03-02T17:36:02Z</when>
<gx:coord>-2.5649072 51.4544882 0</gx:coord>
<when>2026-03-02T17:36:03Z</when>
<gx:coord>-2.5645401 51.4544995 0</gx:coord>
<when>2026-03-02T17:36:04Z</when>
<gx:coord>-2.5640177 51.4545092 0</gx:coord>
<when>2026-03-02T17:36:05Z</when>
<gx:coord>-2.5636373 51.4544764 0</gx:coord>
<when>2026-03-02T17:36:06Z</when>
<gx:coord>-2.5632847 51.4545161 0</gx:coord>
<when>2026-03-02T17:36:07Z</when>
<gx:coord>-2.5627902 51.4544972 0</gx:coord>
<when>2026-03-02T17:36:08Z</when>
<gx:coord>-2.5624168 51.4545133 0</gx:coord>
<when>2026-03-02T17:36:09Z</when>
<gx:coord>-2.5620624 51.4544859 0</gx:coord>
<when>2026-03-02T17:36:10Z</when>
<gx:coord>-2.5615918 51.4545293 0</gx:coord>
<when>2026-03-02T17:36:11Z</when>
<gx:coord>-2.5611326 51.4545163 0</gx:coord>
<when>2026-03-02T17:36:12Z</when>
<gx:coord>-2.5606984 51.4544952 0</gx:coord>
<when>2026-03-02T17:36:13Z</when>
<gx:coord>-2.5603007 51.4545170 0</gx:coord>
<when>2026-03-02T17:36:14Z</when>
<gx:coord>-2.5598878 51.4545339 0</gx:coord>
<when>2026-03-02T17:36:15Z</when>
<gx:coord>-2.5594514 51.4545483 0</gx:coord>
<when>2026-03-02T17:36:16Z</when>
<gx:coord>-2.5590628 51.4544576 0</gx:coord>
<when>2026-03-02T17:36:17Z</when>
<gx:coord>-2.5585847 51.4545238 0</gx:coord>
<when>2026-03-02T17:36:18Z</when>
<gx:coord>-2.5582111 51.4545125 0</gx:coord>
<when>2026-03-02T17:36:19Z</when>
<gx:coord>-2.5577867 51.4544975 0</gx:coord>
<when>2026-03-02T17:36:20Z</when>
<gx:coord>-2.5573580 51.4544729 0</gx:coord>
<when>2026-03-02T17:36:21Z</when>
<gx:coord>-2.5570090 51.4545339 0</gx:coord>
<when>2026-03-02T17:36:22Z</when>
<gx:coord>-2.5565759 51.4544660 0</gx:coord>
<when>2026-03-02T17:36:23Z</when>
<gx:coord>-2.5560611 51.4545153 0</gx:coord>
<when>2026-03-02T17:36:24Z</when>
<gx:coord>-2.5556946 51.4545351 0</gx:coord>
<when>2026-03-02T17:36:25Z</when>
<gx:coord>-2.5553033 51.4544569 0</gx:coord>
<when>2026-03-02T17:36:26Z</when>
<gx:coord>-2.5548582 51.4544918 0</gx:coord>
<when>2026-03-02T17:36:27Z</when>
<gx:coord>-2.5544758 51.4544647 0</gx:coord>
<when>2026-03-02T17:36:28Z</when>
<gx:coord>-2.5540248 51.4545066 0</gx:coord>
<when>2026-03-02T17:36:29Z</when>
<gx:coord>-2.5536476 51.4545408 0</gx:coord>
<when>2026-03-02T17:36:30Z</when>
<gx:coord>-2.5531888 51.4545545 0</gx:coord>
<when>2026-03-02T17:36:31Z</when>
<gx:coord>-2.5528509 51.4544521 0</gx:coord>
<when>2026-03-02T17:36:32Z</when>
<gx:coord>-2.5523071 51.4544845 0</gx:coord>
<when>2026-03-02T17:36:33Z</when>
<gx:coord>-2.5519687 51.4545190 0</gx:coord>
<when>2026-03-02T17:36:34Z</when>
<gx:coord>-2.5515969 51.4545426 0</gx:coord>
<when>2026-03-02T17:36:35Z</when>
<gx:coord>-2.5511211 51.4544932 0</gx:coord>
<when>2026-03-02T17:36:36Z</when>
<gx:coord>-2.5507135 51.4544255 0</gx:coord>
<when>2026-03-02T17:36:37Z</when>
<gx:coord>-2.5502819 51.4543994 0</gx:coord>
<when>2026-03-02T17:36:38Z</when>
<gx:coord>-2.5499291 51.4543368 0</gx:coord>
<when>2026-03-02T17:36:39Z</when>
<gx:coord>-2.5494535 51.4542776 0</gx:coord>
<when>2026-03-02T17:36:40Z</when>
<gx:coord>-2.5489050 51.4542091 0</gx:coord>
<when>2026-03-02T17:36:41Z</when>
<gx:coord>-2.5487081 51.4541852 0</gx:coord>
<when>2026-03-02T17:36:42Z</when>
<gx:coord>-2.5482293 51.4541289 0</gx:coord>
<when>2026-03-02T17:36:43Z</when>
<gx:coord>-2.5478484 51.4540639 0</gx:coord>
<when>2026-03-02T17:36:44Z</when>
<gx:coord>-2.5474177 51.4540063 0</gx:coord>
<when>2026-03-02T17:36:45Z</when>
<gx:coord>-2.5470955 51.4539235 0</gx:coord>
<when>2026-03-02T17:36:46Z</when>
<gx:coord>-2.5466580 51.4538908 0</gx:coord>
<when>2026-03-02T17:36:47Z</when>
<gx:coord>-2.5461794 51.4538823 0</gx:coord>
<when>2026-03-02T17:36:48Z</when>
<gx:coord>-2.5457920 51.4537905 0</gx:coord>
<when>2026-03-02T17:36:49Z</when>
<gx:coord>-2.5453107 51.4537027 0</gx:coord>
<when>2026-03-02T17:36:50Z</when>
<gx:coord>-2.5450030 51.4537233 0</gx:coord>
<when>2026-03-02T17:36:51Z</when>
<gx:coord>-2.5445560 51.4536474 0</gx:coord>
<when>2026-03-02T17:36:52Z</when>
<gx:coord>-2.5440286 51.4536358 0</gx:coord>
<when>2026-03-02T17:36:53Z</when>
<gx:coord>-2.5437788 51.4535265 0</gx:coord>
<when>2026-03-02T17:36:54Z</when>
<gx:coord>-2.5433758 51.4534582 0</gx:coord>
<when>2026-03-02T17:36:55Z</when>
<gx:coord>-2.5429294 51.4533775 0</gx:coord>
<when>2026-03-02T17:36:56Z</when>
<gx:coord>-2.5425208 51.4533980 0</gx:coord>
<when>2026-03-02T17:36:57Z</when>
<gx:coord>-2.5420735 51.4533774 0</gx:coord>
<when>2026-03-02T17:36:58Z</when>
<gx:coord>-2.5416954 51.4532319 0</gx:coord>
<when>2026-03-02T17:36:59Z</when>
<gx:coord>-2.5413248 51.4531824 0</gx:coord>
<when>2026-03-02T17:37:00Z</when>
<gx:coord>-2.5408741 51.4531617 0</gx:coord>
<when>2026-03-02T17:37:01Z</when>
<gx:coord>-2.5403602 51.4530691 0</gx:coord>
<when>2026-03-02T17:37:02Z</when>
<gx:coord>-2.5400103 51.4530300 0</gx:coord>
<when>2026-03-02T17:37:03Z</when>
<gx:coord>-2.5397767 51.4529737 0</gx:coord>
<when>2026-03-02T17:37:04Z</when>
<gx:coord>-2.5392536 51.4529342 0</gx:coord>
<when>2026-03-02T17:37:05Z</when>
<gx:coord>-2.5388764 51.4529043 0</gx:coord>
<when>2026-03-02T17:37:06Z</when>
<gx:coord>-2.5384027 51.4528213 0</gx:coord>
<when>2026-03-02T17:37:07Z</when>
<gx:coord>-2.5380282 51.4527913 0</gx:coord>
<when>2026-03-02T17:37:08Z</when>
<gx:coord>-2.5375282 51.4527010 0</gx:coord>
<when>2026-03-02T17:37:09Z</when>
<gx:coord>-2.5371626 51.4526670 0</gx:coord>
<when>2026-03-02T17:37:10Z</when>
<gx:coord>-2.5367554 51.4525464 0</gx:coord>
<when>2026-03-02T17:37:11Z</when>
<gx:coord>-2.5363769 51.4525108 0</gx:coord>
<when>2026-03-02T17:37:12Z</when>
<gx:coord>-2.5359778 51.4525171 0</gx:coord>
<when>2026-03-02T17:37:13Z</when>
<gx:coord>-2.5355524 51.4524256 0</gx:coord>
<when>2026-03-02T17:37:14Z</when>
<gx:coord>-2.5351022 51.4524030 0</gx:coord>
<when>2026-03-02T17:37:15Z</when>
<gx:coord>-2.5347262 51.4523478 0</gx:coord>
<when>2026-03-02T17:37:16Z</when>
<gx:coord>-2.5343555 51.4523147 0</gx:coord>
<when>2026-03-02T17:37:17Z</when>
<gx:coord>-2.5338763 51.4522468 0</gx:coord>
<when>2026-03-02T17:37:18Z</when>
<gx:coord>-2.5335142 51.4521981 0</gx:coord>
<when>2026-03-02T17:37:19Z</when>
<gx:coord>-2.5331169 51.4521135 0</gx:coord>
<when>2026-03-02T17:37:20Z</when>
<gx:coord>-2.5327389 51.4520436 0</gx:coord>
<when>2026-03-02T17:37:21Z</when>
<gx:coord>-2.5323202 51.4519885 0</gx:coord>
<when>2026-03-02T17:37:22Z</when>
<gx:coord>-2.5319143 51.4519409 0</gx:coord>
<when>2026-03-02T17:37:23Z</when>
<gx:coord>-2.5315986 51.4518695 0</gx:coord>
<when>2026-03-02T17:37:24Z</when>
<gx:coord>-2.5310250 51.4518310 0</gx:coord>
<when>2026-03-02T17:37:25Z</when>
<gx:coord>-2.5306355 51.4517891 0</gx:coord>
<when>2026-03-02T17:37:26Z</when>
<gx:coord>-2.5302603 51.4517442 0</gx:coord>
<when>2026-03-02T17:37:27Z</when>
<gx:coord>-2.5297969 51.4516741 0</gx:coord>
<when>2026-03-02T17:37:28Z</when>
<gx:coord>-2.5294143 51.4515772 0</gx:coord>
<when>2026-03-02T17:37:29Z</when>
<gx:coord>-2.5290082 51.4515730 0</gx:coord>
<when>2026-03-02T17:37:30Z</when>
<gx:coord>-2.5287224 51.4515268 0</gx:coord>
<when>2026-03-02T17:37:31Z</when>
<gx:coord>-2.5282165 51.4514958 0</gx:coord>
<when>2026-03-02T17:37:32Z</when>
<gx:coord>-2.5277745 51.4514280 0</gx:coord>
<when>2026-03-02T17:37:33Z</when>
<gx:coord>-2.5273190 51.4513409 0</gx:coord>
<when>2026-03-02T17:37:34Z</when>
<gx:coord>-2.5269001 51.4512846 0</gx:coord>
<when>2026-03-02T17:37:35Z</when>
<gx:coord>-2.5265091 51.4513041 0</gx:coord>
<when>2026-03-02T17:37:36Z</when>
<gx:coord>-2.5262120 51.4512162 0</gx:coord>
<when>2026-03-02T17:37:37Z</when>
<gx:coord>-2.5258479 51.4511910 0</gx:coord>
<when>2026-03-02T17:37:38Z</when>
<gx:coord>-2.5253193 51.4511448 0</gx:coord>
<when>2026-03-02T17:37:39Z</when>
<gx:coord>-2.5249338 51.4510112 0</gx:coord>
<when>2026-03-02T17:37:40Z</when>
<gx:coord>-2.5244845 51.4509895 0</gx:coord>
<when>2026-03-02T17:37:41Z</when>
<gx:coord>-2.5241226 51.4509373 0</gx:coord>
<when>2026-03-02T17:37:42Z</when>
<gx:coord>-2.5236987 51.4508859 0</gx:coord>
<when>2026-03-02T17:37:43Z</when>
<gx:coord>-2.5233642 51.4508312 0</gx:coord>
<when>2026-03-02T17:37:44Z</when>
<gx:coord>-2.5228710 51.4507679 0</gx:coord>
<when>2026-03-02T17:37:45Z</when>
<gx:coord>-2.5225007 51.4507130 0</gx:coord>
<when>2026-03-02T17:37:46Z</when>
<gx:coord>-2.5220574 51.4506137 0</gx:coord>
<when>2026-03-02T17:37:47Z</when>
<gx:coord>-2.5216437 51.4505955 0</gx:coord>
<when>2026-03-02T17:37:48Z</when>
<gx:coord>-2.5212597 51.4505257 0</gx:coord>
<when>2026-03-02T17:37:49Z</when>
<gx:coord>-2.5208320 51.4504951 0</gx:coord>
<when>2026-03-02T17:37:50Z</when>
<gx:coord>-2.5204374 51.4504249 0</gx:coord>
<when>2026-03-02T17:37:51Z</when>
<gx:coord>-2.5199951 51.4504000 0</gx:coord>
<when>2026-03-02T17:37:52Z</when>
<gx:coord>-2.5195973 51.4503512 0</gx:coord>
<when>2026-03-02T17:37:53Z</when>
<gx:coord>-2.5192337 51.4502833 0</gx:coord>
<when>2026-03-02T17:37:54Z</when>
<gx:coord>-2.5188265 51.4502294 0</gx:coord>
<when>2026-03-02T17:37:55Z</when>
<gx:coord>-2.5183168 51.4501692 0</gx:coord>
<when>2026-03-02T17:37:56Z</when>
<gx:coord>-2.5179876 51.4501005 0</gx:coord>
<when>2026-03-02T17:37:57Z</when>
<gx:coord>-2.5175314 51.4500539 0</gx:coord>
<when>2026-03-02T17:37:58Z</when>
<gx:coord>-2.5171484 51.4499908 0</gx:coord>
<when>2026-03-02T17:37:59Z</when>
<gx:coord>-2.5167859 51.4499612 0</gx:coord>
<when>2026-03-02T17:38:00Z</when>
<gx:coord>-2.5163952 51.4498983 0</gx:coord>
<when>2026-03-02T17:38:01Z</when>
<gx:coord>-2.5159639 51.4498614 0</gx:coord>
<when>2026-03-02T17:38:02Z</when>
<gx:coord>-2.5155693 51.4497585 0</gx:coord>
<when>2026-03-02T17:38:03Z</when>
<gx:coord>-2.5151703 51.4497674 0</gx:coord>
<when>2026-03-02T17:38:04Z</when>
<gx:coord>-2.5148732 51.4496728 0</gx:coord>
<when>2026-03-02T17:38:05Z</when>
<gx:coord>-2.5144708 51.4496241 0</gx:coord>
<when>2026-03-02T17:38:06Z</when>
<gx:coord>-2.5140808 51.4495898 0</gx:coord>
<when>2026-03-02T17:38:07Z</when>
<gx:coord>-2.5136443 51.4495318 0</gx:coord>
<when>2026-03-02T17:38:08Z</when>
<gx:coord>-2.5134574 51.4495074 0</gx:coord>
<when>2026-03-02T17:38:09Z</when>
<gx:coord>-2.5129832 51.4494373 0</gx:coord>
<when>2026-03-02T17:38:10Z</when>
<gx:coord>-2.5126776 51.4493779 0</gx:coord>
<when>2026-03-02T17:38:11Z</when>
<gx:coord>-2.5122926 51.4493385 0</gx:coord>
<when>2026-03-02T17:38:12Z</when>
<gx:coord>-2.5119947 51.4493519 0</gx:coord>
<when>2026-03-02T17:38:13Z</when>
<gx:coord>-2.5116249 51.4492736 0</gx:coord>
<when>2026-03-02T17:38:14Z</when>
<gx:coord>-2.5112453 51.4491976 0</gx:coord>
<when>2026-03-02T17:38:15Z</when>
<gx:coord>-2.5109750 51.4491865 0</gx:coord>
<when>2026-03-02T17:38:16Z</when>
<gx:coord>-2.5106540 51.4491023 0</gx:coord>
<when>2026-03-02T17:38:17Z</when>
<gx:coord>-2.5103442 51.4491511 0</gx:coord>
<when>2026-03-02T17:38:18Z</when>
<gx:coord>-2.5100853 51.4490210 0</gx:coord>
<when>2026-03-02T17:38:19Z</when>
<gx:coord>-2.5097271 51.4490350 0</gx:coord>
<when>2026-03-02T17:38:20Z</when>
<gx:coord>-2.5094623 51.4489974 0</gx:coord>
<when>2026-03-02T17:38:21Z</when>
<gx:coord>-2.5091962 51.4489049 0</gx:coord>
<when>2026-03-02T17:38:22Z</when>
<gx:coord>-2.5088757 51.4489141 0</gx:coord>
</gx:Track></Placemark></Document></kml>