<?xml version="1.0" encoding="UTF-8"?>
<gpx version="1.1" creator="drive-debrief" xmlns="http://www.topografix.com/GPX/1/1">
<trk><name>drive</name><trkseg>
<trkpt lat="55.9533000" lon="-3.1883000"><time>2026-03-02T08:15:00Z</time><speed>0.000</speed><course>90.00</course></trkpt>
<trkpt lat="55.9533000" lon="-3.1882860"><time>2026-03-02T08:15:01Z</time><speed>0.875</speed><course>90.00</course></trkpt>
<trkpt lat="55.9533000" lon="-3.1882579"><time>2026-03-02T08:15:02Z</time><speed>1.750</speed><course>90.00</course></trkpt>
<trkpt lat="55.9533000" lon="-3.1882158"><time>2026-03-02T08:15:03Z</time><speed>2.625</speed><course>90.00</course></trkpt>
<trkpt lat="55.9533000" lon="-3.1881596"><time>2026-03-02T08:15:04Z</time><speed>3.500</speed><course>90.00</course></trkpt>
<trkpt lat="55.9533000" lon="-3.1880894"><time>2026-03-02T08:15:05Z</time><speed>4.375</speed><course>90.00</course></trkpt>
<trkpt lat="55.9533000" lon="-3.1880052"><time>2026-03-02T08:15:06Z</time><speed>5.250</speed><course>90.00</course></trkpt>
<trkpt lat="55.9533000" lon="-3.1879069"><time>2026-03-02T08:15:07Z</time><speed>6.125</speed><course>90.00</course></trkpt>
<trkpt lat="55.9533000" lon="-3.1877946"><time>2026-03-02T08:15:08Z</time><speed>7.000</speed><course>90.00</course></trkpt>
<trkpt lat="55.9533000" lon="-3.1876823"><time>2026-03-02T08:15:09Z</time><speed>7.000</speed><course>90.00</course></trkpt>
<trkpt lat="55.9533000" lon="-3.1875700"><time>2026-03-02T08:15:10Z</time><speed>7.000</speed><course>90.00</course></trkpt>
<trkpt lat="55.9533000" lon="-3.1874576"><time>2026-03-02T08:15:11Z</time><speed>7.000</speed><course>90.00</course></trkpt>
<trkpt lat="55.9533000" lon="-3.1873453"><time>2026-03-02T08:15:12Z</time><speed>7.000</speed><course>90.00</course></trkpt>
<trkpt lat="55.9533000" lon="-3.1872330"><time>2026-03-02T08:15:13Z</time><speed>7.000</speed><course>90.00</course></trkpt>
<trkpt lat="55.9533000" lon="-3.1871207"><time>2026-03-02T08:15:14Z</time><speed>7.000</speed><course>90.00</course></trkpt>
<trkpt lat="55.9533000" lon="-3.1870365"><time>2026-03-02T08:15:15Z</time><speed>5.250</speed><course>90.00</course></trkpt>
<trkpt lat="55.9533000" lon="-3.1869803"><time>2026-03-02T08:15:16Z</time><speed>3.500</speed><course>90.00</course></trkpt>
<trkpt lat="55.9533000" lon="-3.1869522"><time>2026-03-02T08:15:17Z</time><speed>1.750</speed><course>90.00</course></trkpt>
<trkpt lat="55.9533000" lon="-3.1869522"><time>2026-03-02T08:15:18Z</time><speed>0.000</speed><course>90.00</course></trkpt>
<trkpt lat="55.9533000" lon="-3.1869522"><time>2026-03-02T08:15:19Z</time><speed>0.000</speed><course>90.00</course></trkpt>
<trkpt lat="55.9533000" lon="-3.1869522"><time>2026-03-02T08:15:20Z</time><speed>0.000</speed><course>90.00</course></trkpt>
<trkpt lat="55.9533000" lon="-3.1869522"><time>2026-03-02T08:15:21Z</time><speed>0.000</speed><course>90.00</course></trkpt>
<trkpt lat="55.9533000" lon="-3.1869522"><time>2026-03-02T08:15:22Z</time><speed>0.000</speed><course>90.00</course></trkpt>
<trkpt lat="55.9533000" lon="-3.1869522"><time>2026-03-02T08:15:23Z</time><speed>0.000</speed><course>90.00</course></trkpt>
<trkpt lat="55.9533000" lon="-3.1869522"><time>2026-03-02T08:15:24Z</time><speed>0.000</speed><course>90.00</course></trkpt>
<trkpt lat="55.9533000" lon="-3.1869522"><time>2026-03-02T08:15:25Z</time><speed>0.000</speed><course>90.00</course></trkpt>
<trkpt lat="55.9533000" lon="-3.1869522"><time>2026-03-02T08:15:26Z</time><speed>0.000</speed><course>90.00</course></trkpt>
<trkpt lat="55.9533000" lon="-3.1869522"><time>2026-03-02T08:15:27Z</time><speed>0.000</speed><course>90.00</course></trkpt>
<trkpt lat="55.9533000" lon="-3.1869522"><time>2026-03-02T08:15:28Z</time><speed>0.000</speed><course>90.00</course></trkpt>
<trkpt lat="55.9533000" lon="-3.1869522"><time>2026-03-02T08:15:29Z</time><speed>0.000</speed><course>90.00</course></trkpt>
<trkpt lat="55.9533000" lon="-3.1869522"><time>2026-03-02T08:15:30Z</time><speed>0.000</speed><course>90.00</course></trkpt>
<trkpt lat="55.9533000" lon="-3.1869522"><time>2026-03-02T08:15:31Z</time><speed>0.000</speed><course>90.00</course></trkpt>
<trkpt lat="55.9533000" lon="-3.1869522"><time>2026-03-02T08:15:32Z</time><speed>0.000</speed><course>90.00</course></trkpt>
<trkpt lat="55.9533000" lon="-3.1869522"><time>2026-03-02T08:15:33Z</time><speed>0.000</speed><course>90.00</course></trkpt>
<trkpt lat="55.9533000" lon="-3.1869522"><time>2026-03-02T08:15:34Z</time><speed>0.000</speed><course>90.00</course></trkpt>
<trkpt lat="55.9533000" lon="-3.1869522"><time>2026-03-02T08:15:35Z</time><speed>0.000</speed><course>90.00</course></trkpt>
<trkpt lat="55.9533000" lon="-3.1869522"><time>2026-03-02T08:15:36Z</time><speed>0.000</speed><course>90.00</course></trkpt>
<trkpt lat="55.9533000" lon="-3.1869522"><time>2026-03-02T08:15:37Z</time><speed>0.000</speed><course>90.00</course></trkpt>
<trkpt lat="55.9533000" lon="-3.1869522"><time>2026-03-02T08:15:38Z</time><speed>0.000</speed><course>90.00</course></trkpt>
<trkpt lat="55.9533000" lon="-3.1869522"><time>2026-03-02T08:15:39Z</time><speed>0.000</speed><course>90.00</course></trkpt>
<trkpt lat="55.9533000" lon="-3.1869522"><time>2026-03-02T08:15:40Z</time><speed>0.000</speed><course>90.00</course></trkpt>
<trkpt lat="55.9533000" lon="-3.1869522"><time>2026-03-02T08:15:41Z</time><speed>0.000</speed><course>90.00</course></trkpt>
<trkpt lat="55.9533000" lon="-3.1869522"><time>2026-03-02T08:15:42Z</time><speed>0.000</speed><course>90.00</course></trkpt>
<trkpt lat="55.9533000" lon="-3.1869522"><time>2026-03-02T08:15:43Z</time><speed>0.000</speed><course>90.00</course></trkpt>
<trkpt lat="55.9533000" lon="-3.1869522"><time>2026-03-02T08:15:44Z</time><speed>0.000</speed><course>90.00</course></trkpt>
<trkpt lat="55.9533000" lon="-3.1869522"><time>2026-03-02T08:15:45Z</time><speed>0.000</speed><course>90.00</course></trkpt>
<trkpt lat="55.9533000" lon="-3.1869522"><time>2026-03-02T08:15:46Z</time><speed>0.000</speed><course>90.00</course></trkpt>
<trkpt lat="55.9533000" lon="-3.1869522"><time>2026-03-02T08:15:47Z</time><speed>0.000</speed><course>90.00</course></trkpt>
<trkpt lat="55.9533000" lon="-3.1869522"><time>2026-03-02T08:15:48Z</time><speed>0.000</speed><course>90.00</course></trkpt>
<trkpt lat="55.9533000" lon="-3.1869339"><time>2026-03-02T08:15:49Z</time><speed>1.143</speed><course>90.00</course></trkpt>
<trkpt lat="55.9533000" lon="-3.1868972"><time>2026-03-02T08:15:50Z</time><speed>2.286</speed><course>90.00</course></trkpt>
<trkpt lat="55.9533000" lon="-3.1868422"><time>2026-03-02T08:15:51Z</time><speed>3.429</speed><course>90.00</course></trkpt>
<trkpt lat="55.9533000" lon="-3.1867688"><time>2026-03-02T08:15:52Z</time><speed>4.571</speed><course>90.00</course></trkpt>
<trkpt lat="55.9533000" lon="-3.1866772"><time>2026-03-02T08:15:53Z</time><speed>5.714</speed><course>90.00</course></trkpt>
<trkpt lat="55.9533000" lon="-3.1865671"><time>2026-03-02T08:15:54Z</time><speed>6.857</speed><course>90.00</course></trkpt>
<trkpt lat="55.9533000" lon="-3.1864388"><time>2026-03-02T08:15:55Z</time><speed>8.000</speed><course>90.00</course></trkpt>
<trkpt lat="55.9533000" lon="-3.1863104"><time>2026-03-02T08:15:56Z</time><speed>8.000</speed><course>90.00</course></trkpt>
<trkpt lat="55.9533000" lon="-3.1861821"><time>2026-03-02T08:15:57Z</time><speed>8.000</speed><course>90.00</course></trkpt>
<trkpt lat="55.9533000" lon="-3.1860537"><time>2026-03-02T08:15:58Z</time><speed>8.000</speed><course>90.00</course></trkpt>
<trkpt lat="55.9533000" lon="-3.1859253"><time>2026-03-02T08:15:59Z</time><speed>8.000</speed><course>90.00</course></trkpt>
<trkpt lat="55.9533000" lon="-3.1857970"><time>2026-03-02T08:16:00Z</time><speed>8.000</speed><course>90.00</course></trkpt>
<trkpt lat="55.9533000" lon="-3.1856686"><time>2026-03-02T08:16:01Z</time><speed>8.000</speed><course>90.00</course></trkpt>
<trkpt lat="55.9533000" lon="-3.1855403"><time>2026-03-02T08:16:02Z</time><speed>8.000</speed><course>90.00</course></trkpt>
<trkpt lat="55.9533000" lon="-3.1854119"><time>2026-03-02T08:16:03Z</time><speed>8.000</speed><course>90.00</course></trkpt>
<trkpt lat="55.9533000" lon="-3.1852835"><time>2026-03-02T08:16:04Z</time><speed>8.000</speed><course>90.00</course></trkpt>
<trkpt lat="55.9533000" lon="-3.1851552"><time>2026-03-02T08:16:05Z</time><speed>8.000</speed><course>90.00</course></trkpt>
<trkpt lat="55.9533000" lon="-3.1850536"><time>2026-03-02T08:16:06Z</time><speed>6.333</speed><course>90.00</course></trkpt>
<trkpt lat="55.9533000" lon="-3.1849787"><time>2026-03-02T08:16:07Z</time><speed>4.667</speed><course>90.00</course></trkpt>
<trkpt lat="55.9533000" lon="-3.1849305"><time>2026-03-02T08:16:08Z</time><speed>3.000</speed><course>90.00</course></trkpt>
<trkpt lat="55.9533000" lon="-3.1848824"><time>2026-03-02T08:16:09Z</time><speed>3.000</speed><course>90.00</course></trkpt>
<trkpt lat="55.9533000" lon="-3.1848343"><time>2026-03-02T08:16:10Z</time><speed>3.000</speed><course>90.00</course></trkpt>
<trkpt lat="55.9533000" lon="-3.1847861"><time>2026-03-02T08:16:11Z</time><speed>3.000</speed><course>90.00</course></trkpt>
<trkpt lat="55.9533000" lon="-3.1847380"><time>2026-03-02T08:16:12Z</time><speed>3.000</speed><course>90.00</course></trkpt>
<trkpt lat="55.9533000" lon="-3.1846899"><time>2026-03-02T08:16:13Z</time><speed>3.000</speed><course>90.00</course></trkpt>
<trkpt lat="55.9533000" lon="-3.1846230"><time>2026-03-02T08:16:14Z</time><speed>4.167</speed><course>90.00</course></trkpt>
<trkpt lat="55.9533000" lon="-3.1845374"><time>2026-03-02T08:16:15Z</time><speed>5.333</speed><course>90.00</course></trkpt>
<trkpt lat="55.9533000" lon="-3.1844331"><time>2026-03-02T08:16:16Z</time><speed>6.500</speed><course>90.00</course></trkpt>
<trkpt lat="55.9533000" lon="-3.1843101"><time>2026-03-02T08:16:17Z</time><speed>7.667</speed><course>90.00</course></trkpt>
<trkpt lat="55.9533000" lon="-3.1841684"><time>2026-03-02T08:16:18Z</time><speed>8.833</speed><course>90.00</course></trkpt>
<trkpt lat="55.9532906" lon="-3.1840088"><time>2026-03-02T08:16:19Z</time><speed>10.000</speed><course>96.00</course></trkpt>
<trkpt lat="55.9532719" lon="-3.1838519"><time>2026-03-02T08:16:20Z</time><speed>10.000</speed><course>102.00</course></trkpt>
<trkpt lat="55.9532442" lon="-3.1836993"><time>2026-03-02T08:16:21Z</time><speed>10.000</speed><course>108.00</course></trkpt>
<trkpt lat="55.9532076" lon="-3.1835527"><time>2026-03-02T08:16:22Z</time><speed>10.000</speed><course>114.00</course></trkpt>
<trkpt lat="55.9531627" lon="-3.1834138"><time>2026-03-02T08:16:23Z</time><speed>10.000</speed><course>120.00</course></trkpt>
<trkpt lat="55.9531099" lon="-3.1832839"><time>2026-03-02T08:16:24Z</time><speed>10.000</speed><course>126.00</course></trkpt>
<trkpt lat="55.9530498" lon="-3.1831647"><time>2026-03-02T08:16:25Z</time><speed>10.000</speed><course>132.00</course></trkpt>
<trkpt lat="55.9529831" lon="-3.1830573"><time>2026-03-02T08:16:26Z</time><speed>10.000</speed><course>138.00</course></trkpt>
<trkpt lat="55.9529104" lon="-3.1829630"><time>2026-03-02T08:16:27Z</time><speed>10.000</speed><course>144.00</course></trkpt>
<trkpt lat="55.9528326" lon="-3.1828828"><time>2026-03-02T08:16:28Z</time><speed>10.000</speed><course>150.00</course></trkpt>
<trkpt lat="55.9527505" lon="-3.1828176"><time>2026-03-02T08:16:29Z</time><speed>10.000</speed><course>156.00</course></trkpt>
<trkpt lat="55.9526651" lon="-3.1827680"><time>2026-03-02T08:16:30Z</time><speed>10.000</speed><course>162.00</course></trkpt>
<trkpt lat="55.9525772" lon="-3.1827346"><time>2026-03-02T08:16:31Z</time><speed>10.000</speed><course>168.00</course></trkpt>
<trkpt lat="55.9524879" lon="-3.1827178"><time>2026-03-02T08:16:32Z</time><speed>10.000</speed><course>174.00</course></trkpt>
<trkpt lat="55.9523980" lon="-3.1827178"><time>2026-03-02T08:16:33Z</time><speed>10.000</speed><course>180.00</course></trkpt>
<trkpt lat="55.9523082" lon="-3.1827178"><time>2026-03-02T08:16:34Z</time><speed>10.000</speed><course>180.00</course></trkpt>
<trkpt lat="55.9522284" lon="-3.1827178"><time>2026-03-02T08:16:35Z</time><speed>8.889</speed><course>180.00</course></trkpt>
<trkpt lat="55.9521585" lon="-3.1827178"><time>2026-03-02T08:16:36Z</time><speed>7.778</speed><course>180.00</course></trkpt>
<trkpt lat="55.9520986" lon="-3.1827178"><time>2026-03-02T08:16:37Z</time><speed>6.667</speed><course>180.00</course></trkpt>
<trkpt lat="55.9520487" lon="-3.1827178"><time>2026-03-02T08:16:38Z</time><speed>5.556</speed><course>180.00</course></trkpt>
<trkpt lat="55.9520088" lon="-3.1827178"><time>2026-03-02T08:16:39Z</time><speed>4.444</speed><course>180.00</course></trkpt>
<trkpt lat="55.9519788" lon="-3.1827178"><time>2026-03-02T08:16:40Z</time><speed>3.333</speed><course>180.00</course></trkpt>
<trkpt lat="55.9519589" lon="-3.1827178"><time>2026-03-02T08:16:41Z</time><speed>2.222</speed><course>180.00</course></trkpt>
<trkpt lat="55.9519489" lon="-3.1827178"><time>2026-03-02T08:16:42Z</time><speed>1.111</speed><course>180.00</course></trkpt>
</trkseg></trk></gpx>