<?xml version="1.0" encoding="UTF-8"?>
<kml xmlns="http://www.opengis.net/kml/2.2" xmlns:gx="http://www.google.com/kml/ext/2.2">
<Document><Placemark><gx:Track>
<when>2026-03-02T12:30:00Z</when>
<gx:coord>-2.2426000 53.4808000 0</gx:coord>
<when>2026-03-02T12:30:01Z</when>
<gx:coord>-2.2425668 53.4808000 0</gx:coord>
<when>2026-03-02T12:30:02Z</when>
<gx:coord>-2.2425004 53.4808000 0</gx:coord>
<when>2026-03-02T12:30:03Z</when>
<gx:coord>-2.2424007 53.4808000 0</gx:coord>
<when>2026-03-02T12:30:04Z</when>
<gx:coord>-2.2422679 53.4808000 0</gx:coord>
<when>2026-03-02T12:30:05Z</when>
<gx:coord>-2.2421019 53.4808000 0</gx:coord>
<when>2026-03-02T12:30:06Z</when>
<gx:coord>-2.2419358 53.4808000 0</gx:coord>
<when>2026-03-02T12:30:07Z</when>
<gx:coord>-2.2417698 53.4808000 0</gx:coord>
<when>2026-03-02T12:30:08Z</when>
<gx:coord>-2.2416037 53.4808000 0</gx:coord>
<when>2026-03-02T12:30:09Z</when>
<gx:coord>-2.2414377 53.4808000 0</gx:coord>
<when>2026-03-02T12:30:10Z</when>
<gx:coord>-2.2412716 53.4808000 0</gx:coord>
<when>2026-03-02T12:30:11Z</when>
<gx:coord>-2.2411056 53.4808000 0</gx:coord>
<when>2026-03-02T12:30:12Z</when>
<gx:coord>-2.2409395 53.4808000 0</gx:coord>
<when>2026-03-02T12:30:13Z</when>
<gx:coord>-2.2407826 53.4807461 0</gx:coord>
<when>2026-03-02T12:30:14Z</when>
<gx:coord>-2.2406966 53.4806574 0</gx:coord>
<when>2026-03-02T12:30:15Z</when>
<gx:coord>-2.2406966 53.4805604 0</gx:coord>
<when>2026-03-02T12:30:16Z</when>
<gx:coord>-2.2407736 53.4804810 0</gx:coord>
<when>2026-03-02T12:30:17Z</when>
<gx:coord>-2.2408991 53.4804379 0</gx:coord>
<when>2026-03-02T12:30:18Z</when>
<gx:coord>-2.2410167 53.4803975 0</gx:coord>
<when>2026-03-02T12:30:19Z</when>
<gx:coord>-2.2411344 53.4803571 0</gx:coord>
<when>2026-03-02T12:30:20Z</when>
<gx:coord>-2.2412064 53.4802885 0</gx:coord>
<when>2026-03-02T12:30:21Z</when>
<gx:coord>-2.2412162 53.4802049 0</gx:coord>
<when>2026-03-02T12:30:22Z</when>
<gx:coord>-2.2411569 53.4801255 0</gx:coord>
<when>2026-03-02T12:30:23Z</when>
<gx:coord>-2.2410379 53.4800702 0</gx:coord>
<when>2026-03-02T12:30:24Z</when>
<gx:coord>-2.2408843 53.4800541 0</gx:coord>
<when>2026-03-02T12:30:25Z</when>
<gx:coord>-2.2407312 53.4800837 0</gx:coord>
<when>2026-03-02T12:30:26Z</when>
<gx:coord>-2.2405732 53.4801143 0</gx:coord>
<when>2026-03-02T12:30:27Z</when>
<gx:coord>-2.2404153 53.4801448 0</gx:coord>
<when>2026-03-02T12:30:28Z</when>
<gx:coord>-2.2402574 53.4801753 0</gx:coord>
<when>2026-03-02T12:30:29Z</when>
<gx:coord>-2.2400995 53.4802059 0</gx:coord>
<when>2026-03-02T12:30:30Z</when>
<gx:coord>-2.2399416 53.4802364 0</gx:coord>
<when>2026-03-02T12:30:31Z</when>
<gx:coord>-2.2397836 53.4802669 0</gx:coord>
<when>2026-03-02T12:30:32Z</when>
<gx:coord>-2.2396257 53.4802975 0</gx:coord>
<when>2026-03-02T12:30:33Z</when>
<gx:coord>-2.2394678 53.4803280 0</gx:coord>
<when>2026-03-02T12:30:34Z</when>
<gx:coord>-2.2393067 53.4803041 0</gx:coord>
<when>2026-03-02T12:30:35Z</when>
<gx:coord>-2.2391955 53.4802356 0</gx:coord>
<when>2026-03-02T12:30:36Z</when>
<gx:coord>-2.2391635 53.4801460 0</gx:coord>
<when>2026-03-02T12:30:37Z</when>
<gx:coord>-2.2392141 53.4800633 0</gx:coord>
<when>2026-03-02T12:30:38Z</when>
<gx:coord>-2.2393259 53.4800113 0</gx:coord>
<when>2026-03-02T12:30:39Z</when>
<gx:coord>-2.2394330 53.4799615 0</gx:coord>
<when>2026-03-02T12:30:40Z</when>
<gx:coord>-2.2395222 53.4799200 0</gx:coord>
<when>2026-03-02T12:30:41Z</when>
<gx:coord>-2.2395936 53.4798868 0</gx:coord>
<when>2026-03-02T12:30:42Z</when>
<gx:coord>-2.2396471 53.4798619 0</gx:coord>
<when>2026-03-02T12:30:43Z</when>
<gx:coord>-2.2396828 53.4798454 0</gx:coord>
<when>2026-03-02T12:30:44Z</when>
<gx:coord>-2.2397006 53.4798371 0</gx:coord>
</gx:Track></Placemark></Document></kml>