<?xml version="1.0" encoding="UTF-8"?>
<gpx version="1.1" creator="drive-debrief" xmlns="http://www.topografix.com/GPX/1/1">
<trk><name>drive</name><trkseg>
<trkpt lat="53.4808000" lon="-2.2426000"><time>2026-03-02T12:30:00Z</time><speed>0.000</speed><course>90.00</course></trkpt>
<trkpt lat="53.4808000" lon="-2.2425668"><time>2026-03-02T12:30:01Z</time><speed>2.200</speed><course>90.00</course></trkpt>
<trkpt lat="53.4808000" lon="-2.2425004"><time>2026-03-02T12:30:02Z</time><speed>4.400</speed><course>90.00</course></trkpt>
<trkpt lat="53.4808000" lon="-2.2424007"><time>2026-03-02T12:30:03Z</time><speed>6.600</speed><course>90.00</course></trkpt>
<trkpt lat="53.4808000" lon="-2.2422679"><time>2026-03-02T12:30:04Z</time><speed>8.800</speed><course>90.00</course></trkpt>
<trkpt lat="53.4808000" lon="-2.2421019"><time>2026-03-02T12:30:05Z</time><speed>11.000</speed><course>90.00</course></trkpt>
<trkpt lat="53.4808000" lon="-2.2419358"><time>2026-03-02T12:30:06Z</time><speed>11.000</speed><course>90.00</course></trkpt>
<trkpt lat="53.4808000" lon="-2.2417698"><time>2026-03-02T12:30:07Z</time><speed>11.000</speed><course>90.00</course></trkpt>
<trkpt lat="53.4808000" lon="-2.2416037"><time>2026-03-02T12:30:08Z</time><speed>11.000</speed><course>90.00</course></trkpt>
<trkpt lat="53.4808000" lon="-2.2414377"><time>2026-03-02T12:30:09Z</time><speed>11.000</speed><course>90.00</course></trkpt>
<trkpt lat="53.4808000" lon="-2.2412716"><time>2026-03-02T12:30:10Z</time><speed>11.000</speed><course>90.00</course></trkpt>
<trkpt lat="53.4808000" lon="-2.2411056"><time>2026-03-02T12:30:11Z</time><speed>11.000</speed><course>90.00</course></trkpt>
<trkpt lat="53.4808000" lon="-2.2409395"><time>2026-03-02T12:30:12Z</time><speed>11.000</speed><course>90.00</course></trkpt>
<trkpt lat="53.4807461" lon="-2.2407826"><time>2026-03-02T12:30:13Z</time><speed>12.000</speed><course>120.00</course></trkpt>
<trkpt lat="53.4806574" lon="-2.2406966"><time>2026-03-02T12:30:14Z</time><speed>11.400</speed><course>150.00</course></trkpt>
<trkpt lat="53.4805604" lon="-2.2406966"><time>2026-03-02T12:30:15Z</time><speed>10.800</speed><course>180.00</course></trkpt>
<trkpt lat="53.4804810" lon="-2.2407736"><time>2026-03-02T12:30:16Z</time><speed>10.200</speed><course>210.00</course></trkpt>
<trkpt lat="53.4804379" lon="-2.2408991"><time>2026-03-02T12:30:17Z</time><speed>9.600</speed><course>240.00</course></trkpt>
<trkpt lat="53.4803975" lon="-2.2410167"><time>2026-03-02T12:30:18Z</time><speed>9.000</speed><course>240.00</course></trkpt>
<trkpt lat="53.4803571" lon="-2.2411344"><time>2026-03-02T12:30:19Z</time><speed>9.000</speed><course>240.00</course></trkpt>
<trkpt lat="53.4802885" lon="-2.2412064"><time>2026-03-02T12:30:20Z</time><speed>9.000</speed><course>212.00</course></trkpt>
<trkpt lat="53.4802049" lon="-2.2412162"><time>2026-03-02T12:30:21Z</time><speed>9.333</speed><course>184.00</course></trkpt>
<trkpt lat="53.4801255" lon="-2.2411569"><time>2026-03-02T12:30:22Z</time><speed>9.667</speed><course>156.00</course></trkpt>
<trkpt lat="53.4800702" lon="-2.2410379"><time>2026-03-02T12:30:23Z</time><speed>10.000</speed><course>128.00</course></trkpt>
<trkpt lat="53.4800541" lon="-2.2408843"><time>2026-03-02T12:30:24Z</time><speed>10.333</speed><course>100.00</course></trkpt>
<trkpt lat="53.4800837" lon="-2.2407312"><time>2026-03-02T12:30:25Z</time><speed>10.667</speed><course>72.00</course></trkpt>
<trkpt lat="53.4801143" lon="-2.2405732"><time>2026-03-02T12:30:26Z</time><speed>11.000</speed><course>72.00</course></trkpt>
<trkpt lat="53.4801448" lon="-2.2404153"><time>2026-03-02T12:30:27Z</time><speed>11.000</speed><course>72.00</course></trkpt>
<trkpt lat="53.4801753" lon="-2.2402574"><time>2026-03-02T12:30:28Z</time><speed>11.000</speed><course>72.00</course></trkpt>
<trkpt lat="53.4802059" lon="-2.2400995"><time>2026-03-02T12:30:29Z</time><speed>11.000</speed><course>72.00</course></trkpt>
<trkpt lat="53.4802364" lon="-2.2399416"><time>2026-03-02T12:30:30Z</time><speed>11.000</speed><course>72.00</course></trkpt>
<trkpt lat="53.4802669" lon="-2.2397836"><time>2026-03-02T12:30:31Z</time><speed>11.000</speed><course>72.00</course></trkpt>
<trkpt lat="53.4802975" lon="-2.2396257"><time>2026-03-02T12:30:32Z</time><speed>11.000</speed><course>72.00</course></trkpt>
<trkpt lat="53.4803280" lon="-2.2394678"><time>2026-03-02T12:30:33Z</time><speed>11.000</speed><course>72.00</course></trkpt>
<trkpt lat="53.4803041" lon="-2.2393067"><time>2026-03-02T12:30:34Z</time><speed>11.000</speed><course>104.00</course></trkpt>
<trkpt lat="53.4802356" lon="-2.2391955"><time>2026-03-02T12:30:35Z</time><speed>10.600</speed><course>136.00</course></trkpt>
<trkpt lat="53.4801460" lon="-2.2391635"><time>2026-03-02T12:30:36Z</time><speed>10.200</speed><course>168.00</course></trkpt>
<trkpt lat="53.4800633" lon="-2.2392141"><time>2026-03-02T12:30:37Z</time><speed>9.800</speed><course>200.00</course></trkpt>
<trkpt lat="53.4800113" lon="-2.2393259"><time>2026-03-02T12:30:38Z</time><speed>9.400</speed><course>232.00</course></trkpt>
<trkpt lat="53.4799615" lon="-2.2394330"><time>2026-03-02T12:30:39Z</time><speed>9.000</speed><course>232.00</course></trkpt>
<trkpt lat="53.4799200" lon="-2.2395222"><time>2026-03-02T12:30:40Z</time><speed>7.500</speed><course>232.00</course></trkpt>
<trkpt lat="53.4798868" lon="-2.2395936"><time>2026-03-02T12:30:41Z</time><speed>6.000</speed><course>232.00</course></trkpt>
<trkpt lat="53.4798619" lon="-2.2396471"><time>2026-03-02T12:30:42Z</time><speed>4.500</speed><course>232.00</course></trkpt>
<trkpt lat="53.4798454" lon="-2.2396828"><time>2026-03-02T12:30:43Z</time><speed>3.000</speed><course>232.00</course></trkpt>
<trkpt lat="53.4798371" lon="-2.2397006"><time>2026-03-02T12:30:44Z</time><speed>1.500</speed><course>232.00</course></trkpt>
</trkseg></trk></gpx>