<?xml version="1.0" encoding="UTF-8"?>
<gpx version="1.1" creator="drive-debrief" xmlns="http://www.topografix.com/GPX/1/1">
<trk><name>drive</name><trkseg>
<trkpt lat="51.5326000" lon="-0.1050000"><time>2026-03-02T17:35:00Z</time><speed>0.000</speed><course>90.00</course></trkpt>
<trkpt lat="51.5326000" lon="-0.1049759"><time>2026-03-02T17:35:01Z</time><speed>1.667</speed><course>90.00</course></trkpt>
<trkpt lat="51.5326000" lon="-0.1049278"><time>2026-03-02T17:35:02Z</time><speed>3.333</speed><course>90.00</course></trkpt>
<trkpt lat="51.5326000" lon="-0.1048556"><time>2026-03-02T17:35:03Z</time><speed>5.000</speed><course>90.00</course></trkpt>
<trkpt lat="51.5326000" lon="-0.1047834"><time>2026-03-02T17:35:04Z</time><speed>5.000</speed><course>90.00</course></trkpt>
<trkpt lat="51.5326000" lon="-0.1047112"><time>2026-03-02T17:35:05Z</time><speed>5.000</speed><course>90.00</course></trkpt>
<trkpt lat="51.5326000" lon="-0.1046390"><time>2026-03-02T17:35:06Z</time><speed>5.000</speed><course>90.00</course></trkpt>
<trkpt lat="51.5326000" lon="-0.1045668"><time>2026-03-02T17:35:07Z</time><speed>5.000</speed><course>90.00</course></trkpt>
<trkpt lat="51.5326000" lon="-0.1044946"><time>2026-03-02T17:35:08Z</time><speed>5.000</speed><course>90.00</course></trkpt>
<trkpt lat="51.5326000" lon="-0.1044585"><time>2026-03-02T17:35:09Z</time><speed>2.500</speed><course>90.00</course></trkpt>
<trkpt lat="51.5326000" lon="-0.1044585"><time>2026-03-02T17:35:10Z</time><speed>0.000</speed><course>90.00</course></trkpt>
<trkpt lat="51.5326000" lon="-0.1044585"><time>2026-03-02T17:35:11Z</time><speed>0.000</speed><course>90.00</course></trkpt>
<trkpt lat="51.5326000" lon="-0.1044585"><time>2026-03-02T17:35:12Z</time><speed>0.000</speed><course>90.00</course></trkpt>
<trkpt lat="51.5326000" lon="-0.1044585"><time>2026-03-02T17:35:13Z</time><speed>0.000</speed><course>90.00</course></trkpt>
<trkpt lat="51.5326000" lon="-0.1044585"><time>2026-03-02T17:35:14Z</time><speed>0.000</speed><course>90.00</course></trkpt>
<trkpt lat="51.5326000" lon="-0.1044585"><time>2026-03-02T17:35:15Z</time><speed>0.000</speed><course>90.00</course></trkpt>
<trkpt lat="51.5326000" lon="-0.1044585"><time>2026-03-02T17:35:16Z</time><speed>0.000</speed><course>90.00</course></trkpt>
<trkpt lat="51.5326000" lon="-0.1044585"><time>2026-03-02T17:35:17Z</time><speed>0.000</speed><course>90.00</course></trkpt>
<trkpt lat="51.5326000" lon="-0.1044585"><time>2026-03-02T17:35:18Z</time><speed>0.000</speed><course>90.00</course></trkpt>
<trkpt lat="51.5326000" lon="-0.1044344"><time>2026-03-02T17:35:19Z</time><speed>1.667</speed><course>90.00</course></trkpt>
<trkpt lat="51.5326000" lon="-0.1043863"><time>2026-03-02T17:35:20Z</time><speed>3.333</speed><course>90.00</course></trkpt>
<trkpt lat="51.5326000" lon="-0.1043141"><time>2026-03-02T17:35:21Z</time><speed>5.000</speed><course>90.00</course></trkpt>
<trkpt lat="51.5326000" lon="-0.1042419"><time>2026-03-02T17:35:22Z</time><speed>5.000</speed><course>90.00</course></trkpt>
<trkpt lat="51.5326000" lon="-0.1041697"><time>2026-03-02T17:35:23Z</time><speed>5.000</speed><course>90.00</course></trkpt>
<trkpt lat="51.5326000" lon="-0.1040975"><time>2026-03-02T17:35:24Z</time><speed>5.000</speed><course>90.00</course></trkpt>
<trkpt lat="51.5326000" lon="-0.1040253"><time>2026-03-02T17:35:25Z</time><speed>5.000</speed><course>90.00</course></trkpt>
<trkpt lat="51.5326000" lon="-0.1039530"><time>2026-03-02T17:35:26Z</time><speed>5.000</speed><course>90.00</course></trkpt>
<trkpt lat="51.5326000" lon="-0.1039169"><time>2026-03-02T17:35:27Z</time><speed>2.500</speed><course>90.00</course></trkpt>
<trkpt lat="51.5326000" lon="-0.1039169"><time>2026-03-02T17:35:28Z</time><speed>0.000</speed><course>90.00</course></trkpt>
<trkpt lat="51.5326000" lon="-0.1039169"><time>2026-03-02T17:35:29Z</time><speed>0.000</speed><course>90.00</course></trkpt>
<trkpt lat="51.5326000" lon="-0.1039169"><time>2026-03-02T17:35:30Z</time><speed>0.000</speed><course>90.00</course></trkpt>
<trkpt lat="51.5326000" lon="-0.1039169"><time>2026-03-02T17:35:31Z</time><speed>0.000</speed><course>90.00</course></trkpt>
<trkpt lat="51.5326000" lon="-0.1039169"><time>2026-03-02T17:35:32Z</time><speed>0.000</speed><course>90.00</course></trkpt>
<trkpt lat="51.5326000" lon="-0.1039169"><time>2026-03-02T17:35:33Z</time><speed>0.000</speed><course>90.00</course></trkpt>
<trkpt lat="51.5326000" lon="-0.1039169"><time>2026-03-02T17:35:34Z</time><speed>0.000</speed><course>90.00</course></trkpt>
<trkpt lat="51.5326000" lon="-0.1039169"><time>2026-03-02T17:35:35Z</time><speed>0.000</speed><course>90.00</course></trkpt>
<trkpt lat="51.5326000" lon="-0.1039169"><time>2026-03-02T17:35:36Z</time><speed>0.000</speed><course>90.00</course></trkpt>
<trkpt lat="51.5326000" lon="-0.1038929"><time>2026-03-02T17:35:37Z</time><speed>1.667</speed><course>90.00</course></trkpt>
<trkpt lat="51.5326000" lon="-0.1038447"><time>2026-03-02T17:35:38Z</time><speed>3.333</speed><course>90.00</course></trkpt>
<trkpt lat="51.5326000" lon="-0.1037725"><time>2026-03-02T17:35:39Z</time><speed>5.000</speed><course>90.00</course></trkpt>
<trkpt lat="51.5326000" lon="-0.1037003"><time>2026-03-02T17:35:40Z</time><speed>5.000</speed><course>90.00</course></trkpt>
<trkpt lat="51.5326000" lon="-0.1036281"><time>2026-03-02T17:35:41Z</time><speed>5.000</speed><course>90.00</course></trkpt>
<trkpt lat="51.5326000" lon="-0.1035559"><time>2026-03-02T17:35:42Z</time><speed>5.000</speed><course>90.00</course></trkpt>
<trkpt lat="51.5326000" lon="-0.1034837"><time>2026-03-02T17:35:43Z</time><speed>5.000</speed><course>90.00</course></trkpt>
<trkpt lat="51.5326000" lon="-0.1034115"><time>2026-03-02T17:35:44Z</time><speed>5.000</speed><course>90.00</course></trkpt>
<trkpt lat="51.5326000" lon="-0.1033754"><time>2026-03-02T17:35:45Z</time><speed>2.500</speed><course>90.00</course></trkpt>
<trkpt lat="51.5326000" lon="-0.1033754"><time>2026-03-02T17:35:46Z</time><speed>0.000</speed><course>90.00</course></trkpt>
<trkpt lat="51.5326000" lon="-0.1033754"><time>2026-03-02T17:35:47Z</time><speed>0.000</speed><course>90.00</course></trkpt>
<trkpt lat="51.5326000" lon="-0.1033754"><time>2026-03-02T17:35:48Z</time><speed>0.000</speed><course>90.00</course></trkpt>
<trkpt lat="51.5326000" lon="-0.1033754"><time>2026-03-02T17:35:49Z</time><speed>0.000</speed><course>90.00</course></trkpt>
<trkpt lat="51.5326000" lon="-0.1033754"><time>2026-03-02T17:35:50Z</time><speed>0.000</speed><course>90.00</course></trkpt>
<trkpt lat="51.5326000" lon="-0.1033754"><time>2026-03-02T17:35:51Z</time><speed>0.000</speed><course>90.00</course></trkpt>
<trkpt lat="51.5326000" lon="-0.1033754"><time>2026-03-02T17:35:52Z</time><speed>0.000</speed><course>90.00</course></trkpt>
<trkpt lat="51.5326000" lon="-0.1033754"><time>2026-03-02T17:35:53Z</time><speed>0.000</speed><course>90.00</course></trkpt>
<trkpt lat="51.5326000" lon="-0.1033754"><time>2026-03-02T17:35:54Z</time><speed>0.000</speed><course>90.00</course></trkpt>
<trkpt lat="51.5326000" lon="-0.1033514"><time>2026-03-02T17:35:55Z</time><speed>1.667</speed><course>90.00</course></trkpt>
<trkpt lat="51.5326000" lon="-0.1033032"><time>2026-03-02T17:35:56Z</time><speed>3.333</speed><course>90.00</course></trkpt>
<trkpt lat="51.5326000" lon="-0.1032310"><time>2026-03-02T17:35:57Z</time><speed>5.000</speed><course>90.00</course></trkpt>
<trkpt lat="51.5326000" lon="-0.1031588"><time>2026-03-02T17:35:58Z</time><speed>5.000</speed><course>90.00</course></trkpt>
<trkpt lat="51.5326000" lon="-0.1030866"><time>2026-03-02T17:35:59Z</time><speed>5.000</speed><course>90.00</course></trkpt>
<trkpt lat="51.5326000" lon="-0.1030144"><time>2026-03-02T17:36:00Z</time><speed>5.000</speed><course>90.00</course></trkpt>
<trkpt lat="51.5326000" lon="-0.1029422"><time>2026-03-02T17:36:01Z</time><speed>5.000</speed><course>90.00</course></trkpt>
<trkpt lat="51.5326000" lon="-0.1028700"><time>2026-03-02T17:36:02Z</time><speed>5.000</speed><course>90.00</course></trkpt>
<trkpt lat="51.5326000" lon="-0.1028339"><time>2026-03-02T17:36:03Z</time><speed>2.500</speed><course>90.00</course></trkpt>
<trkpt lat="51.5326000" lon="-0.1028339"><time>2026-03-02T17:36:04Z</time><speed>0.000</speed><course>90.00</course></trkpt>
<trkpt lat="51.5326000" lon="-0.1028339"><time>2026-03-02T17:36:05Z</time><speed>0.000</speed><course>90.00</course></trkpt>
<trkpt lat="51.5326000" lon="-0.1028339"><time>2026-03-02T17:36:06Z</time><speed>0.000</speed><course>90.00</course></trkpt>
<trkpt lat="51.5326000" lon="-0.1028339"><time>2026-03-02T17:36:07Z</time><speed>0.000</speed><course>90.00</course></trkpt>
<trkpt lat="51.5326000" lon="-0.1028339"><time>2026-03-02T17:36:08Z</time><speed>0.000</speed><course>90.00</course></trkpt>
<trkpt lat="51.5326000" lon="-0.1028339"><time>2026-03-02T17:36:09Z</time><speed>0.000</speed><course>90.00</course></trkpt>
<trkpt lat="51.5326000" lon="-0.1028339"><time>2026-03-02T17:36:10Z</time><speed>0.000</speed><course>90.00</course></trkpt>
<trkpt lat="51.5326000" lon="-0.1028339"><time>2026-03-02T17:36:11Z</time><speed>0.000</speed><course>90.00</course></trkpt>
<trkpt lat="51.5326000" lon="-0.1028339"><time>2026-03-02T17:36:12Z</time><speed>0.000</speed><course>90.00</course></trkpt>
<trkpt lat="51.5326000" lon="-0.1028098"><time>2026-03-02T17:36:13Z</time><speed>1.667</speed><course>90.00</course></trkpt>
<trkpt lat="51.5326000" lon="-0.1027617"><time>2026-03-02T17:36:14Z</time><speed>3.333</speed><course>90.00</course></trkpt>
<trkpt lat="51.5326000" lon="-0.1026895"><time>2026-03-02T17:36:15Z</time><speed>5.000</speed><course>90.00</course></trkpt>
<trkpt lat="51.5326000" lon="-0.1026173"><time>2026-03-02T17:36:16Z</time><speed>5.000</speed><course>90.00</course></trkpt>
<trkpt lat="51.5326000" lon="-0.1025451"><time>2026-03-02T17:36:17Z</time><speed>5.000</speed><course>90.00</course></trkpt>
<trkpt lat="51.5326000" lon="-0.1024729"><time>2026-03-02T17:36:18Z</time><speed>5.000</speed><course>90.00</course></trkpt>
<trkpt lat="51.5326000" lon="-0.1024007"><time>2026-03-02T17:36:19Z</time><speed>5.000</speed><course>90.00</course></trkpt>
<trkpt lat="51.5326000" lon="-0.1023285"><time>2026-03-02T17:36:20Z</time><speed>5.000</speed><course>90.00</course></trkpt>
<trkpt lat="51.5326000" lon="-0.1022924"><time>2026-03-02T17:36:21Z</time><speed>2.500</speed><course>90.00</course></trkpt>
<trkpt lat="51.5326000" lon="-0.1022924"><time>2026-03-02T17:36:22Z</time><speed>0.000</speed><course>90.00</course></trkpt>
<trkpt lat="51.5326000" lon="-0.1022924"><time>2026-03-02T17:36:23Z</time><speed>0.000</speed><course>90.00</course></trkpt>
<trkpt lat="51.5326000" lon="-0.1022924"><time>2026-03-02T17:36:24Z</time><speed>0.000</speed><course>90.00</course></trkpt>
<trkpt lat="51.5326000" lon="-0.1022924"><time>2026-03-02T17:36:25Z</time><speed>0.000</speed><course>90.00</course></trkpt>
<trkpt lat="51.5326000" lon="-0.1022924"><time>2026-03-02T17:36:26Z</time><speed>0.000</speed><course>90.00</course></trkpt>
<trkpt lat="51.5326000" lon="-0.1022924"><time>2026-03-02T17:36:27Z</time><speed>0.000</speed><course>90.00</course></trkpt>
<trkpt lat="51.5326000" lon="-0.1022924"><time>2026-03-02T17:36:28Z</time><speed>0.000</speed><course>90.00</course></trkpt>
<trkpt lat="51.5326000" lon="-0.1022924"><time>2026-03-02T17:36:29Z</time><speed>0.000</speed><course>90.00</course></trkpt>
<trkpt lat="51.5326000" lon="-0.1022924"><time>2026-03-02T17:36:30Z</time><speed>0.000</speed><course>90.00</course></trkpt>
<trkpt lat="51.5326000" lon="-0.1022683"><time>2026-03-02T17:36:31Z</time><speed>1.667</speed><course>90.00</course></trkpt>
<trkpt lat="51.5326000" lon="-0.1022202"><time>2026-03-02T17:36:32Z</time><speed>3.333</speed><course>90.00</course></trkpt>
<trkpt lat="51.5326000" lon="-0.1021480"><time>2026-03-02T17:36:33Z</time><speed>5.000</speed><course>90.00</course></trkpt>
<trkpt lat="51.5326000" lon="-0.1020758"><time>2026-03-02T17:36:34Z</time><speed>5.000</speed><course>90.00</course></trkpt>
<trkpt lat="51.5326000" lon="-0.1020036"><time>2026-03-02T17:36:35Z</time><speed>5.000</speed><course>90.00</course></trkpt>
<trkpt lat="51.5326000" lon="-0.1019314"><time>2026-03-02T17:36:36Z</time><speed>5.000</speed><course>90.00</course></trkpt>
<trkpt lat="51.5326000" lon="-0.1018591"><time>2026-03-02T17:36:37Z</time><speed>5.000</speed><course>90.00</course></trkpt>
<trkpt lat="51.5326000" lon="-0.1017869"><time>2026-03-02T17:36:38Z</time><speed>5.000</speed><course>90.00</course></trkpt>
<trkpt lat="51.5326000" lon="-0.1017508"><time>2026-03-02T17:36:39Z</time><speed>2.500</speed><course>90.00</course></trkpt>
<trkpt lat="51.5326000" lon="-0.1017508"><time>2026-03-02T17:36:40Z</time><speed>0.000</speed><course>90.00</course></trkpt>
<trkpt lat="51.5326000" lon="-0.1017508"><time>2026-03-02T17:36:41Z</time><speed>0.000</speed><course>90.00</course></trkpt>
<trkpt lat="51.5326000" lon="-0.1017508"><time>2026-03-02T17:36:42Z</time><speed>0.000</speed><course>90.00</course></trkpt>
<trkpt lat="51.5326000" lon="-0.1017508"><time>2026-03-02T17:36:43Z</time><speed>0.000</speed><course>90.00</course></trkpt>
<trkpt lat="51.5326000" lon="-0.1017508"><time>2026-03-02T17:36:44Z</time><speed>0.000</speed><course>90.00</course></trkpt>
<trkpt lat="51.5326000" lon="-0.1017508"><time>2026-03-02T17:36:45Z</time><speed>0.000</speed><course>90.00</course></trkpt>
<trkpt lat="51.5326000" lon="-0.1017508"><time>2026-03-02T17:36:46Z</time><speed>0.000</speed><course>90.00</course></trkpt>
<trkpt lat="51.5326000" lon="-0.1017508"><time>2026-03-02T17:36:47Z</time><speed>0.000</speed><course>90.00</course></trkpt>
</trkseg></trk></gpx>