<?xml version="1.0" encoding="UTF-8"?>
<kml xmlns="http://www.opengis.net/kml/2.2" xmlns:gx="http://www.google.com/kml/ext/2.2">
<Document><Placemark><gx:Track>
<when>2026-03-02T17:35:00Z</when>
<gx:coord>-0.1050000 51.5326000 0</gx:coord>
<when>2026-03-02T17:35:01Z</when>
<gx:coord>-0.1049759 51.5326000 0</gx:coord>
<when>2026-03-02T17:35:02Z</when>
<gx:coord>-0.1049278 51.5326000 0</gx:coord>
<when>2026-03-02T17:35:03Z</when>
<gx:coord>-0.1048556 51.5326000 0</gx:coord>
<when>2026-03-02T17:35:04Z</when>
<gx:coord>-0.1047834 51.5326000 0</gx:coord>
<when>2026-03-02T17:35:05Z</when>
<gx:coord>-0.1047112 51.5326000 0</gx:coord>
<when>2026-03-02T17:35:06Z</when>
<gx:coord>-0.1046390 51.5326000 0</gx:coord>
<when>2026-03-02T17:35:07Z</when>
<gx:coord>-0.1045668 51.5326000 0</gx:coord>
<when>2026-03-02T17:35:08Z</when>
<gx:coord>-0.1044946 51.5326000 0</gx:coord>
<when>2026-03-02T17:35:09Z</when>
<gx:coord>-0.1044585 51.5326000 0</gx:coord>
<when>2026-03-02T17:35:10Z</when>
<gx:coord>-0.1044585 51.5326000 0</gx:coord>
<when>2026-03-02T17:35:11Z</when>
<gx:coord>-0.1044585 51.5326000 0</gx:coord>
<when>2026-03-02T17:35:12Z</when>
<gx:coord>-0.1044585 51.5326000 0</gx:coord>
<when>2026-03-02T17:35:13Z</when>
<gx:coord>-0.1044585 51.5326000 0</gx:coord>
<when>2026-03-02T17:35:14Z</when>
<gx:coord>-0.1044585 51.5326000 0</gx:coord>
<when>2026-03-02T17:35:15Z</when>
<gx:coord>-0.1044585 51.5326000 0</gx:coord>
<when>2026-03-02T17:35:16Z</when>
<gx:coord>-0.1044585 51.5326000 0</gx:coord>
<when>2026-03-02T17:35:17Z</when>
<gx:coord>-0.1044585 51.5326000 0</gx:coord>
<when>2026-03-02T17:35:18Z</when>
<gx:coord>-0.1044585 51.5326000 0</gx:coord>
<when>2026-03-02T17:35:19Z</when>
<gx:coord>-0.1044344 51.5326000 0</gx:coord>
<when>2026-03-02T17:35:20Z</when>
<gx:coord>-0.1043863 51.5326000 0</gx:coord>
<when>2026-03-02T17:35:21Z</when>
<gx:coord>-0.1043141 51.5326000 0</gx:coord>
<when>2026-03-02T17:35:22Z</when>
<gx:coord>-0.1042419 51.5326000 0</gx:coord>
<when>2026-03-02T17:35:23Z</when>
<gx:coord>-0.1041697 51.5326000 0</gx:coord>
<when>2026-03-02T17:35:24Z</when>
<gx:coord>-0.1040975 51.5326000 0</gx:coord>
<when>2026-03-02T17:35:25Z</when>
<gx:coord>-0.1040253 51.5326000 0</gx:coord>
<when>2026-03-02T17:35:26Z</when>
<gx:coord>-0.1039530 51.5326000 0</gx:coord>
<when>2026-03-02T17:35:27Z</when>
<gx:coord>-0.1039169 51.5326000 0</gx:coord>
<when>2026-03-02T17:35:28Z</when>
<gx:coord>-0.1039169 51.5326000 0</gx:coord>
<when>2026-03-02T17:35:29Z</when>
<gx:coord>-0.1039169 51.5326000 0</gx:coord>
<when>2026-03-02T17:35:30Z</when>
<gx:coord>-0.1039169 51.5326000 0</gx:coord>
<when>2026-03-02T17:35:31Z</when>
<gx:coord>-0.1039169 51.5326000 0</gx:coord>
<when>2026-03-02T17:35:32Z</when>
<gx:coord>-0.1039169 51.5326000 0</gx:coord>
<when>2026-03-02T17:35:33Z</when>
<gx:coord>-0.1039169 51.5326000 0</gx:coord>
<when>2026-03-02T17:35:34Z</when>
<gx:coord>-0.1039169 51.5326000 0</gx:coord>
<when>2026-03-02T17:35:35Z</when>
<gx:coord>-0.1039169 51.5326000 0</gx:coord>
<when>2026-03-02T17:35:36Z</when>
<gx:coord>-0.1039169 51.5326000 0</gx:coord>
<when>2026-03-02T17:35:37Z</when>
<gx:coord>-0.1038929 51.5326000 0</gx:coord>
<when>2026-03-02T17:35:38Z</when>
<gx:coord>-0.1038447 51.5326000 0</gx:coord>
<when>2026-03-02T17:35:39Z</when>
<gx:coord>-0.1037725 51.5326000 0</gx:coord>
<when>2026-03-02T17:35:40Z</when>
<gx:coord>-0.1037003 51.5326000 0</gx:coord>
<when>2026-03-02T17:35:41Z</when>
<gx:coord>-0.1036281 51.5326000 0</gx:coord>
<when>2026-03-02T17:35:42Z</when>
<gx:coord>-0.1035559 51.5326000 0</gx:coord>
<when>2026-03-02T17:35:43Z</when>
<gx:coord>-0.1034837 51.5326000 0</gx:coord>
<when>2026-03-02T17:35:44Z</when>
<gx:coord>-0.1034115 51.5326000 0</gx:coord>
<when>2026-03-02T17:35:45Z</when>
<gx:coord>-0.1033754 51.5326000 0</gx:coord>
<when>2026-03-02T17:35:46Z</when>
<gx:coord>-0.1033754 51.5326000 0</gx:coord>
<when>2026-03-02T17:35:47Z</when>
<gx:coord>-0.1033754 51.5326000 0</gx:coord>
<when>2026-03-02T17:35:48Z</when>
<gx:coord>-0.1033754 51.5326000 0</gx:coord>
<when>2026-03-02T17:35:49Z</when>
<gx:coord>-0.1033754 51.5326000 0</gx:coord>
<when>2026-03-02T17:35:50Z</when>
<gx:coord>-0.1033754 51.5326000 0</gx:coord>
<when>2026-03-02T17:35:51Z</when>
<gx:coord>-0.1033754 51.5326000 0</gx:coord>
<when>2026-03-02T17:35:52Z</when>
<gx:coord>-0.1033754 51.5326000 0</gx:coord>
<when>2026-03-02T17:35:53Z</when>
<gx:coord>-0.1033754 51.5326000 0</gx:coord>
<when>2026-03-02T17:35:54Z</when>
<gx:coord>-0.1033754 51.5326000 0</gx:coord>
<when>2026-03-02T17:35:55Z</when>
<gx:coord>-0.1033514 51.5326000 0</gx:coord>
<when>2026-03-02T17:35:56Z</when>
<gx:coord>-0.1033032 51.5326000 0</gx:coord>
<when>2026-03-02T17:35:57Z</when>
<gx:coord>-0.1032310 51.5326000 0</gx:coord>
<when>2026-03-02T17:35:58Z</when>
<gx:coord>-0.1031588 51.5326000 0</gx:coord>
<when>2026-03-02T17:35:59Z</when>
<gx:coord>-0.1030866 51.5326000 0</gx:coord>
<when>2026-03-02T17:36:00Z</when>
<gx:coord>-0.1030144 51.5326000 0</gx:coord>
<when>2026-03-02T17:36:01Z</when>
<gx:coord>-0.1029422 51.5326000 0</gx:coord>
<when>2026-03-02T17:36:02Z</when>
<gx:coord>-0.1028700 51.5326000 0</gx:coord>
<when>2026-03-02T17:36:03Z</when>
<gx:coord>-0.1028339 51.5326000 0</gx:coord>
<when>2026-03-02T17:36:04Z</when>
<gx:coord>-0.1028339 51.5326000 0</gx:coord>
<when>2026-03-02T17:36:05Z</when>
<gx:coord>-0.1028339 51.5326000 0</gx:coord>
<when>2026-03-02T17:36:06Z</when>
<gx:coord>-0.1028339 51.5326000 0</gx:coord>
<when>2026-03-02T17:36:07Z</when>
<gx:coord>-0.1028339 51.5326000 0</gx:coord>
<when>2026-03-02T17:36:08Z</when>
<gx:coord>-0.1028339 51.5326000 0</gx:coord>
<when>2026-03-02T17:36:09Z</when>
<gx:coord>-0.1028339 51.5326000 0</gx:coord>
<when>2026-03-02T17:36:10Z</when>
<gx:coord>-0.1028339 51.5326000 0</gx:coord>
<when>2026-03-02T17:36:11Z</when>
<gx:coord>-0.1028339 51.5326000 0</gx:coord>
<when>2026-03-02T17:36:12Z</when>
<gx:coord>-0.1028339 51.5326000 0</gx:coord>
<when>2026-03-02T17:36:13Z</when>
<gx:coord>-0.1028098 51.5326000 0</gx:coord>
<when>2026-03-02T17:36:14Z</when>
<gx:coord>-0.1027617 51.5326000 0</gx:coord>
<when>2026-03-02T17:36:15Z</when>
<gx:coord>-0.1026895 51.5326000 0</gx:coord>
<when>2026-03-02T17:36:16Z</when>
<gx:coord>-0.1026173 51.5326000 0</gx:coord>
<when>2026-03-02T17:36:17Z</when>
<gx:coord>-0.1025451 51.5326000 0</gx:coord>
<when>2026-03-02T17:36:18Z</when>
<gx:coord>-0.1024729 51.5326000 0</gx:coord>
<when>2026-03-02T17:36:19Z</when>
<gx:coord>-0.1024007 51.5326000 0</gx:coord>
<when>2026-03-02T17:36:20Z</when>
<gx:coord>-0.1023285 51.5326000 0</gx:coord>
<when>2026-03-02T17:36:21Z</when>
<gx:coord>-0.1022924 51.5326000 0</gx:coord>
<when>2026-03-02T17:36:22Z</when>
<gx:coord>-0.1022924 51.5326000 0</gx:coord>
<when>2026-03-02T17:36:23Z</when>
<gx:coord>-0.1022924 51.5326000 0</gx:coord>
<when>2026-03-02T17:36:24Z</when>
<gx:coord>-0.1022924 51.5326000 0</gx:coord>
<when>2026-03-02T17:36:25Z</when>
<gx:coord>-0.1022924 51.5326000 0</gx:coord>
<when>2026-03-02T17:36:26Z</when>
<gx:coord>-0.1022924 51.5326000 0</gx:coord>
<when>2026-03-02T17:36:27Z</when>
<gx:coord>-0.1022924 51.5326000 0</gx:coord>
<when>2026-03-02T17:36:28Z</when>
<gx:coord>-0.1022924 51.5326000 0</gx:coord>
<when>2026-03-02T17:36:29Z</when>
<gx:coord>-0.1022924 51.5326000 0</gx:coord>
<when>2026-03-02T17:36:30Z</when>
<gx:coord>-0.1022924 51.5326000 0</gx:coord>
<when>2026-03-02T17:36:31Z</when>
<gx:coord>-0.1022683 51.5326000 0</gx:coord>
<when>2026-03-02T17:36:32Z</when>
<gx:coord>-0.1022202 51.5326000 0</gx:coord>
<when>2026-03-02T17:36:33Z</when>
<gx:coord>-0.1021480 51.5326000 0</gx:coord>
<when>2026-03-02T17:36:34Z</when>
<gx:coord>-0.1020758 51.5326000 0</gx:coord>
<when>2026-03-02T17:36:35Z</when>
<gx:coord>-0.1020036 51.5326000 0</gx:coord>
<when>2026-03-02T17:36:36Z</when>
<gx:coord>-0.1019314 51.5326000 0</gx:coord>
<when>2026-03-02T17:36:37Z</when>
<gx:coord>-0.1018591 51.5326000 0</gx:coord>
<when>2026-03-02T17:36:38Z</when>
<gx:coord>-0.1017869 51.5326000 0</gx:coord>
<when>2026-03-02T17:36:39Z</when>
<gx:coord>-0.1017508 51.5326000 0</gx:coord>
<when>2026-03-02T17:36:40Z</when>
<gx:coord>-0.1017508 51.5326000 0</gx:coord>
<when>2026-03-02T17:36:41Z</when>
<gx:coord>-0.1017508 51.5326000 0</gx:coord>
<when>2026-03-02T17:36:42Z</when>
<gx:coord>-0.1017508 51.5326000 0</gx:coord>
<when>2026-03-02T17:36:43Z</when>
<gx:coord>-0.1017508 51.5326000 0</gx:coord>
<when>2026-03-02T17:36:44Z</when>
<gx:coord>-0.1017508 51.5326000 0</gx:coord>
<when>2026-03-02T17:36:45Z</when>
<gx:coord>-0.1017508 51.5326000 0</gx:coord>
<when>2026-03-02T17:36:46Z</when>
<gx:coord>-0.1017508 51.5326000 0</gx:coord>
<when>2026-03-02T17:36:47Z</when>
<gx:coord>-0.1017508 51.5326000 0</gx:coord>
</gx:Track></Placemark></Document></kml>