<?xml version="1.0" encoding="UTF-8"?>
<gpx version="1.1" creator="drive-debrief" xmlns="http://www.topografix.com/GPX/1/1">
<trk><name>drive</name><trkseg>
<trkpt lat="51.4545000" lon="-2.5879000"><time>2026-03-02T08:15:00Z</time><speed>0.000</speed><course>90.00</course></trkpt>
<trkpt lat="51.4545000" lon="-2.5878741"><time>2026-03-02T08:15:01Z</time><speed>1.800</speed><course>90.00</course></trkpt>
<trkpt lat="51.4545000" lon="-2.5878222"><time>2026-03-02T08:15:02Z</time><speed>3.600</speed><course>90.00</course></trkpt>
<trkpt lat="51.4545000" lon="-2.5877443"><time>2026-03-02T08:15:03Z</time><speed>5.400</speed><course>90.00</course></trkpt>
<trkpt lat="51.4545000" lon="-2.5876405"><time>2026-03-02T08:15:04Z</time><speed>7.200</speed><course>90.00</course></trkpt>
<trkpt lat="51.4545000" lon="-2.5875108"><time>2026-03-02T08:15:05Z</time><speed>9.000</speed><course>90.00</course></trkpt>
<trkpt lat="51.4545000" lon="-2.5873810"><time>2026-03-02T08:15:06Z</time><speed>9.000</speed><course>90.00</course></trkpt>
<trkpt lat="51.4545000" lon="-2.5872513"><time>2026-03-02T08:15:07Z</time><speed>9.000</speed><course>90.00</course></trkpt>
<trkpt lat="51.4545000" lon="-2.5871215"><time>2026-03-02T08:15:08Z</time><speed>9.000</speed><course>90.00</course></trkpt>
<trkpt lat="51.4545000" lon="-2.5869918"><time>2026-03-02T08:15:09Z</time><speed>9.000</speed><course>90.00</course></trkpt>
<trkpt lat="51.4545000" lon="-2.5868620"><time>2026-03-02T08:15:10Z</time><speed>9.000</speed><course>90.00</course></trkpt>
<trkpt lat="51.4545000" lon="-2.5867323"><time>2026-03-02T08:15:11Z</time><speed>9.000</speed><course>90.00</course></trkpt>
<trkpt lat="51.4545000" lon="-2.5866026"><time>2026-03-02T08:15:12Z</time><speed>9.000</speed><course>90.00</course></trkpt>
<trkpt lat="51.4544791" lon="-2.5864772"><time>2026-03-02T08:15:13Z</time><speed>9.000</speed><course>105.00</course></trkpt>
<trkpt lat="51.4544387" lon="-2.5863649"><time>2026-03-02T08:15:14Z</time><speed>9.000</speed><course>120.00</course></trkpt>
<trkpt lat="51.4543815" lon="-2.5862731"><time>2026-03-02T08:15:15Z</time><speed>9.000</speed><course>135.00</course></trkpt>
<trkpt lat="51.4543115" lon="-2.5862083"><time>2026-03-02T08:15:16Z</time><speed>9.000</speed><course>150.00</course></trkpt>
<trkpt lat="51.4542414" lon="-2.5861434"><time>2026-03-02T08:15:17Z</time><speed>9.000</speed><course>150.00</course></trkpt>
<trkpt lat="51.4541714" lon="-2.5860785"><time>2026-03-02T08:15:18Z</time><speed>9.000</speed><course>150.00</course></trkpt>
<trkpt lat="51.4541014" lon="-2.5860136"><time>2026-03-02T08:15:19Z</time><speed>9.000</speed><course>150.00</course></trkpt>
<trkpt lat="51.4540314" lon="-2.5859488"><time>2026-03-02T08:15:20Z</time><speed>9.000</speed><course>150.00</course></trkpt>
<trkpt lat="51.4539614" lon="-2.5858839"><time>2026-03-02T08:15:21Z</time><speed>9.000</speed><course>150.00</course></trkpt>
<trkpt lat="51.4538914" lon="-2.5858190"><time>2026-03-02T08:15:22Z</time><speed>9.000</speed><course>150.00</course></trkpt>
<trkpt lat="51.4538214" lon="-2.5857542"><time>2026-03-02T08:15:23Z</time><speed>9.000</speed><course>150.00</course></trkpt>
<trkpt lat="51.4537513" lon="-2.5856893"><time>2026-03-02T08:15:24Z</time><speed>9.000</speed><course>150.00</course></trkpt>
<trkpt lat="51.4536813" lon="-2.5856244"><time>2026-03-02T08:15:25Z</time><speed>9.000</speed><course>150.00</course></trkpt>
<trkpt lat="51.4536346" lon="-2.5855812"><time>2026-03-02T08:15:26Z</time><speed>6.000</speed><course>150.00</course></trkpt>
<trkpt lat="51.4536113" lon="-2.5855595"><time>2026-03-02T08:15:27Z</time><speed>3.000</speed><course>150.00</course></trkpt>
<trkpt lat="51.4536113" lon="-2.5855595"><time>2026-03-02T08:15:28Z</time><speed>0.000</speed><course>150.00</course></trkpt>
<trkpt lat="51.4536113" lon="-2.5855595"><time>2026-03-02T08:15:29Z</time><speed>0.000</speed><course>150.00</course></trkpt>
<trkpt lat="51.4536113" lon="-2.5855595"><time>2026-03-02T08:15:30Z</time><speed>0.000</speed><course>150.00</course></trkpt>
<trkpt lat="51.4536113" lon="-2.5855595"><time>2026-03-02T08:15:31Z</time><speed>0.000</speed><course>150.00</course></trkpt>
<trkpt lat="51.4536113" lon="-2.5855595"><time>2026-03-02T08:15:32Z</time><speed>0.000</speed><course>150.00</course></trkpt>
<trkpt lat="51.4536113" lon="-2.5855595"><time>2026-03-02T08:15:33Z</time><speed>0.000</speed><course>150.00</course></trkpt>
<trkpt lat="51.4536113" lon="-2.5855595"><time>2026-03-02T08:15:34Z</time><speed>0.000</speed><course>150.00</course></trkpt>
<trkpt lat="51.4536113" lon="-2.5855595"><time>2026-03-02T08:15:35Z</time><speed>0.000</speed><course>150.00</course></trkpt>
<trkpt lat="51.4536113" lon="-2.5855595"><time>2026-03-02T08:15:36Z</time><speed>0.000</speed><course>150.00</course></trkpt>
<trkpt lat="51.4535938" lon="-2.5855433"><time>2026-03-02T08:15:37Z</time><speed>2.250</speed><course>150.00</course></trkpt>
<trkpt lat="51.4535588" lon="-2.5855109"><time>2026-03-02T08:15:38Z</time><speed>4.500</speed><course>150.00</course></trkpt>
<trkpt lat="51.4535063" lon="-2.5854622"><time>2026-03-02T08:15:39Z</time><speed>6.750</speed><course>150.00</course></trkpt>
<trkpt lat="51.4534462" lon="-2.5853754"><time>2026-03-02T08:15:40Z</time><speed>9.000</speed><course>138.00</course></trkpt>
<trkpt lat="51.4533987" lon="-2.5852705"><time>2026-03-02T08:15:41Z</time><speed>9.000</speed><course>126.00</course></trkpt>
<trkpt lat="51.4533658" lon="-2.5851519"><time>2026-03-02T08:15:42Z</time><speed>9.000</speed><course>114.00</course></trkpt>
<trkpt lat="51.4533490" lon="-2.5850250"><time>2026-03-02T08:15:43Z</time><speed>9.000</speed><course>102.00</course></trkpt>
<trkpt lat="51.4533490" lon="-2.5848953"><time>2026-03-02T08:15:44Z</time><speed>9.000</speed><course>90.00</course></trkpt>
<trkpt lat="51.4533658" lon="-2.5847684"><time>2026-03-02T08:15:45Z</time><speed>9.000</speed><course>78.00</course></trkpt>
<trkpt lat="51.4533987" lon="-2.5846498"><time>2026-03-02T08:15:46Z</time><speed>9.000</speed><course>66.00</course></trkpt>
<trkpt lat="51.4534462" lon="-2.5845449"><time>2026-03-02T08:15:47Z</time><speed>9.000</speed><course>54.00</course></trkpt>
<trkpt lat="51.4535063" lon="-2.5844581"><time>2026-03-02T08:15:48Z</time><speed>9.000</speed><course>42.00</course></trkpt>
<trkpt lat="51.4535763" lon="-2.5843932"><time>2026-03-02T08:15:49Z</time><speed>9.000</speed><course>30.00</course></trkpt>
<trkpt lat="51.4536463" lon="-2.5843283"><time>2026-03-02T08:15:50Z</time><speed>9.000</speed><course>30.00</course></trkpt>
<trkpt lat="51.4537023" lon="-2.5842764"><time>2026-03-02T08:15:51Z</time><speed>7.200</speed><course>30.00</course></trkpt>
<trkpt lat="51.4537443" lon="-2.5842375"><time>2026-03-02T08:15:52Z</time><speed>5.400</speed><course>30.00</course></trkpt>
<trkpt lat="51.4537723" lon="-2.5842115"><time>2026-03-02T08:15:53Z</time><speed>3.600</speed><course>30.00</course></trkpt>
<trkpt lat="51.4537863" lon="-2.5841986"><time>2026-03-02T08:15:54Z</time><speed>1.800</speed><course>30.00</course></trkpt>
</trkseg></trk></gpx>