<?xml version="1.0" encoding="UTF-8"?>
<kml xmlns="http://www.opengis.net/kml/2.2" xmlns:gx="http://www.google.com/kml/ext/2.2">
<Document><Placemark><gx:Track>
<when>2026-03-02T17:35:00Z</when>
<gx:coord>-0.1050459 51.5325903 0</gx:coord>
<when>2026-03-02T17:35:01Z</when>
<gx:coord>-0.1049180 51.5326324 0</gx:coord>
<when>2026-03-02T17:35:02Z</when>
<gx:coord>-0.1049439 51.5326376 0</gx:coord>
<when>2026-03-02T17:35:03Z</when>
<gx:coord>-0.1049147 51.5326085 0</gx:coord>
<when>2026-03-02T17:35:04Z</when>
<gx:coord>-0.1047211 51.5326112 0</gx:coord>
<when>2026-03-02T17:35:05Z</when>
<gx:coord>-0.1045315 51.5325868 0</gx:coord>
<when>2026-03-02T17:35:06Z</when>
<gx:coord>-0.1044386 51.5325754 0</gx:coord>
<when>2026-03-02T17:35:07Z</when>
<gx:coord>-0.1043070 51.5325757 0</gx:coord>
<when>2026-03-02T17:35:08Z</when>
<gx:coord>-0.1042119 51.5325731 0</gx:coord>
<when>2026-03-02T17:35:09Z</when>
<gx:coord>-0.1041970 51.5326250 0</gx:coord>
<when>2026-03-02T17:35:10Z</when>
<gx:coord>-0.1039308 51.5325985 0</gx:coord>
<when>2026-03-02T17:35:11Z</when>
<gx:coord>-0.1038235 51.5326035 0</gx:coord>
<when>2026-03-02T17:35:12Z</when>
<gx:coord>-0.1038148 51.5325828 0</gx:coord>
<when>2026-03-02T17:35:13Z</when>
<gx:coord>-0.1036030 51.5325498 0</gx:coord>
<when>2026-03-02T17:35:14Z</when>
<gx:coord>-0.1035004 51.5325063 0</gx:coord>
<when>2026-03-02T17:35:15Z</when>
<gx:coord>-0.1033244 51.5324588 0</gx:coord>
<when>2026-03-02T17:35:16Z</when>
<gx:coord>-0.1033000 51.5324276 0</gx:coord>
<when>2026-03-02T17:35:17Z</when>
<gx:coord>-0.1032275 51.5323419 0</gx:coord>
<when>2026-03-02T17:35:18Z</when>
<gx:coord>-0.1031649 51.5322591 0</gx:coord>
<when>2026-03-02T17:35:19Z</when>
<gx:coord>-0.1031679 51.5321950 0</gx:coord>
<when>2026-03-02T17:35:20Z</when>
<gx:coord>-0.1031305 51.5320929 0</gx:coord>
<when>2026-03-02T17:35:21Z</when>
<gx:coord>-0.1029780 51.5320946 0</gx:coord>
<when>2026-03-02T17:35:22Z</when>
<gx:coord>-0.1029282 51.5319586 0</gx:coord>
<when>2026-03-02T17:35:23Z</when>
<gx:coord>-0.1028511 51.5319225 0</gx:coord>
<when>2026-03-02T17:35:24Z</when>
<gx:coord>-0.1027927 51.5319089 0</gx:coord>
<when>2026-03-02T17:35:25Z</when>
<gx:coord>-0.1027421 51.5317126 0</gx:coord>
<when>2026-03-02T17:35:26Z</when>
<gx:coord>-0.1026531 51.5316967 0</gx:coord>
<when>2026-03-02T17:35:27Z</when>
<gx:coord>-0.1026472 51.5316918 0</gx:coord>
<when>2026-03-02T17:35:28Z</when>
<gx:coord>-0.1026825 51.5317144 0</gx:coord>
<when>2026-03-02T17:35:29Z</when>
<gx:coord>-0.1027378 51.5316651 0</gx:coord>
<when>2026-03-02T17:35:30Z</when>
<gx:coord>-0.1027677 51.5317050 0</gx:coord>
<when>2026-03-02T17:35:31Z</when>
<gx:coord>-0.1027179 51.5317105 0</gx:coord>
<when>2026-03-02T17:35:32Z</when>
<gx:coord>-0.1026622 51.5317159 0</gx:coord>
<when>2026-03-02T17:35:33Z</when>
<gx:coord>-0.1026161 51.5316469 0</gx:coord>
<when>2026-03-02T17:35:34Z</when>
<gx:coord>-0.1026737 51.5317287 0</gx:coord>
<when>2026-03-02T17:35:35Z</when>
<gx:coord>-0.1026262 51.5317543 0</gx:coord>
<when>2026-03-02T17:35:36Z</when>
<gx:coord>-0.1026052 51.5317231 0</gx:coord>
<when>2026-03-02T17:35:37Z</when>
<gx:coord>-0.1025362 51.5316743 0</gx:coord>
<when>2026-03-02T17:35:38Z</when>
<gx:coord>-0.1025944 51.5316423 0</gx:coord>
<when>2026-03-02T17:35:39Z</when>
<gx:coord>-0.1024933 51.5315350 0</gx:coord>
<when>2026-03-02T17:35:40Z</when>
<gx:coord>-0.1024609 51.5315590 0</gx:coord>
<when>2026-03-02T17:35:41Z</when>
<gx:coord>-0.1024196 51.5315392 0</gx:coord>
<when>2026-03-02T17:35:42Z</when>
<gx:coord>-0.1023456 51.5314833 0</gx:coord>
<when>2026-03-02T17:35:43Z</when>
<gx:coord>-0.1021072 51.5313687 0</gx:coord>
<when>2026-03-02T17:35:44Z</when>
<gx:coord>-0.1019516 51.5314375 0</gx:coord>
<when>2026-03-02T17:35:45Z</when>
<gx:coord>-0.1017560 51.5314630 0</gx:coord>
<when>2026-03-02T17:35:46Z</when>
<gx:coord>-0.1017732 51.5314856 0</gx:coord>
<when>2026-03-02T17:35:47Z</when>
<gx:coord>-0.1016179 51.5315740 0</gx:coord>
<when>2026-03-02T17:35:48Z</when>
<gx:coord>-0.1015572 51.5315593 0</gx:coord>
<when>2026-03-02T17:35:49Z</when>
<gx:coord>-0.1015898 51.5316570 0</gx:coord>
<when>2026-03-02T17:35:50Z</when>
<gx:coord>-0.1014060 51.5317624 0</gx:coord>
<when>2026-03-02T17:35:51Z</when>
<gx:coord>-0.1013841 51.5318290 0</gx:coord>
<when>2026-03-02T17:35:52Z</when>
<gx:coord>-0.1013865 51.5318489 0</gx:coord>
<when>2026-03-02T17:35:53Z</when>
<gx:coord>-0.1012321 51.5319008 0</gx:coord>
<when>2026-03-02T17:35:54Z</when>
<gx:coord>-0.1013190 51.5319004 0</gx:coord>
</gx:Track></Placemark></Document></kml>