<?xml version="1.0" encoding="UTF-8"?>
<kml xmlns="http://www.opengis.net/kml/2.2" xmlns:gx="http://www.google.com/kml/ext/2.2">
<Document><Placemark><gx:Track>
<when>2026-03-02T12:30:00Z</when>
<gx:coord>-1.5491000 53.8008000 0</gx:coord>
<when>2026-03-02T12:30:01Z</when>
<gx:coord>-1.5490721 53.8008000 0</gx:coord>
<when>2026-03-02T12:30:02Z</when>
<gx:coord>-1.5490163 53.8008000 0</gx:coord>
<when>2026-03-02T12:30:03Z</when>
<gx:coord>-1.5489327 53.8008000 0</gx:coord>
<when>2026-03-02T12:30:04Z</when>
<gx:coord>-1.5488211 53.8008000 0</gx:coord>
<when>2026-03-02T12:30:05Z</when>
<gx:coord>-1.5486817 53.8008000 0</gx:coord>
<when>2026-03-02T12:30:06Z</when>
<gx:coord>-1.5485144 53.8008000 0</gx:coord>
<when>2026-03-02T12:30:07Z</when>
<gx:coord>-1.5483471 53.8008000 0</gx:coord>
<when>2026-03-02T12:30:08Z</when>
<gx:coord>-1.5481798 53.8008000 0</gx:coord>
<when>2026-03-02T12:30:09Z</when>
<gx:coord>-1.5480125 53.8008000 0</gx:coord>
<when>2026-03-02T12:30:10Z</when>
<gx:coord>-1.5478452 53.8008000 0</gx:coord>
<when>2026-03-02T12:30:11Z</when>
<gx:coord>-1.5476778 53.8008000 0</gx:coord>
<when>2026-03-02T12:30:12Z</when>
<gx:coord>-1.5475105 53.8008000 0</gx:coord>
<when>2026-03-02T12:30:13Z</when>
<gx:coord>-1.5473432 53.8008000 0</gx:coord>
<when>2026-03-02T12:30:14Z</when>
<gx:coord>-1.5471759 53.8008000 0</gx:coord>
<when>2026-03-02T12:30:15Z</when>
<gx:coord>-1.5470086 53.8008000 0</gx:coord>
<when>2026-03-02T12:30:16Z</when>
<gx:coord>-1.5468413 53.8008000 0</gx:coord>
<when>2026-03-02T12:30:17Z</when>
<gx:coord>-1.5466740 53.8008000 0</gx:coord>
<when>2026-03-02T12:30:18Z</when>
<gx:coord>-1.5465066 53.8008000 0</gx:coord>
<when>2026-03-02T12:30:19Z</when>
<gx:coord>-1.5463393 53.8008000 0</gx:coord>
<when>2026-03-02T12:30:20Z</when>
<gx:coord>-1.5461720 53.8008000 0</gx:coord>
<when>2026-03-02T12:30:21Z</when>
<gx:coord>-1.5460047 53.8008000 0</gx:coord>
<when>2026-03-02T12:30:22Z</when>
<gx:coord>-1.5458374 53.8008000 0</gx:coord>
<when>2026-03-02T12:30:23Z</when>
<gx:coord>-1.5456701 53.8008000 0</gx:coord>
<when>2026-03-02T12:30:24Z</when>
<gx:coord>-1.5455028 53.8008000 0</gx:coord>
<when>2026-03-02T12:30:25Z</when>
<gx:coord>-1.5453355 53.8008000 0</gx:coord>
<when>2026-03-02T12:30:26Z</when>
<gx:coord>-1.5451681 53.8008000 0</gx:coord>
<when>2026-03-02T12:30:27Z</when>
<gx:coord>-1.5450008 53.8008000 0</gx:coord>
<when>2026-03-02T12:30:28Z</when>
<gx:coord>-1.5448335 53.8008000 0</gx:coord>
<when>2026-03-02T12:30:29Z</when>
<gx:coord>-1.5446662 53.8008000 0</gx:coord>
<when>2026-03-02T12:30:30Z</when>
<gx:coord>-1.5444989 53.8008000 0</gx:coord>
<when>2026-03-02T12:30:31Z</when>
<gx:coord>-1.5443332 53.8007862 0</gx:coord>
<when>2026-03-02T12:30:32Z</when>
<gx:coord>-1.5441724 53.8007590 0</gx:coord>
<when>2026-03-02T12:30:33Z</when>
<gx:coord>-1.5440195 53.8007188 0</gx:coord>
<when>2026-03-02T12:30:34Z</when>
<gx:coord>-1.5438776 53.8006665 0</gx:coord>
<when>2026-03-02T12:30:35Z</when>
<gx:coord>-1.5437357 53.8006141 0</gx:coord>
<when>2026-03-02T12:30:36Z</when>
<gx:coord>-1.5435939 53.8005617 0</gx:coord>
<when>2026-03-02T12:30:37Z</when>
<gx:coord>-1.5434520 53.8005094 0</gx:coord>
<when>2026-03-02T12:30:38Z</when>
<gx:coord>-1.5433101 53.8004570 0</gx:coord>
<when>2026-03-02T12:30:39Z</when>
<gx:coord>-1.5431682 53.8004046 0</gx:coord>
<when>2026-03-02T12:30:40Z</when>
<gx:coord>-1.5430263 53.8003523 0</gx:coord>
<when>2026-03-02T12:30:41Z</when>
<gx:coord>-1.5428844 53.8002999 0</gx:coord>
<when>2026-03-02T12:30:42Z</when>
<gx:coord>-1.5427425 53.8002475 0</gx:coord>
<when>2026-03-02T12:30:43Z</when>
<gx:coord>-1.5426006 53.8001952 0</gx:coord>
<when>2026-03-02T12:30:44Z</when>
<gx:coord>-1.5424587 53.8001428 0</gx:coord>
<when>2026-03-02T12:30:45Z</when>
<gx:coord>-1.5423168 53.8000905 0</gx:coord>
<when>2026-03-02T12:30:46Z</when>
<gx:coord>-1.5421750 53.8000381 0</gx:coord>
<when>2026-03-02T12:30:47Z</when>
<gx:coord>-1.5420331 53.7999857 0</gx:coord>
<when>2026-03-02T12:30:48Z</when>
<gx:coord>-1.5418912 53.7999334 0</gx:coord>
<when>2026-03-02T12:30:49Z</when>
<gx:coord>-1.5417493 53.7998810 0</gx:coord>
<when>2026-03-02T12:30:50Z</when>
<gx:coord>-1.5416074 53.7998286 0</gx:coord>
<when>2026-03-02T12:30:51Z</when>
<gx:coord>-1.5414655 53.7997763 0</gx:coord>
<when>2026-03-02T12:30:52Z</when>
<gx:coord>-1.5413236 53.7997239 0</gx:coord>
<when>2026-03-02T12:30:53Z</when>
<gx:coord>-1.5411817 53.7996715 0</gx:coord>
<when>2026-03-02T12:30:54Z</when>
<gx:coord>-1.5410398 53.7996192 0</gx:coord>
<when>2026-03-02T12:30:55Z</when>
<gx:coord>-1.5408980 53.7995668 0</gx:coord>
<when>2026-03-02T12:30:56Z</when>
<gx:coord>-1.5407561 53.7995145 0</gx:coord>
<when>2026-03-02T12:30:57Z</when>
<gx:coord>-1.5406142 53.7994621 0</gx:coord>
<when>2026-03-02T12:30:58Z</when>
<gx:coord>-1.5404723 53.7994097 0</gx:coord>
<when>2026-03-02T12:30:59Z</when>
<gx:coord>-1.5403304 53.7993574 0</gx:coord>
<when>2026-03-02T12:31:00Z</when>
<gx:coord>-1.5401885 53.7993050 0</gx:coord>
<when>2026-03-02T12:31:01Z</when>
<gx:coord>-1.5400703 53.7992614 0</gx:coord>
<when>2026-03-02T12:31:02Z</when>
<gx:coord>-1.5399757 53.7992265 0</gx:coord>
<when>2026-03-02T12:31:03Z</when>
<gx:coord>-1.5399047 53.7992003 0</gx:coord>
<when>2026-03-02T12:31:04Z</when>
<gx:coord>-1.5398574 53.7991828 0</gx:coord>
<when>2026-03-02T12:31:05Z</when>
<gx:coord>-1.5398338 53.7991741 0</gx:coord>
</gx:Track></Placemark></Document></kml>