<?xml version="1.0" encoding="UTF-8"?>
<gpx version="1.1" creator="drive-debrief" xmlns="http://www.topografix.com/GPX/1/1">
<trk><name>drive</name><trkseg>
<trkpt lat="53.8008000" lon="-1.5491000"><time>2026-03-02T12:30:00Z</time><speed>0.000</speed><course>90.00</course></trkpt>
<trkpt lat="53.8008000" lon="-1.5490721"><time>2026-03-02T12:30:01Z</time><speed>1.833</speed><course>90.00</course></trkpt>
<trkpt lat="53.8008000" lon="-1.5490163"><time>2026-03-02T12:30:02Z</time><speed>3.667</speed><course>90.00</course></trkpt>
<trkpt lat="53.8008000" lon="-1.5489327"><time>2026-03-02T12:30:03Z</time><speed>5.500</speed><course>90.00</course></trkpt>
<trkpt lat="53.8008000" lon="-1.5488211"><time>2026-03-02T12:30:04Z</time><speed>7.333</speed><course>90.00</course></trkpt>
<trkpt lat="53.8008000" lon="-1.5486817"><time>2026-03-02T12:30:05Z</time><speed>9.167</speed><course>90.00</course></trkpt>
<trkpt lat="53.8008000" lon="-1.5485144"><time>2026-03-02T12:30:06Z</time><speed>11.000</speed><course>90.00</course></trkpt>
<trkpt lat="53.8008000" lon="-1.5483471"><time>2026-03-02T12:30:07Z</time><speed>11.000</speed><course>90.00</course></trkpt>
<trkpt lat="53.8008000" lon="-1.5481798"><time>2026-03-02T12:30:08Z</time><speed>11.000</speed><course>90.00</course></trkpt>
<trkpt lat="53.8008000" lon="-1.5480125"><time>2026-03-02T12:30:09Z</time><speed>11.000</speed><course>90.00</course></trkpt>
<trkpt lat="53.8008000" lon="-1.5478452"><time>2026-03-02T12:30:10Z</time><speed>11.000</speed><course>90.00</course></trkpt>
<trkpt lat="53.8008000" lon="-1.5476778"><time>2026-03-02T12:30:11Z</time><speed>11.000</speed><course>90.00</course></trkpt>
<trkpt lat="53.8008000" lon="-1.5475105"><time>2026-03-02T12:30:12Z</time><speed>11.000</speed><course>90.00</course></trkpt>
<trkpt lat="53.8008000" lon="-1.5473432"><time>2026-03-02T12:30:13Z</time><speed>11.000</speed><course>90.00</course></trkpt>
<trkpt lat="53.8008000" lon="-1.5471759"><time>2026-03-02T12:30:14Z</time><speed>11.000</speed><course>90.00</course></trkpt>
<trkpt lat="53.8008000" lon="-1.5470086"><time>2026-03-02T12:30:15Z</time><speed>11.000</speed><course>90.00</course></trkpt>
<trkpt lat="53.8008000" lon="-1.5468413"><time>2026-03-02T12:30:16Z</time><speed>11.000</speed><course>90.00</course></trkpt>
<trkpt lat="53.8008000" lon="-1.5466740"><time>2026-03-02T12:30:17Z</time><speed>11.000</speed><course>90.00</course></trkpt>
<trkpt lat="53.8008000" lon="-1.5465066"><time>2026-03-02T12:30:18Z</time><speed>11.000</speed><course>90.00</course></trkpt>
<trkpt lat="53.8008000" lon="-1.5463393"><time>2026-03-02T12:30:19Z</time><speed>11.000</speed><course>90.00</course></trkpt>
<trkpt lat="53.8008000" lon="-1.5461720"><time>2026-03-02T12:30:20Z</time><speed>11.000</speed><course>90.00</course></trkpt>
<trkpt lat="53.8008000" lon="-1.5460047"><time>2026-03-02T12:30:21Z</time><speed>11.000</speed><course>90.00</course></trkpt>
<trkpt lat="53.8008000" lon="-1.5458374"><time>2026-03-02T12:30:22Z</time><speed>11.000</speed><course>90.00</course></trkpt>
<trkpt lat="53.8008000" lon="-1.5456701"><time>2026-03-02T12:30:23Z</time><speed>11.000</speed><course>90.00</course></trkpt>
<trkpt lat="53.8008000" lon="-1.5455028"><time>2026-03-02T12:30:24Z</time><speed>11.000</speed><course>90.00</course></trkpt>
<trkpt lat="53.8008000" lon="-1.5453355"><time>2026-03-02T12:30:25Z</time><speed>11.000</speed><course>90.00</course></trkpt>
<trkpt lat="53.8008000" lon="-1.5451681"><time>2026-03-02T12:30:26Z</time><speed>11.000</speed><course>90.00</course></trkpt>
<trkpt lat="53.8008000" lon="-1.5450008"><time>2026-03-02T12:30:27Z</time><speed>11.000</speed><course>90.00</course></trkpt>
<trkpt lat="53.8008000" lon="-1.5448335"><time>2026-03-02T12:30:28Z</time><speed>11.000</speed><course>90.00</course></trkpt>
<trkpt lat="53.8008000" lon="-1.5446662"><time>2026-03-02T12:30:29Z</time><speed>11.000</speed><course>90.00</course></trkpt>
<trkpt lat="53.8008000" lon="-1.5444989"><time>2026-03-02T12:30:30Z</time><speed>11.000</speed><course>90.00</course></trkpt>
<trkpt lat="53.8007862" lon="-1.5443332"><time>2026-03-02T12:30:31Z</time><speed>11.000</speed><course>98.00</course></trkpt>
<trkpt lat="53.8007590" lon="-1.5441724"><time>2026-03-02T12:30:32Z</time><speed>11.000</speed><course>106.00</course></trkpt>
<trkpt lat="53.8007188" lon="-1.5440195"><time>2026-03-02T12:30:33Z</time><speed>11.000</speed><course>114.00</course></trkpt>
<trkpt lat="53.8006665" lon="-1.5438776"><time>2026-03-02T12:30:34Z</time><speed>11.000</speed><course>122.00</course></trkpt>
<trkpt lat="53.8006141" lon="-1.5437357"><time>2026-03-02T12:30:35Z</time><speed>11.000</speed><course>122.00</course></trkpt>
<trkpt lat="53.8005617" lon="-1.5435939"><time>2026-03-02T12:30:36Z</time><speed>11.000</speed><course>122.00</course></trkpt>
<trkpt lat="53.8005094" lon="-1.5434520"><time>2026-03-02T12:30:37Z</time><speed>11.000</speed><course>122.00</course></trkpt>
<trkpt lat="53.8004570" lon="-1.5433101"><time>2026-03-02T12:30:38Z</time><speed>11.000</speed><course>122.00</course></trkpt>
<trkpt lat="53.8004046" lon="-1.5431682"><time>2026-03-02T12:30:39Z</time><speed>11.000</speed><course>122.00</course></trkpt>
<trkpt lat="53.8003523" lon="-1.5430263"><time>2026-03-02T12:30:40Z</time><speed>11.000</speed><course>122.00</course></trkpt>
<trkpt lat="53.8002999" lon="-1.5428844"><time>2026-03-02T12:30:41Z</time><speed>11.000</speed><course>122.00</course></trkpt>
<trkpt lat="53.8002475" lon="-1.5427425"><time>2026-03-02T12:30:42Z</time><speed>11.000</speed><course>122.00</course></trkpt>
<trkpt lat="53.8001952" lon="-1.5426006"><time>2026-03-02T12:30:43Z</time><speed>11.000</speed><course>122.00</course></trkpt>
<trkpt lat="53.8001428" lon="-1.5424587"><time>2026-03-02T12:30:44Z</time><speed>11.000</speed><course>122.00</course></trkpt>
<trkpt lat="53.8000905" lon="-1.5423168"><time>2026-03-02T12:30:45Z</time><speed>11.000</speed><course>122.00</course></trkpt>
<trkpt lat="53.8000381" lon="-1.5421750"><time>2026-03-02T12:30:46Z</time><speed>11.000</speed><course>122.00</course></trkpt>
<trkpt lat="53.7999857" lon="-1.5420331"><time>2026-03-02T12:30:47Z</time><speed>11.000</speed><course>122.00</course></trkpt>
<trkpt lat="53.7999334" lon="-1.5418912"><time>2026-03-02T12:30:48Z</time><speed>11.000</speed><course>122.00</course></trkpt>
<trkpt lat="53.7998810" lon="-1.5417493"><time>2026-03-02T12:30:49Z</time><speed>11.000</speed><course>122.00</course></trkpt>
<trkpt lat="53.7998286" lon="-1.5416074"><time>2026-03-02T12:30:50Z</time><speed>11.000</speed><course>122.00</course></trkpt>
<trkpt lat="53.7997763" lon="-1.5414655"><time>2026-03-02T12:30:51Z</time><speed>11.000</speed><course>122.00</course></trkpt>
<trkpt lat="53.7997239" lon="-1.5413236"><time>2026-03-02T12:30:52Z</time><speed>11.000</speed><course>122.00</course></trkpt>
<trkpt lat="53.7996715" lon="-1.5411817"><time>2026-03-02T12:30:53Z</time><speed>11.000</speed><course>122.00</course></trkpt>
<trkpt lat="53.7996192" lon="-1.5410398"><time>2026-03-02T12:30:54Z</time><speed>11.000</speed><course>122.00</course></trkpt>
<trkpt lat="53.7995668" lon="-1.5408980"><time>2026-03-02T12:30:55Z</time><speed>11.000</speed><course>122.00</course></trkpt>
<trkpt lat="53.7995145" lon="-1.5407561"><time>2026-03-02T12:30:56Z</time><speed>11.000</speed><course>122.00</course></trkpt>
<trkpt lat="53.7994621" lon="-1.5406142"><time>2026-03-02T12:30:57Z</time><speed>11.000</speed><course>122.00</course></trkpt>
<trkpt lat="53.7994097" lon="-1.5404723"><time>2026-03-02T12:30:58Z</time><speed>11.000</speed><course>122.00</course></trkpt>
<trkpt lat="53.7993574" lon="-1.5403304"><time>2026-03-02T12:30:59Z</time><speed>11.000</speed><course>122.00</course></trkpt>
<trkpt lat="53.7993050" lon="-1.5401885"><time>2026-03-02T12:31:00Z</time><speed>11.000</speed><course>122.00</course></trkpt>
<trkpt lat="53.7992614" lon="-1.5400703"><time>2026-03-02T12:31:01Z</time><speed>9.167</speed><course>122.00</course></trkpt>
<trkpt lat="53.7992265" lon="-1.5399757"><time>2026-03-02T12:31:02Z</time><speed>7.333</speed><course>122.00</course></trkpt>
<trkpt lat="53.7992003" lon="-1.5399047"><time>2026-03-02T12:31:03Z</time><speed>5.500</speed><course>122.00</course></trkpt>
<trkpt lat="53.7991828" lon="-1.5398574"><time>2026-03-02T12:31:04Z</time><speed>3.667</speed><course>122.00</course></trkpt>
<trkpt lat="53.7991741" lon="-1.5398338"><time>2026-03-02T12:31:05Z</time><speed>1.833</speed><course>122.00</course></trkpt>
</trkseg></trk></gpx>