<?xml version="1.0" encoding="UTF-8"?>
<kml xmlns="http://www.opengis.net/kml/2.2" xmlns:gx="http://www.google.com/kml/ext/2.2">
<Document><Placemark><gx:Track>
<when>2026-03-02T17:35:00Z</when>
<gx:coord>-0.1050000 51.5326000 0</gx:coord>
<when>2026-03-02T17:35:01Z</when>
<gx:coord>-0.1049675 51.5326000 0</gx:coord>
<when>2026-03-02T17:35:02Z</when>
<gx:coord>-0.1049025 51.5326000 0</gx:coord>
<when>2026-03-02T17:35:03Z</when>
<gx:coord>-0.1048051 51.5326000 0</gx:coord>
<when>2026-03-02T17:35:04Z</when>
<gx:coord>-0.1046751 51.5326000 0</gx:coord>
<when>2026-03-02T17:35:05Z</when>
<gx:coord>-0.1045451 51.5326000 0</gx:coord>
<when>2026-03-02T17:35:06Z</when>
<gx:coord>-0.1044152 51.5326000 0</gx:coord>
<when>2026-03-02T17:35:07Z</when>
<gx:coord>-0.1042852 51.5326000 0</gx:coord>
<when>2026-03-02T17:35:08Z</when>
<gx:coord>-0.1041552 51.5326000 0</gx:coord>
<when>2026-03-02T17:35:09Z</when>
<gx:coord>-0.1040253 51.5326000 0</gx:coord>
<when>2026-03-02T17:35:10Z</when>
<gx:coord>-0.1038953 51.5326000 0</gx:coord>
<when>2026-03-02T17:35:11Z</when>
<gx:coord>-0.1037653 51.5326000 0</gx:coord>
<when>2026-03-02T17:35:12Z</when>
<gx:coord>-0.1036354 51.5326000 0</gx:coord>
<when>2026-03-02T17:35:13Z</when>
<gx:coord>-0.1035487 51.5326000 0</gx:coord>
<when>2026-03-02T17:35:14Z</when>
<gx:coord>-0.1035054 51.5326000 0</gx:coord>
<when>2026-03-02T17:35:15Z</when>
<gx:coord>-0.1035054 51.5326000 0</gx:coord>
<when>2026-03-02T17:35:16Z</when>
<gx:coord>-0.1035054 51.5326000 0</gx:coord>
<when>2026-03-02T17:35:17Z</when>
<gx:coord>-0.1035054 51.5326000 0</gx:coord>
<when>2026-03-02T17:35:18Z</when>
<gx:coord>-0.1035054 51.5326000 0</gx:coord>
<when>2026-03-02T17:35:19Z</when>
<gx:coord>-0.1035054 51.5326000 0</gx:coord>
<when>2026-03-02T17:35:20Z</when>
<gx:coord>-0.1035054 51.5326000 0</gx:coord>
<when>2026-03-02T17:35:21Z</when>
<gx:coord>-0.1035054 51.5326000 0</gx:coord>
<when>2026-03-02T17:35:22Z</when>
<gx:coord>-0.1034693 51.5326000 0</gx:coord>
<when>2026-03-02T17:35:23Z</when>
<gx:coord>-0.1033971 51.5326000 0</gx:coord>
<when>2026-03-02T17:35:24Z</when>
<gx:coord>-0.1032888 51.5326000 0</gx:coord>
<when>2026-03-02T17:35:25Z</when>
<gx:coord>-0.1031444 51.5326000 0</gx:coord>
<when>2026-03-02T17:35:26Z</when>
<gx:coord>-0.1030000 51.5326000 0</gx:coord>
<when>2026-03-02T17:35:27Z</when>
<gx:coord>-0.1028556 51.5326000 0</gx:coord>
<when>2026-03-02T17:35:28Z</when>
<gx:coord>-0.1027111 51.5326000 0</gx:coord>
<when>2026-03-02T17:35:29Z</when>
<gx:coord>-0.1025667 51.5326000 0</gx:coord>
<when>2026-03-02T17:35:30Z</when>
<gx:coord>-0.1024223 51.5326000 0</gx:coord>
<when>2026-03-02T17:35:31Z</when>
<gx:coord>-0.1022779 51.5326000 0</gx:coord>
<when>2026-03-02T17:35:32Z</when>
<gx:coord>-0.1022057 51.5326000 0</gx:coord>
<when>2026-03-02T17:35:33Z</when>
<gx:coord>-0.1022057 51.5326000 0</gx:coord>
<when>2026-03-02T17:35:34Z</when>
<gx:coord>-0.1022057 51.5326000 0</gx:coord>
<when>2026-03-02T17:35:35Z</when>
<gx:coord>-0.1022057 51.5326000 0</gx:coord>
<when>2026-03-02T17:35:36Z</when>
<gx:coord>-0.1022057 51.5326000 0</gx:coord>
<when>2026-03-02T17:35:37Z</when>
<gx:coord>-0.1022057 51.5326000 0</gx:coord>
<when>2026-03-02T17:35:38Z</when>
<gx:coord>-0.1022057 51.5326000 0</gx:coord>
<when>2026-03-02T17:35:39Z</when>
<gx:coord>-0.1022057 51.5326000 0</gx:coord>
<when>2026-03-02T17:35:40Z</when>
<gx:coord>-0.1021732 51.5326000 0</gx:coord>
<when>2026-03-02T17:35:41Z</when>
<gx:coord>-0.1021083 51.5326000 0</gx:coord>
<when>2026-03-02T17:35:42Z</when>
<gx:coord>-0.1020108 51.5326000 0</gx:coord>
<when>2026-03-02T17:35:43Z</when>
<gx:coord>-0.1018852 51.5325791 0</gx:coord>
<when>2026-03-02T17:35:44Z</when>
<gx:coord>-0.1017727 51.5325387 0</gx:coord>
<when>2026-03-02T17:35:45Z</when>
<gx:coord>-0.1016808 51.5324815 0</gx:coord>
<when>2026-03-02T17:35:46Z</when>
<gx:coord>-0.1016158 51.5324115 0</gx:coord>
<when>2026-03-02T17:35:47Z</when>
<gx:coord>-0.1015822 51.5323334 0</gx:coord>
<when>2026-03-02T17:35:48Z</when>
<gx:coord>-0.1015822 51.5322525 0</gx:coord>
<when>2026-03-02T17:35:49Z</when>
<gx:coord>-0.1016158 51.5321744 0</gx:coord>
<when>2026-03-02T17:35:50Z</when>
<gx:coord>-0.1016808 51.5321044 0</gx:coord>
<when>2026-03-02T17:35:51Z</when>
<gx:coord>-0.1017727 51.5320472 0</gx:coord>
<when>2026-03-02T17:35:52Z</when>
<gx:coord>-0.1018852 51.5320068 0</gx:coord>
<when>2026-03-02T17:35:53Z</when>
<gx:coord>-0.1019978 51.5319664 0</gx:coord>
<when>2026-03-02T17:35:54Z</when>
<gx:coord>-0.1020728 51.5319395 0</gx:coord>
<when>2026-03-02T17:35:55Z</when>
<gx:coord>-0.1021103 51.5319260 0</gx:coord>
<when>2026-03-02T17:35:56Z</when>
<gx:coord>-0.1021103 51.5319260 0</gx:coord>
<when>2026-03-02T17:35:57Z</when>
<gx:coord>-0.1021103 51.5319260 0</gx:coord>
<when>2026-03-02T17:35:58Z</when>
<gx:coord>-0.1021103 51.5319260 0</gx:coord>
<when>2026-03-02T17:35:59Z</when>
<gx:coord>-0.1021103 51.5319260 0</gx:coord>
<when>2026-03-02T17:36:00Z</when>
<gx:coord>-0.1021103 51.5319260 0</gx:coord>
<when>2026-03-02T17:36:01Z</when>
<gx:coord>-0.1021103 51.5319260 0</gx:coord>
</gx:Track></Placemark></Document></kml>