<?xml version="1.0" encoding="UTF-8"?>
<gpx version="1.1" creator="drive-debrief" xmlns="http://www.topografix.com/GPX/1/1">
<trk><name>drive</name><trkseg>
<trkpt lat="51.5326000" lon="-0.1050000"><time>2026-03-02T17:35:00Z</time><speed>0.000</speed><course>90.00</course></trkpt>
<trkpt lat="51.5326000" lon="-0.1049675"><time>2026-03-02T17:35:01Z</time><speed>2.250</speed><course>90.00</course></trkpt>
<trkpt lat="51.5326000" lon="-0.1049025"><time>2026-03-02T17:35:02Z</time><speed>4.500</speed><course>90.00</course></trkpt>
<trkpt lat="51.5326000" lon="-0.1048051"><time>2026-03-02T17:35:03Z</time><speed>6.750</speed><course>90.00</course></trkpt>
<trkpt lat="51.5326000" lon="-0.1046751"><time>2026-03-02T17:35:04Z</time><speed>9.000</speed><course>90.00</course></trkpt>
<trkpt lat="51.5326000" lon="-0.1045451"><time>2026-03-02T17:35:05Z</time><speed>9.000</speed><course>90.00</course></trkpt>
<trkpt lat="51.5326000" lon="-0.1044152"><time>2026-03-02T17:35:06Z</time><speed>9.000</speed><course>90.00</course></trkpt>
<trkpt lat="51.5326000" lon="-0.1042852"><time>2026-03-02T17:35:07Z</time><speed>9.000</speed><course>90.00</course></trkpt>
<trkpt lat="51.5326000" lon="-0.1041552"><time>2026-03-02T17:35:08Z</time><speed>9.000</speed><course>90.00</course></trkpt>
<trkpt lat="51.5326000" lon="-0.1040253"><time>2026-03-02T17:35:09Z</time><speed>9.000</speed><course>90.00</course></trkpt>
<trkpt lat="51.5326000" lon="-0.1038953"><time>2026-03-02T17:35:10Z</time><speed>9.000</speed><course>90.00</course></trkpt>
<trkpt lat="51.5326000" lon="-0.1037653"><time>2026-03-02T17:35:11Z</time><speed>9.000</speed><course>90.00</course></trkpt>
<trkpt lat="51.5326000" lon="-0.1036354"><time>2026-03-02T17:35:12Z</time><speed>9.000</speed><course>90.00</course></trkpt>
<trkpt lat="51.5326000" lon="-0.1035487"><time>2026-03-02T17:35:13Z</time><speed>6.000</speed><course>90.00</course></trkpt>
<trkpt lat="51.5326000" lon="-0.1035054"><time>2026-03-02T17:35:14Z</time><speed>3.000</speed><course>90.00</course></trkpt>
<trkpt lat="51.5326000" lon="-0.1035054"><time>2026-03-02T17:35:15Z</time><speed>0.000</speed><course>90.00</course></trkpt>
<trkpt lat="51.5326000" lon="-0.1035054"><time>2026-03-02T17:35:16Z</time><speed>0.000</speed><course>90.00</course></trkpt>
<trkpt lat="51.5326000" lon="-0.1035054"><time>2026-03-02T17:35:17Z</time><speed>0.000</speed><course>90.00</course></trkpt>
<trkpt lat="51.5326000" lon="-0.1035054"><time>2026-03-02T17:35:18Z</time><speed>0.000</speed><course>90.00</course></trkpt>
<trkpt lat="51.5326000" lon="-0.1035054"><time>2026-03-02T17:35:19Z</time><speed>0.000</speed><course>90.00</course></trkpt>
<trkpt lat="51.5326000" lon="-0.1035054"><time>2026-03-02T17:35:20Z</time><speed>0.000</speed><course>90.00</course></trkpt>
<trkpt lat="51.5326000" lon="-0.1035054"><time>2026-03-02T17:35:21Z</time><speed>0.000</speed><course>90.00</course></trkpt>
<trkpt lat="51.5326000" lon="-0.1034693"><time>2026-03-02T17:35:22Z</time><speed>2.500</speed><course>90.00</course></trkpt>
<trkpt lat="51.5326000" lon="-0.1033971"><time>2026-03-02T17:35:23Z</time><speed>5.000</speed><course>90.00</course></trkpt>
<trkpt lat="51.5326000" lon="-0.1032888"><time>2026-03-02T17:35:24Z</time><speed>7.500</speed><course>90.00</course></trkpt>
<trkpt lat="51.5326000" lon="-0.1031444"><time>2026-03-02T17:35:25Z</time><speed>10.000</speed><course>90.00</course></trkpt>
<trkpt lat="51.5326000" lon="-0.1030000"><time>2026-03-02T17:35:26Z</time><speed>10.000</speed><course>90.00</course></trkpt>
<trkpt lat="51.5326000" lon="-0.1028556"><time>2026-03-02T17:35:27Z</time><speed>10.000</speed><course>90.00</course></trkpt>
<trkpt lat="51.5326000" lon="-0.1027111"><time>2026-03-02T17:35:28Z</time><speed>10.000</speed><course>90.00</course></trkpt>
<trkpt lat="51.5326000" lon="-0.1025667"><time>2026-03-02T17:35:29Z</time><speed>10.000</speed><course>90.00</course></trkpt>
<trkpt lat="51.5326000" lon="-0.1024223"><time>2026-03-02T17:35:30Z</time><speed>10.000</speed><course>90.00</course></trkpt>
<trkpt lat="51.5326000" lon="-0.1022779"><time>2026-03-02T17:35:31Z</time><speed>10.000</speed><course>90.00</course></trkpt>
<trkpt lat="51.5326000" lon="-0.1022057"><time>2026-03-02T17:35:32Z</time><speed>5.000</speed><course>90.00</course></trkpt>
<trkpt lat="51.5326000" lon="-0.1022057"><time>2026-03-02T17:35:33Z</time><speed>0.000</speed><course>90.00</course></trkpt>
<trkpt lat="51.5326000" lon="-0.1022057"><time>2026-03-02T17:35:34Z</time><speed>0.000</speed><course>90.00</course></trkpt>
<trkpt lat="51.5326000" lon="-0.1022057"><time>2026-03-02T17:35:35Z</time><speed>0.000</speed><course>90.00</course></trkpt>
<trkpt lat="51.5326000" lon="-0.1022057"><time>2026-03-02T17:35:36Z</time><speed>0.000</speed><course>90.00</course></trkpt>
<trkpt lat="51.5326000" lon="-0.1022057"><time>2026-03-02T17:35:37Z</time><speed>0.000</speed><course>90.00</course></trkpt>
<trkpt lat="51.5326000" lon="-0.1022057"><time>2026-03-02T17:35:38Z</time><speed>0.000</speed><course>90.00</course></trkpt>
<trkpt lat="51.5326000" lon="-0.1022057"><time>2026-03-02T17:35:39Z</time><speed>0.000</speed><course>90.00</course></trkpt>
<trkpt lat="51.5326000" lon="-0.1021732"><time>2026-03-02T17:35:40Z</time><speed>2.250</speed><course>90.00</course></trkpt>
<trkpt lat="51.5326000" lon="-0.1021083"><time>2026-03-02T17:35:41Z</time><speed>4.500</speed><course>90.00</course></trkpt>
<trkpt lat="51.5326000" lon="-0.1020108"><time>2026-03-02T17:35:42Z</time><speed>6.750</speed><course>90.00</course></trkpt>
<trkpt lat="51.5325791" lon="-0.1018852"><time>2026-03-02T17:35:43Z</time><speed>9.000</speed><course>105.00</course></trkpt>
<trkpt lat="51.5325387" lon="-0.1017727"><time>2026-03-02T17:35:44Z</time><speed>9.000</speed><course>120.00</course></trkpt>
<trkpt lat="51.5324815" lon="-0.1016808"><time>2026-03-02T17:35:45Z</time><speed>9.000</speed><course>135.00</course></trkpt>
<trkpt lat="51.5324115" lon="-0.1016158"><time>2026-03-02T17:35:46Z</time><speed>9.000</speed><course>150.00</course></trkpt>
<trkpt lat="51.5323334" lon="-0.1015822"><time>2026-03-02T17:35:47Z</time><speed>9.000</speed><course>165.00</course></trkpt>
<trkpt lat="51.5322525" lon="-0.1015822"><time>2026-03-02T17:35:48Z</time><speed>9.000</speed><course>180.00</course></trkpt>
<trkpt lat="51.5321744" lon="-0.1016158"><time>2026-03-02T17:35:49Z</time><speed>9.000</speed><course>195.00</course></trkpt>
<trkpt lat="51.5321044" lon="-0.1016808"><time>2026-03-02T17:35:50Z</time><speed>9.000</speed><course>210.00</course></trkpt>
<trkpt lat="51.5320472" lon="-0.1017727"><time>2026-03-02T17:35:51Z</time><speed>9.000</speed><course>225.00</course></trkpt>
<trkpt lat="51.5320068" lon="-0.1018852"><time>2026-03-02T17:35:52Z</time><speed>9.000</speed><course>240.00</course></trkpt>
<trkpt lat="51.5319664" lon="-0.1019978"><time>2026-03-02T17:35:53Z</time><speed>9.000</speed><course>240.00</course></trkpt>
<trkpt lat="51.5319395" lon="-0.1020728"><time>2026-03-02T17:35:54Z</time><speed>6.000</speed><course>240.00</course></trkpt>
<trkpt lat="51.5319260" lon="-0.1021103"><time>2026-03-02T17:35:55Z</time><speed>3.000</speed><course>240.00</course></trkpt>
<trkpt lat="51.5319260" lon="-0.1021103"><time>2026-03-02T17:35:56Z</time><speed>0.000</speed><course>240.00</course></trkpt>
<trkpt lat="51.5319260" lon="-0.1021103"><time>2026-03-02T17:35:57Z</time><speed>0.000</speed><course>240.00</course></trkpt>
<trkpt lat="51.5319260" lon="-0.1021103"><time>2026-03-02T17:35:58Z</time><speed>0.000</speed><course>240.00</course></trkpt>
<trkpt lat="51.5319260" lon="-0.1021103"><time>2026-03-02T17:35:59Z</time><speed>0.000</speed><course>240.00</course></trkpt>
<trkpt lat="51.5319260" lon="-0.1021103"><time>2026-03-02T17:36:00Z</time><speed>0.000</speed><course>240.00</course></trkpt>
<trkpt lat="51.5319260" lon="-0.1021103"><time>2026-03-02T17:36:01Z</time><speed>0.000</speed><course>240.00</course></trkpt>
</trkseg></trk></gpx>