<?xml version="1.0" encoding="UTF-8"?>
<kml xmlns="http://www.opengis.net/kml/2.2" xmlns:gx="http://www.google.com/kml/ext/2.2">
<Document><Placemark><gx:Track>
<when>2026-01-01T00:00:00Z</when>
<gx:coord>-0.1049670 51.5326000 0</gx:coord>
<when>2026-01-01T00:00:01Z</when>
<gx:coord>-0.1050133 51.5326081 0</gx:coord>
<when>2026-01-01T00:00:02Z</when>
<gx:coord>-0.1048807 51.5325926 0</gx:coord>
<when>2026-01-01T00:00:03Z</when>
<gx:coord>-0.1047428 51.5325760 0</gx:coord>
<when>2026-01-01T00:00:04Z</when>
<gx:coord>-0.1046212 51.5325877 0</gx:coord>
<when>2026-01-01T00:00:05Z</when>
<gx:coord>-0.1043899 51.5325733 0</gx:coord>
<when>2026-01-01T00:00:06Z</when>
<gx:coord>-0.1042289 51.5326016 0</gx:coord>
<when>2026-01-01T00:00:07Z</when>
<gx:coord>-0.1040036 51.5326361 0</gx:coord>
<when>2026-01-01T00:00:08Z</when>
<gx:coord>-0.1037766 51.5325867 0</gx:coord>
<when>2026-01-01T00:00:09Z</when>
<gx:coord>-0.1036747 51.5325833 0</gx:coord>
<when>2026-01-01T00:00:10Z</when>
<gx:coord>-0.1034432 51.5326132 0</gx:coord>
<when>2026-01-01T00:00:11Z</when>
<gx:coord>-0.1032785 51.5326096 0</gx:coord>
<when>2026-01-01T00:00:12Z</when>
<gx:coord>-0.1030594 51.5326028 0</gx:coord>
<when>2026-01-01T00:00:13Z</when>
<gx:coord>-0.1029229 51.5325749 0</gx:coord>
<when>2026-01-01T00:00:14Z</when>
<gx:coord>-0.1027030 51.5325992 0</gx:coord>
<when>2026-01-01T00:00:15Z</when>
<gx:coord>-0.1024929 51.5326187 0</gx:coord>
<when>2026-01-01T00:00:16Z</when>
<gx:coord>-0.1022520 51.5325638 0</gx:coord>
<when>2026-01-01T00:00:17Z</when>
<gx:coord>-0.1020478 51.5325877 0</gx:coord>
<when>2026-01-01T00:00:18Z</when>
<gx:coord>-0.1019613 51.5325488 0</gx:coord>
<when>2026-01-01T00:00:19Z</when>
<gx:coord>-0.1017448 51.5325652 0</gx:coord>
<when>2026-01-01T00:00:20Z</when>
<gx:coord>-0.1014889 51.5325504 0</gx:coord>
<when>2026-01-01T00:00:21Z</when>
<gx:coord>-0.1015065 51.5325937 0</gx:coord>
<when>2026-01-01T00:00:22Z</when>
<gx:coord>-0.1014402 51.5325658 0</gx:coord>
<when>2026-01-01T00:00:23Z</when>
<gx:coord>-0.1014244 51.5326073 0</gx:coord>
<when>2026-01-01T00:00:24Z</when>
<gx:coord>-0.1013657 51.5326042 0</gx:coord>
<when>2026-01-01T00:00:25Z</when>
<gx:coord>-0.1013903 51.5325950 0</gx:coord>
<when>2026-01-01T00:00:26Z</when>
<gx:coord>-0.1014343 51.5325322 0</gx:coord>
<when>2026-01-01T00:00:27Z</when>
<gx:coord>-0.1014361 51.5325855 0</gx:coord>
<when>2026-01-01T00:00:28Z</when>
<gx:coord>-0.1014310 51.5325987 0</gx:coord>
<when>2026-01-01T00:00:29Z</when>
<gx:coord>-0.1013541 51.5326031 0</gx:coord>
<when>2026-01-01T00:00:30Z</when>
<gx:coord>-0.1014387 51.5325588 0</gx:coord>
<when>2026-01-01T00:00:31Z</when>
<gx:coord>-0.1013804 51.5325871 0</gx:coord>
<when>2026-01-01T00:00:32Z</when>
<gx:coord>-0.1012460 51.5325736 0</gx:coord>
<when>2026-01-01T00:00:33Z</when>
<gx:coord>-0.1011077 51.5325782 0</gx:coord>
<when>2026-01-01T00:00:34Z</when>
<gx:coord>-0.1009522 51.5326286 0</gx:coord>
<when>2026-01-01T00:00:35Z</when>
<gx:coord>-0.1008330 51.5325782 0</gx:coord>
<when>2026-01-01T00:00:36Z</when>
<gx:coord>-0.1006264 51.5325991 0</gx:coord>
<when>2026-01-01T00:00:37Z</when>
<gx:coord>-0.1005012 51.5325821 0</gx:coord>
<when>2026-01-01T00:00:38Z</when>
<gx:coord>-0.1003293 51.5324668 0</gx:coord>
<when>2026-01-01T00:00:39Z</when>
<gx:coord>-0.1003104 51.5323841 0</gx:coord>
<when>2026-01-01T00:00:40Z</when>
<gx:coord>-0.1003674 51.5322928 0</gx:coord>
<when>2026-01-01T00:00:41Z</when>
<gx:coord>-0.1003649 51.5321942 0</gx:coord>
<when>2026-01-01T00:00:42Z</when>
<gx:coord>-0.1004362 51.5320621 0</gx:coord>
<when>2026-01-01T00:00:43Z</when>
<gx:coord>-0.1004035 51.5319999 0</gx:coord>
<when>2026-01-01T00:00:44Z</when>
<gx:coord>-0.1004769 51.5319372 0</gx:coord>
<when>2026-01-01T00:00:45Z</when>
<gx:coord>-0.1004790 51.5317615 0</gx:coord>
<when>2026-01-01T00:00:46Z</when>
<gx:coord>-0.1005877 51.5317291 0</gx:coord>
<when>2026-01-01T00:00:47Z</when>
<gx:coord>-0.1005375 51.5316361 0</gx:coord>
<when>2026-01-01T00:00:48Z</when>
<gx:coord>-0.1006394 51.5315670 0</gx:coord>
<when>2026-01-01T00:00:49Z</when>
<gx:coord>-0.1006614 51.5316138 0</gx:coord>
</gx:Track></Placemark></Document></kml>