<?xml version="1.0" encoding="UTF-8"?>
<gpx version="1.1" creator="drive-debrief" xmlns="http://www.topografix.com/GPX/1/1">
<trk><name>drive</name><trkseg>
<trkpt lat="51.5326000" lon="-0.1049670"><time>2026-01-01T00:00:00Z</time><speed>0.000</speed><course>88.39</course></trkpt>
<trkpt lat="51.5326081" lon="-0.1050133"><time>2026-01-01T00:00:01Z</time><speed>2.279</speed><course>90.49</course></trkpt>
<trkpt lat="51.5325926" lon="-0.1048807"><time>2026-01-01T00:00:02Z</time><speed>4.952</speed><course>86.69</course></trkpt>
<trkpt lat="51.5325760" lon="-0.1047428"><time>2026-01-01T00:00:03Z</time><speed>7.935</speed><course>91.31</course></trkpt>
<trkpt lat="51.5325877" lon="-0.1046212"><time>2026-01-01T00:00:04Z</time><speed>10.026</speed><course>92.29</course></trkpt>
<trkpt lat="51.5325733" lon="-0.1043899"><time>2026-01-01T00:00:05Z</time><speed>13.343</speed><course>89.09</course></trkpt>
<trkpt lat="51.5326016" lon="-0.1042289"><time>2026-01-01T00:00:06Z</time><speed>13.113</speed><course>90.86</course></trkpt>
<trkpt lat="51.5326361" lon="-0.1040036"><time>2026-01-01T00:00:07Z</time><speed>13.668</speed><course>90.50</course></trkpt>
<trkpt lat="51.5325867" lon="-0.1037766"><time>2026-01-01T00:00:08Z</time><speed>13.687</speed><course>89.21</course></trkpt>
<trkpt lat="51.5325833" lon="-0.1036747"><time>2026-01-01T00:00:09Z</time><speed>13.818</speed><course>88.28</course></trkpt>
<trkpt lat="51.5326132" lon="-0.1034432"><time>2026-01-01T00:00:10Z</time><speed>13.630</speed><course>85.93</course></trkpt>
<trkpt lat="51.5326096" lon="-0.1032785"><time>2026-01-01T00:00:11Z</time><speed>13.384</speed><course>92.82</course></trkpt>
<trkpt lat="51.5326028" lon="-0.1030594"><time>2026-01-01T00:00:12Z</time><speed>13.658</speed><course>89.90</course></trkpt>
<trkpt lat="51.5325749" lon="-0.1029229"><time>2026-01-01T00:00:13Z</time><speed>13.852</speed><course>95.04</course></trkpt>
<trkpt lat="51.5325992" lon="-0.1027030"><time>2026-01-01T00:00:14Z</time><speed>13.204</speed><course>91.65</course></trkpt>
<trkpt lat="51.5326187" lon="-0.1024929"><time>2026-01-01T00:00:15Z</time><speed>13.583</speed><course>90.56</course></trkpt>
<trkpt lat="51.5325638" lon="-0.1022520"><time>2026-01-01T00:00:16Z</time><speed>13.387</speed><course>88.69</course></trkpt>
<trkpt lat="51.5325877" lon="-0.1020478"><time>2026-01-01T00:00:17Z</time><speed>13.832</speed><course>92.78</course></trkpt>
<trkpt lat="51.5325488" lon="-0.1019613"><time>2026-01-01T00:00:18Z</time><speed>13.149</speed><course>88.99</course></trkpt>
<trkpt lat="51.5325652" lon="-0.1017448"><time>2026-01-01T00:00:19Z</time><speed>13.310</speed><course>93.14</course></trkpt>
<trkpt lat="51.5325504" lon="-0.1014889"><time>2026-01-01T00:00:20Z</time><speed>13.509</speed><course>89.20</course></trkpt>
<trkpt lat="51.5325937" lon="-0.1015065"><time>2026-01-01T00:00:21Z</time><speed>6.777</speed><course>90.37</course></trkpt>
<trkpt lat="51.5325658" lon="-0.1014402"><time>2026-01-01T00:00:22Z</time><speed>0.000</speed><course>86.95</course></trkpt>
<trkpt lat="51.5326073" lon="-0.1014244"><time>2026-01-01T00:00:23Z</time><speed>0.108</speed><course>94.69</course></trkpt>
<trkpt lat="51.5326042" lon="-0.1013657"><time>2026-01-01T00:00:24Z</time><speed>0.000</speed><course>89.81</course></trkpt>
<trkpt lat="51.5325950" lon="-0.1013903"><time>2026-01-01T00:00:25Z</time><speed>0.000</speed><course>89.23</course></trkpt>
<trkpt lat="51.5325322" lon="-0.1014343"><time>2026-01-01T00:00:26Z</time><speed>0.000</speed><course>91.62</course></trkpt>
<trkpt lat="51.5325855" lon="-0.1014361"><time>2026-01-01T00:00:27Z</time><speed>0.066</speed><course>88.22</course></trkpt>
<trkpt lat="51.5325987" lon="-0.1014310"><time>2026-01-01T00:00:28Z</time><speed>0.000</speed><course>91.54</course></trkpt>
<trkpt lat="51.5326031" lon="-0.1013541"><time>2026-01-01T00:00:29Z</time><speed>0.466</speed><course>87.66</course></trkpt>
<trkpt lat="51.5325588" lon="-0.1014387"><time>2026-01-01T00:00:30Z</time><speed>0.000</speed><course>91.09</course></trkpt>
<trkpt lat="51.5325871" lon="-0.1013804"><time>2026-01-01T00:00:31Z</time><speed>2.994</speed><course>87.91</course></trkpt>
<trkpt lat="51.5325736" lon="-0.1012460"><time>2026-01-01T00:00:32Z</time><speed>7.309</speed><course>86.33</course></trkpt>
<trkpt lat="51.5325782" lon="-0.1011077"><time>2026-01-01T00:00:33Z</time><speed>11.437</speed><course>88.81</course></trkpt>
<trkpt lat="51.5326286" lon="-0.1009522"><time>2026-01-01T00:00:34Z</time><speed>10.844</speed><course>87.07</course></trkpt>
<trkpt lat="51.5325782" lon="-0.1008330"><time>2026-01-01T00:00:35Z</time><speed>11.465</speed><course>91.11</course></trkpt>
<trkpt lat="51.5325991" lon="-0.1006264"><time>2026-01-01T00:00:36Z</time><speed>11.467</speed><course>90.04</course></trkpt>
<trkpt lat="51.5325900" lon="-0.1004959"><time>2026-01-01T00:00:37Z</time><speed>10.741</speed><course>111.02</course></trkpt>
<trkpt lat="51.5324870" lon="-0.1003044"><time>2026-01-01T00:00:38Z</time><speed>10.260</speed><course>130.18</course></trkpt>
<trkpt lat="51.5324141" lon="-0.1002472"><time>2026-01-01T00:00:39Z</time><speed>10.629</speed><course>149.29</course></trkpt>
<trkpt lat="51.5323228" lon="-0.1002490"><time>2026-01-01T00:00:40Z</time><speed>11.356</speed><course>170.06</course></trkpt>
<trkpt lat="51.5322242" lon="-0.1001914"><time>2026-01-01T00:00:41Z</time><speed>10.755</speed><course>172.10</course></trkpt>
<trkpt lat="51.5320922" lon="-0.1002075"><time>2026-01-01T00:00:42Z</time><speed>10.547</speed><course>169.63</course></trkpt>
<trkpt lat="51.5320299" lon="-0.1001196"><time>2026-01-01T00:00:43Z</time><speed>10.599</speed><course>168.48</course></trkpt>
<trkpt lat="51.5319672" lon="-0.1001379"><time>2026-01-01T00:00:44Z</time><speed>11.000</speed><course>168.06</course></trkpt>
<trkpt lat="51.5317915" lon="-0.1000848"><time>2026-01-01T00:00:45Z</time><speed>10.992</speed><course>169.56</course></trkpt>
<trkpt lat="51.5317591" lon="-0.1001384"><time>2026-01-01T00:00:46Z</time><speed>11.262</speed><course>168.50</course></trkpt>
<trkpt lat="51.5316662" lon="-0.1000467"><time>2026-01-01T00:00:47Z</time><speed>8.547</speed><course>173.76</course></trkpt>
<trkpt lat="51.5315970" lon="-0.1001211"><time>2026-01-01T00:00:48Z</time><speed>5.220</speed><course>167.64</course></trkpt>
<trkpt lat="51.5316439" lon="-0.1001293"><time>2026-01-01T00:00:49Z</time><speed>2.703</speed><course>167.84</course></trkpt>
</trkseg></trk></gpx>